[
    {
        "geonameId": 1037109,
        "name": "Circunscri\u00e7\u00e3o de Mopeia",
        "children": [
            
        ]
    },
    {
        "geonameId": 1045351,
        "name": "Circunscri\u00e7\u00e3o do Ile",
        "children": [
            
        ]
    },
    {
        "geonameId": 1028433,
        "name": "Concelho de Quelimane",
        "children": [
            
        ]
    },
    {
        "geonameId": 1049181,
        "name": "Concelho do Chinde",
        "children": [
            
        ]
    },
    {
        "geonameId": 7874708,
        "name": "Gil\u00e9 District",
        "children": [
            
        ]
    },
    {
        "geonameId": 7873991,
        "name": "Gurue District",
        "children": [
            
        ]
    },
    {
        "geonameId": 7909704,
        "name": "Inhassunge District",
        "children": [
            
        ]
    },
    {
        "geonameId": 7874710,
        "name": "Lugela District",
        "children": [
            
        ]
    },
    {
        "geonameId": 7874711,
        "name": "Maganja da Costa District",
        "children": [
            
        ]
    },
    {
        "geonameId": 7874712,
        "name": "Milange District",
        "children": [
            
        ]
    },
    {
        "geonameId": 7880951,
        "name": "Mocuba District",
        "children": [
            
        ]
    },
    {
        "geonameId": 7873993,
        "name": "Morrumbala District",
        "children": [
            
        ]
    },
    {
        "geonameId": 8714615,
        "name": "Namacurra District",
        "children": [
            
        ]
    },
    {
        "geonameId": 7874724,
        "name": "Namarroi District",
        "children": [
            
        ]
    },
    {
        "geonameId": 7874725,
        "name": "Nicoadala District",
        "children": [
            
        ]
    },
    {
        "geonameId": 7873988,
        "name": "Nicodala District",
        "children": [
            
        ]
    },
    {
        "geonameId": 7874726,
        "name": "Pebane District",
        "children": [
            
        ]
    }
]