[
    {
        "geonameId": 7874046,
        "name": "Caia District",
        "children": [
            
        ]
    },
    {
        "geonameId": 7909770,
        "name": "Chemba",
        "children": [
            
        ]
    },
    {
        "geonameId": 7874471,
        "name": "Chemba District",
        "children": [
            
        ]
    },
    {
        "geonameId": 7874614,
        "name": "Cheringoma District",
        "children": [
            
        ]
    },
    {
        "geonameId": 7873985,
        "name": "Chibabava District",
        "children": [
            
        ]
    },
    {
        "geonameId": 1040396,
        "name": "Circunscri\u00e7\u00e3o de Marromeu",
        "children": [
            
        ]
    },
    {
        "geonameId": 1052372,
        "name": "Concelho da Beira",
        "children": [
            
        ]
    },
    {
        "geonameId": 1051852,
        "name": "Concelho do B\u00fazi",
        "children": [
            
        ]
    },
    {
        "geonameId": 7873986,
        "name": "Dondo District",
        "children": [
            
        ]
    },
    {
        "geonameId": 1045789,
        "name": "Gorongosa District",
        "children": [
            
        ]
    },
    {
        "geonameId": 7874474,
        "name": "Machanga District",
        "children": [
            
        ]
    },
    {
        "geonameId": 7909768,
        "name": "Maringue",
        "children": [
            
        ]
    },
    {
        "geonameId": 7874473,
        "name": "Maringu\u00e9 District",
        "children": [
            
        ]
    },
    {
        "geonameId": 7874472,
        "name": "Muanza District",
        "children": [
            
        ]
    },
    {
        "geonameId": 7873984,
        "name": "Nhamatanda District",
        "children": [
            
        ]
    }
]