[
    {
        "geonameId": 7909828,
        "name": "Cahora Bassa District",
        "children": [
            
        ]
    },
    {
        "geonameId": 7905000,
        "name": "Changara District",
        "children": [
            
        ]
    },
    {
        "geonameId": 7905199,
        "name": "Chifunde District",
        "children": [
            
        ]
    },
    {
        "geonameId": 7905529,
        "name": "Chiuta District",
        "children": [
            
        ]
    },
    {
        "geonameId": 9252731,
        "name": "Cidade de Tete",
        "children": [
            
        ]
    },
    {
        "geonameId": 1052937,
        "name": "Circunscri\u00e7\u00e3o da Ang\u00f3nia",
        "children": [
            
        ]
    },
    {
        "geonameId": 1042871,
        "name": "Circunscri\u00e7\u00e3o da Macanga",
        "children": [
            
        ]
    },
    {
        "geonameId": 1035304,
        "name": "Circunscri\u00e7\u00e3o da Mutarara",
        "children": [
            
        ]
    },
    {
        "geonameId": 1040587,
        "name": "Circunscri\u00e7\u00e3o de Mar\u00e1via",
        "children": [
            
        ]
    },
    {
        "geonameId": 1041912,
        "name": "Circunscri\u00e7\u00e3o de M\u00e0go\u00e9",
        "children": [
            
        ]
    },
    {
        "geonameId": 9252732,
        "name": "Luenha",
        "children": [
            
        ]
    },
    {
        "geonameId": 1037394,
        "name": "Moatize",
        "children": [
            
        ]
    },
    {
        "geonameId": 7874106,
        "name": "Tsangano District",
        "children": [
            
        ]
    },
    {
        "geonameId": 9252739,
        "name": "Zumbu",
        "children": [
            
        ]
    }
]