[
    {
        "geonameId": 1041189,
        "name": "Circunscri\u00e7\u00e3o de Mandimba",
        "children": [
            
        ]
    },
    {
        "geonameId": 1027397,
        "name": "Circunscri\u00e7\u00e3o de Sanga",
        "children": [
            
        ]
    },
    {
        "geonameId": 7732033,
        "name": "Cuamba",
        "children": [
            
        ]
    },
    {
        "geonameId": 7874414,
        "name": "Lago District",
        "children": [
            
        ]
    },
    {
        "geonameId": 7874115,
        "name": "Lichinga District",
        "children": [
            
        ]
    },
    {
        "geonameId": 7874117,
        "name": "Majune District",
        "children": [
            
        ]
    },
    {
        "geonameId": 8299276,
        "name": "Marrupa District",
        "children": [
            
        ]
    },
    {
        "geonameId": 9252721,
        "name": "Mavago",
        "children": [
            
        ]
    },
    {
        "geonameId": 7874416,
        "name": "Ma\u00faa District",
        "children": [
            
        ]
    },
    {
        "geonameId": 7874417,
        "name": "Mecanhelas District",
        "children": [
            
        ]
    },
    {
        "geonameId": 1039135,
        "name": "Mecula",
        "children": [
            
        ]
    },
    {
        "geonameId": 7874418,
        "name": "Metarica District",
        "children": [
            
        ]
    },
    {
        "geonameId": 7874419,
        "name": "Muembe District",
        "children": [
            
        ]
    },
    {
        "geonameId": 7911297,
        "name": "N'gauma District",
        "children": [
            
        ]
    },
    {
        "geonameId": 7874420,
        "name": "Ngauma District",
        "children": [
            
        ]
    },
    {
        "geonameId": 7874421,
        "name": "Nipepe District",
        "children": [
            
        ]
    }
]