[
    {
        "geonameId": 7874406,
        "name": "Angoche District",
        "children": [
            
        ]
    },
    {
        "geonameId": 7732038,
        "name": "Cidade de Nampula",
        "children": [
            
        ]
    },
    {
        "geonameId": 1037020,
        "name": "Circunscri\u00e7\u00e3o de Mossuril",
        "children": [
            
        ]
    },
    {
        "geonameId": 1035470,
        "name": "Circunscri\u00e7\u00e3o de Murrupula",
        "children": [
            
        ]
    },
    {
        "geonameId": 1035018,
        "name": "Circunscri\u00e7\u00e3o de Nacala-a-Velha",
        "children": [
            
        ]
    },
    {
        "geonameId": 1046627,
        "name": "Circunscri\u00e7\u00e3o do Er\u00e1ti",
        "children": [
            
        ]
    },
    {
        "geonameId": 1037282,
        "name": "Circunscr\u00ec\u00e7\u00e3o de Mogovolas",
        "children": [
            
        ]
    },
    {
        "geonameId": 1037222,
        "name": "Circunscr\u00ec\u00e7\u00e3o de Moma",
        "children": [
            
        ]
    },
    {
        "geonameId": 1037286,
        "name": "Circunscr\u00ec\u00e7\u00e3o do Mogincual",
        "children": [
            
        ]
    },
    {
        "geonameId": 1037178,
        "name": "Concelho de Monapo",
        "children": [
            
        ]
    },
    {
        "geonameId": 1033355,
        "name": "Concelho de Nampula",
        "children": [
            
        ]
    },
    {
        "geonameId": 9252730,
        "name": "Ilha de Mocambique",
        "children": [
            
        ]
    },
    {
        "geonameId": 7874408,
        "name": "Lalaua District",
        "children": [
            
        ]
    },
    {
        "geonameId": 7732034,
        "name": "Malema",
        "children": [
            
        ]
    },
    {
        "geonameId": 1039205,
        "name": "Meconta",
        "children": [
            
        ]
    },
    {
        "geonameId": 7732037,
        "name": "Mecuburi",
        "children": [
            
        ]
    },
    {
        "geonameId": 1038879,
        "name": "Memba",
        "children": [
            
        ]
    },
    {
        "geonameId": 7874410,
        "name": "Muecate District",
        "children": [
            
        ]
    },
    {
        "geonameId": 9072697,
        "name": "Nacala-Porto",
        "children": [
            
        ]
    },
    {
        "geonameId": 7874411,
        "name": "Nacaroa District",
        "children": [
            
        ]
    },
    {
        "geonameId": 7732036,
        "name": "Nampula",
        "children": [
            
        ]
    },
    {
        "geonameId": 7732035,
        "name": "Ribaue",
        "children": [
            
        ]
    }
]