[
    {
        "geonameId": 1052446,
        "name": "Barue District",
        "children": [
            
        ]
    },
    {
        "geonameId": 1037018,
        "name": "Circunscri\u00e7\u00e3o de Mossurize",
        "children": [
            
        ]
    },
    {
        "geonameId": 1035732,
        "name": "Circunscri\u00e7\u00e3o de Mung\u00e1ri",
        "children": [
            
        ]
    },
    {
        "geonameId": 1040948,
        "name": "Concelho de Manica",
        "children": [
            
        ]
    },
    {
        "geonameId": 1049260,
        "name": "Concelho do Chimoio",
        "children": [
            
        ]
    },
    {
        "geonameId": 7646374,
        "name": "Gondola District",
        "children": [
            
        ]
    },
    {
        "geonameId": 7874045,
        "name": "Guro District",
        "children": [
            
        ]
    },
    {
        "geonameId": 7874620,
        "name": "Machaze District",
        "children": [
            
        ]
    },
    {
        "geonameId": 7874622,
        "name": "Macossa District",
        "children": [
            
        ]
    },
    {
        "geonameId": 7670758,
        "name": "Sussundenga District",
        "children": [
            
        ]
    },
    {
        "geonameId": 7874624,
        "name": "Tambara District",
        "children": [
            
        ]
    }
]