[
    {
        "geonameId": 7701205,
        "name": "Aeroporto",
        "children": [
            
        ]
    },
    {
        "geonameId": 7873983,
        "name": "Boane District",
        "children": [
            
        ]
    },
    {
        "geonameId": 1039852,
        "name": "Concelho de Matola",
        "children": [
            
        ]
    },
    {
        "geonameId": 7701206,
        "name": "Distrito Municipal 1",
        "children": [
            
        ]
    },
    {
        "geonameId": 7701207,
        "name": "Distrito Municipal 2",
        "children": [
            
        ]
    },
    {
        "geonameId": 7701208,
        "name": "Distrito Municipal 3",
        "children": [
            
        ]
    },
    {
        "geonameId": 7701210,
        "name": "Distrito Municipal 4",
        "children": [
            
        ]
    },
    {
        "geonameId": 7701211,
        "name": "Distrito Municipal 5",
        "children": [
            
        ]
    },
    {
        "geonameId": 7873976,
        "name": "Magude District",
        "children": [
            
        ]
    },
    {
        "geonameId": 1090080,
        "name": "Manhica",
        "children": [
            
        ]
    },
    {
        "geonameId": 8693192,
        "name": "Marracuene District",
        "children": [
            
        ]
    },
    {
        "geonameId": 7670756,
        "name": "Matutiune District",
        "children": [
            
        ]
    },
    {
        "geonameId": 7874404,
        "name": "Matutu\ufffd\ufffdne District",
        "children": [
            
        ]
    },
    {
        "geonameId": 7873980,
        "name": "Moamba District",
        "children": [
            
        ]
    },
    {
        "geonameId": 8301113,
        "name": "Namaacha District",
        "children": [
            
        ]
    }
]