[
    {
        "geonameId": 9252733,
        "name": "Cidade de Inhambane",
        "children": [
            
        ]
    },
    {
        "geonameId": 1045762,
        "name": "Circunscri\u00e7\u00e3o do Govuro",
        "children": [
            
        ]
    },
    {
        "geonameId": 7909780,
        "name": "Funhalouro District",
        "children": [
            
        ]
    },
    {
        "geonameId": 7909785,
        "name": "Homoine District",
        "children": [
            
        ]
    },
    {
        "geonameId": 7909783,
        "name": "Inharrime District",
        "children": [
            
        ]
    },
    {
        "geonameId": 7909781,
        "name": "Inhassoro District",
        "children": [
            
        ]
    },
    {
        "geonameId": 7909784,
        "name": "Jangamo District",
        "children": [
            
        ]
    },
    {
        "geonameId": 7670768,
        "name": "Mabote",
        "children": [
            
        ]
    },
    {
        "geonameId": 7909715,
        "name": "Massinga District",
        "children": [
            
        ]
    },
    {
        "geonameId": 9252722,
        "name": "Maxixe",
        "children": [
            
        ]
    },
    {
        "geonameId": 7909786,
        "name": "Morrumbene District",
        "children": [
            
        ]
    },
    {
        "geonameId": 9252738,
        "name": "Panda",
        "children": [
            
        ]
    },
    {
        "geonameId": 7909787,
        "name": "Vilankulo District",
        "children": [
            
        ]
    },
    {
        "geonameId": 7670754,
        "name": "Vilankulos District",
        "children": [
            
        ]
    },
    {
        "geonameId": 7909714,
        "name": "Zavala District",
        "children": [
            
        ]
    }
]