[
    {
        "geonameId": 9072735,
        "name": "Bilene Macia District",
        "children": [
            
        ]
    },
    {
        "geonameId": 7670759,
        "name": "Chicualacuala",
        "children": [
            
        ]
    },
    {
        "geonameId": 7670772,
        "name": "Chigubo",
        "children": [
            
        ]
    },
    {
        "geonameId": 7874104,
        "name": "Chokwe District",
        "children": [
            
        ]
    },
    {
        "geonameId": 1049858,
        "name": "Concelho do Chibuto",
        "children": [
            
        ]
    },
    {
        "geonameId": 1040936,
        "name": "Distrito de Manjacaze",
        "children": [
            
        ]
    },
    {
        "geonameId": 9252728,
        "name": "Guija",
        "children": [
            
        ]
    },
    {
        "geonameId": 7670774,
        "name": "Mabalane",
        "children": [
            
        ]
    },
    {
        "geonameId": 7670771,
        "name": "Massangena",
        "children": [
            
        ]
    },
    {
        "geonameId": 7670767,
        "name": "Massingir",
        "children": [
            
        ]
    },
    {
        "geonameId": 9408663,
        "name": "Xai-Xai District",
        "children": [
            {
                "geonameId": 7874018,
                "name": "Xai-Xai Municipality",
                "children": [
                    
                ]
            }
        ]
    }
]