[
    {
        "geonameId": 7909876,
        "name": "Ancuabe District",
        "children": [
            
        ]
    },
    {
        "geonameId": 7874119,
        "name": "Balama District",
        "children": [
            
        ]
    },
    {
        "geonameId": 9252729,
        "name": "Chiure",
        "children": [
            
        ]
    },
    {
        "geonameId": 1028315,
        "name": "Circunscri\u00e7\u00e3o da Quissanga",
        "children": [
            
        ]
    },
    {
        "geonameId": 1042455,
        "name": "Circunscri\u00e7\u00e3o de Macomia",
        "children": [
            
        ]
    },
    {
        "geonameId": 1029247,
        "name": "Circunscri\u00e7\u00e3o de Palma",
        "children": [
            
        ]
    },
    {
        "geonameId": 1045383,
        "name": "Concelho do Ibo",
        "children": [
            
        ]
    },
    {
        "geonameId": 1039148,
        "name": "Mecufi",
        "children": [
            
        ]
    },
    {
        "geonameId": 9252727,
        "name": "Meluco",
        "children": [
            
        ]
    },
    {
        "geonameId": 1037368,
        "name": "Mocimboa da Praia",
        "children": [
            
        ]
    },
    {
        "geonameId": 8299277,
        "name": "Montepuez District",
        "children": [
            
        ]
    },
    {
        "geonameId": 7909845,
        "name": "Mueda District",
        "children": [
            
        ]
    },
    {
        "geonameId": 9252735,
        "name": "Muidumbe",
        "children": [
            
        ]
    },
    {
        "geonameId": 7911292,
        "name": "Namuno District",
        "children": [
            
        ]
    },
    {
        "geonameId": 9252736,
        "name": "Nangade",
        "children": [
            
        ]
    },
    {
        "geonameId": 7646427,
        "name": "Pemba",
        "children": [
            
        ]
    }
]