[
    {
        "geonameId": 145897,
        "name": "Munic\u00edpio Cambulo",
        "children": [
            
        ]
    },
    {
        "geonameId": 2242427,
        "name": "Munic\u00edpio Capenda-Camulemba",
        "children": [
            
        ]
    },
    {
        "geonameId": 2242051,
        "name": "Munic\u00edpio Caungula",
        "children": [
            
        ]
    },
    {
        "geonameId": 145775,
        "name": "Munic\u00edpio Chitato",
        "children": [
            
        ]
    },
    {
        "geonameId": 2241665,
        "name": "Munic\u00edpio Cuango",
        "children": [
            
        ]
    },
    {
        "geonameId": 2241628,
        "name": "Munic\u00edpio Cuilo",
        "children": [
            
        ]
    },
    {
        "geonameId": 2240415,
        "name": "Munic\u00edpio Lubalo",
        "children": [
            
        ]
    },
    {
        "geonameId": 145723,
        "name": "Munic\u00edpio Lucapa",
        "children": [
            
        ]
    },
    {
        "geonameId": 2236396,
        "name": "Munic\u00edpio X\u00e1-Muteba",
        "children": [
            
        ]
    }
]