[
    {
        "geonameId": 1547480,
        "name": "Anse aux Anglais",
        "children": [
            
        ]
    },
    {
        "geonameId": 1547520,
        "name": "Baie Topaze",
        "children": [
            
        ]
    },
    {
        "geonameId": 1547471,
        "name": "Baie aux Hu\u00eetres",
        "children": [
            
        ]
    },
    {
        "geonameId": 1547536,
        "name": "Bassin Cabri",
        "children": [
            
        ]
    },
    {
        "geonameId": 1547527,
        "name": "Br\u00fbl\u00e9",
        "children": [
            
        ]
    },
    {
        "geonameId": 1547525,
        "name": "Camp du Roi",
        "children": [
            
        ]
    },
    {
        "geonameId": 1547526,
        "name": "Chameaux",
        "children": [
            
        ]
    },
    {
        "geonameId": 1547514,
        "name": "Citron Donis",
        "children": [
            
        ]
    },
    {
        "geonameId": 1547494,
        "name": "Citronelle",
        "children": [
            
        ]
    },
    {
        "geonameId": 1545799,
        "name": "Coromandel",
        "children": [
            
        ]
    },
    {
        "geonameId": 1545795,
        "name": "Cr\u00e8ve Coeur",
        "children": [
            
        ]
    },
    {
        "geonameId": 1547531,
        "name": "Eau Vann\u00e9e",
        "children": [
            
        ]
    },
    {
        "geonameId": 1547476,
        "name": "Grand Baie",
        "children": [
            
        ]
    },
    {
        "geonameId": 1547483,
        "name": "Grande Montagne",
        "children": [
            
        ]
    },
    {
        "geonameId": 1545776,
        "name": "La Ferme",
        "children": [
            
        ]
    },
    {
        "geonameId": 1547457,
        "name": "La Fouche",
        "children": [
            
        ]
    },
    {
        "geonameId": 1545774,
        "name": "Lataniers",
        "children": [
            
        ]
    },
    {
        "geonameId": 1547467,
        "name": "Mangue",
        "children": [
            
        ]
    },
    {
        "geonameId": 1547472,
        "name": "Mar\u00e9chal",
        "children": [
            
        ]
    },
    {
        "geonameId": 1547495,
        "name": "Mont Lubin",
        "children": [
            
        ]
    },
    {
        "geonameId": 1545762,
        "name": "Nouvelle D\u00e9couverte",
        "children": [
            
        ]
    },
    {
        "geonameId": 1547528,
        "name": "Palissade Ternel",
        "children": [
            
        ]
    },
    {
        "geonameId": 1547484,
        "name": "Patate Th\u00e9ophile",
        "children": [
            
        ]
    },
    {
        "geonameId": 1545757,
        "name": "Petit Br\u00fbl\u00e9",
        "children": [
            
        ]
    },
    {
        "geonameId": 1545756,
        "name": "Petit Gabriel",
        "children": [
            
        ]
    },
    {
        "geonameId": 1547490,
        "name": "Petit Gravier",
        "children": [
            
        ]
    },
    {
        "geonameId": 1547459,
        "name": "Petite Butte",
        "children": [
            
        ]
    },
    {
        "geonameId": 1547511,
        "name": "Plaine Corail",
        "children": [
            
        ]
    },
    {
        "geonameId": 1545752,
        "name": "Port Mathurin",
        "children": [
            
        ]
    },
    {
        "geonameId": 1545751,
        "name": "Port Sud-Est",
        "children": [
            
        ]
    },
    {
        "geonameId": 1545750,
        "name": "Quatre Vents",
        "children": [
            
        ]
    },
    {
        "geonameId": 1547466,
        "name": "Rivi\u00e8re Cocos",
        "children": [
            
        ]
    },
    {
        "geonameId": 1547481,
        "name": "Roche Bon Dieu",
        "children": [
            
        ]
    },
    {
        "geonameId": 1545746,
        "name": "Saint Gabriel",
        "children": [
            
        ]
    },
    {
        "geonameId": 1547529,
        "name": "Saint Louis",
        "children": [
            
        ]
    },
    {
        "geonameId": 1547543,
        "name": "Solitude",
        "children": [
            
        ]
    },
    {
        "geonameId": 1547535,
        "name": "Songe",
        "children": [
            
        ]
    },
    {
        "geonameId": 1547544,
        "name": "Soupir",
        "children": [
            
        ]
    }
]