[
    {
        "geonameId": 200974,
        "name": "Anglogitat",
        "children": [
            
        ]
    },
    {
        "geonameId": 200970,
        "name": "Angorangora",
        "children": [
            
        ]
    },
    {
        "geonameId": 195197,
        "name": "Kakuma",
        "children": [
            
        ]
    },
    {
        "geonameId": 190430,
        "name": "Kosipirr",
        "children": [
            
        ]
    },
    {
        "geonameId": 189280,
        "name": "Lodwar",
        "children": [
            
        ]
    },
    {
        "geonameId": 189249,
        "name": "Loichangamatak",
        "children": [
            
        ]
    },
    {
        "geonameId": 189190,
        "name": "Lokichar",
        "children": [
            
        ]
    },
    {
        "geonameId": 189189,
        "name": "Lokichogio",
        "children": [
            
        ]
    },
    {
        "geonameId": 189173,
        "name": "Lokitaung",
        "children": [
            
        ]
    },
    {
        "geonameId": 189140,
        "name": "Lokwakangole",
        "children": [
            
        ]
    },
    {
        "geonameId": 189009,
        "name": "Lomelo",
        "children": [
            
        ]
    },
    {
        "geonameId": 188891,
        "name": "Loperot",
        "children": [
            
        ]
    },
    {
        "geonameId": 188838,
        "name": "Lorugumu",
        "children": [
            
        ]
    },
    {
        "geonameId": 188827,
        "name": "Loruth",
        "children": [
            
        ]
    },
    {
        "geonameId": 185553,
        "name": "Muriling",
        "children": [
            
        ]
    },
    {
        "geonameId": 183828,
        "name": "Nganukonharengak",
        "children": [
            
        ]
    },
    {
        "geonameId": 181806,
        "name": "Oropoi",
        "children": [
            
        ]
    }
]