[
    {
        "geonameId": 2234988,
        "name": "D\u00e9partement de Bamboutos",
        "children": [
            
        ]
    },
    {
        "geonameId": 2234948,
        "name": "D\u00e9partement de Bamoun",
        "children": [
            
        ]
    },
    {
        "geonameId": 2226712,
        "name": "D\u00e9partement de Mifi",
        "children": [
            
        ]
    },
    {
        "geonameId": 2227064,
        "name": "D\u00e9partement de la M\u00e9noua",
        "children": [
            
        ]
    },
    {
        "geonameId": 2230816,
        "name": "D\u00e9partement du Haut-Nkam",
        "children": [
            
        ]
    },
    {
        "geonameId": 2225334,
        "name": "D\u00e9partement du Nd\u00e9",
        "children": [
            
        ]
    },
    {
        "geonameId": 9224961,
        "name": "Hauts-Plateaux",
        "children": [
            
        ]
    },
    {
        "geonameId": 9224964,
        "name": "Koung-Khi",
        "children": [
            
        ]
    },
    {
        "geonameId": 9224965,
        "name": "Noun",
        "children": [
            
        ]
    }
]