[
    {
        "geonameId": 2230817,
        "name": "D\u00e9partement de la Haute-Sanaga",
        "children": [
            
        ]
    },
    {
        "geonameId": 2229546,
        "name": "D\u00e9partement de la L\u00e9ki\u00e9",
        "children": [
            
        ]
    },
    {
        "geonameId": 2227419,
        "name": "D\u00e9partement de la M\u00e9fou",
        "children": [
            
        ]
    },
    {
        "geonameId": 2228070,
        "name": "D\u00e9partement du Mbam",
        "children": [
            
        ]
    },
    {
        "geonameId": 2223330,
        "name": "D\u00e9partement du Nyong-et-K\u00e9ll\u00e9",
        "children": [
            
        ]
    },
    {
        "geonameId": 2223329,
        "name": "D\u00e9partement du Nyong-et-Mfoumou",
        "children": [
            
        ]
    },
    {
        "geonameId": 2223327,
        "name": "D\u00e9partement du Nyong-et-Soo",
        "children": [
            
        ]
    },
    {
        "geonameId": 7731691,
        "name": "Lekie",
        "children": [
            
        ]
    },
    {
        "geonameId": 9224948,
        "name": "Mbam-Et-Inoubou",
        "children": [
            
        ]
    },
    {
        "geonameId": 7730793,
        "name": "Mbam-et-Kim",
        "children": [
            
        ]
    },
    {
        "geonameId": 9165815,
        "name": "Mefou-et-Akono",
        "children": [
            
        ]
    },
    {
        "geonameId": 8693008,
        "name": "Mfoundi",
        "children": [
            
        ]
    },
    {
        "geonameId": 7731690,
        "name": "M\u00e9fou-et-Afamba",
        "children": [
            
        ]
    },
    {
        "geonameId": 7731689,
        "name": "Nyong-et-So'o",
        "children": [
            
        ]
    }
]