[
    {
        "geonameId": 2239859,
        "name": "Malanje Municipality",
        "children": [
            {
                "geonameId": 2239862,
                "name": "Malanje",
                "children": [
                    
                ]
            }
        ]
    },
    {
        "geonameId": 2243120,
        "name": "Munic\u00edpio Cacuso",
        "children": [
            
        ]
    },
    {
        "geonameId": 2242997,
        "name": "Munic\u00edpio Calandula",
        "children": [
            
        ]
    },
    {
        "geonameId": 3350916,
        "name": "Munic\u00edpio Cambundi-Catembo",
        "children": [
            
        ]
    },
    {
        "geonameId": 3350771,
        "name": "Munic\u00edpio Cangandala",
        "children": [
            
        ]
    },
    {
        "geonameId": 2242475,
        "name": "Munic\u00edpio Caombo",
        "children": [
            
        ]
    },
    {
        "geonameId": 2240688,
        "name": "Munic\u00edpio Kiwaba N\u2019zogi",
        "children": [
            
        ]
    },
    {
        "geonameId": 2240685,
        "name": "Munic\u00edpio Kunda-dia-Baze",
        "children": [
            
        ]
    },
    {
        "geonameId": 3347614,
        "name": "Munic\u00edpio Luquembo",
        "children": [
            {
                "geonameId": 3350551,
                "name": "Capunda",
                "children": [
                    
                ]
            }
        ]
    },
    {
        "geonameId": 2239711,
        "name": "Munic\u00edpio Marimba",
        "children": [
            
        ]
    },
    {
        "geonameId": 2239696,
        "name": "Munic\u00edpio Massango",
        "children": [
            
        ]
    },
    {
        "geonameId": 2239335,
        "name": "Munic\u00edpio Mucari",
        "children": [
            
        ]
    },
    {
        "geonameId": 2238814,
        "name": "Munic\u00edpio Quela",
        "children": [
            
        ]
    },
    {
        "geonameId": 3346489,
        "name": "Munic\u00edpio Quirima",
        "children": [
            
        ]
    }
]