[
    {
        "geonameId": 2241967,
        "name": "Cazengo Municipality",
        "children": [
            
        ]
    },
    {
        "geonameId": 2243916,
        "name": "Munic\u00edpio Ambaca",
        "children": [
            
        ]
    },
    {
        "geonameId": 2243811,
        "name": "Munic\u00edpio Banga",
        "children": [
            
        ]
    },
    {
        "geonameId": 2243535,
        "name": "Munic\u00edpio Bolongongo",
        "children": [
            
        ]
    },
    {
        "geonameId": 2242801,
        "name": "Munic\u00edpio Cambambe",
        "children": [
            {
                "geonameId": 2241371,
                "name": "Dondo",
                "children": [
                    
                ]
            },
            {
                "geonameId": 9385334,
                "name": "Mussende",
                "children": [
                    
                ]
            }
        ]
    },
    {
        "geonameId": 2240974,
        "name": "Munic\u00edpio Golungo Alto",
        "children": [
            
        ]
    },
    {
        "geonameId": 2240905,
        "name": "Munic\u00edpio Gonguembo",
        "children": [
            
        ]
    },
    {
        "geonameId": 2240384,
        "name": "Munic\u00edpio Lucala",
        "children": [
            {
                "geonameId": 2241372,
                "name": "Dondo",
                "children": [
                    
                ]
            }
        ]
    },
    {
        "geonameId": 2238485,
        "name": "Munic\u00edpio Quiculungo",
        "children": [
            
        ]
    }
]