[
    {
        "geonameId": 2241484,
        "name": "Dande Municipality",
        "children": [
            
        ]
    },
    {
        "geonameId": 2243911,
        "name": "Munic\u00edpio Ambriz",
        "children": [
            {
                "geonameId": 2243914,
                "name": "Ambriz",
                "children": [
                    
                ]
            }
        ]
    },
    {
        "geonameId": 2243420,
        "name": "Munic\u00edpio Bula Atumba",
        "children": [
            
        ]
    },
    {
        "geonameId": 2241454,
        "name": "Munic\u00edpio Dembos",
        "children": [
            
        ]
    },
    {
        "geonameId": 2240756,
        "name": "Munic\u00edpio Icolo e Bengo",
        "children": [
            
        ]
    },
    {
        "geonameId": 2238950,
        "name": "Munic\u00edpio Pango Aluqu\u00e9m",
        "children": [
            
        ]
    },
    {
        "geonameId": 2238564,
        "name": "Munic\u00edpio Quicama",
        "children": [
            
        ]
    },
    {
        "geonameId": 2239093,
        "name": "Nambuangongo Municipality",
        "children": [
            
        ]
    }
]