[
    {
        "geonameId": 2254763,
        "name": "Adab\u00e9r\u00e9",
        "children": [
            
        ]
    },
    {
        "geonameId": 2254689,
        "name": "Amady Ounar\u00e9",
        "children": [
            
        ]
    },
    {
        "geonameId": 2254658,
        "name": "Andiar\u00e9",
        "children": [
            
        ]
    },
    {
        "geonameId": 6611628,
        "name": "Ap\u00e9 Diaoub\u00e9",
        "children": [
            
        ]
    },
    {
        "geonameId": 2254586,
        "name": "Babingu\u00e9l",
        "children": [
            
        ]
    },
    {
        "geonameId": 2254127,
        "name": "Barm\u00e9tial",
        "children": [
            
        ]
    },
    {
        "geonameId": 2253863,
        "name": "Bingu\u00e9l Dadhi",
        "children": [
            
        ]
    },
    {
        "geonameId": 2253822,
        "name": "Bloug",
        "children": [
            
        ]
    },
    {
        "geonameId": 2253723,
        "name": "Boki Saboudo",
        "children": [
            
        ]
    },
    {
        "geonameId": 2253744,
        "name": "Bok\u00e9ladji",
        "children": [
            
        ]
    },
    {
        "geonameId": 2253684,
        "name": "Bondji",
        "children": [
            
        ]
    },
    {
        "geonameId": 2253595,
        "name": "Boulbi",
        "children": [
            
        ]
    },
    {
        "geonameId": 2254002,
        "name": "B\u00e9lel-Tiodo",
        "children": [
            
        ]
    },
    {
        "geonameId": 2253966,
        "name": "B\u00e9lnaib\u00e9 Mbaila",
        "children": [
            
        ]
    },
    {
        "geonameId": 2253016,
        "name": "Dantiady",
        "children": [
            
        ]
    },
    {
        "geonameId": 2252877,
        "name": "Dial Soubalb\u00e9",
        "children": [
            
        ]
    },
    {
        "geonameId": 2252768,
        "name": "Diamm\u00e9l",
        "children": [
            
        ]
    },
    {
        "geonameId": 2252751,
        "name": "Diamounguel",
        "children": [
            
        ]
    },
    {
        "geonameId": 2252606,
        "name": "Diawara",
        "children": [
            
        ]
    },
    {
        "geonameId": 2252424,
        "name": "Diolol Diaoub\u00e9",
        "children": [
            
        ]
    },
    {
        "geonameId": 2244043,
        "name": "Diolol Yalalb\u00e9",
        "children": [
            
        ]
    },
    {
        "geonameId": 2252722,
        "name": "Di\u00e9gue",
        "children": [
            
        ]
    },
    {
        "geonameId": 2252577,
        "name": "Di\u00e9la",
        "children": [
            
        ]
    },
    {
        "geonameId": 2252216,
        "name": "Djinnthiang",
        "children": [
            
        ]
    },
    {
        "geonameId": 2252297,
        "name": "Djowel Ouorgo",
        "children": [
            
        ]
    },
    {
        "geonameId": 2252113,
        "name": "Doumga Boss\u00e9r\u00e9",
        "children": [
            
        ]
    },
    {
        "geonameId": 2252114,
        "name": "Doumga Ouro Alfa",
        "children": [
            
        ]
    },
    {
        "geonameId": 2252112,
        "name": "Doumga Ouro Tierno",
        "children": [
            
        ]
    },
    {
        "geonameId": 2252110,
        "name": "Dound\u00e9 Bagu\u00e9",
        "children": [
            
        ]
    },
    {
        "geonameId": 2244882,
        "name": "D\u00e9iba",
        "children": [
            
        ]
    },
    {
        "geonameId": 2253026,
        "name": "D\u00e9ndoudi",
        "children": [
            
        ]
    },
    {
        "geonameId": 2252157,
        "name": "D\u00f4ndou",
        "children": [
            
        ]
    },
    {
        "geonameId": 2252011,
        "name": "Fadiara",
        "children": [
            
        ]
    },
    {
        "geonameId": 2251818,
        "name": "Fora",
        "children": [
            
        ]
    },
    {
        "geonameId": 2251794,
        "name": "Foum\u00e9 Hara D\u00e9mboub\u00e9",
        "children": [
            
        ]
    },
    {
        "geonameId": 2251884,
        "name": "F\u00e9t\u00e9 Bow\u00e9",
        "children": [
            
        ]
    },
    {
        "geonameId": 2251879,
        "name": "F\u00e9t\u00e9 Fovrou",
        "children": [
            
        ]
    },
    {
        "geonameId": 2251875,
        "name": "F\u00e9t\u00e9 Niarval",
        "children": [
            
        ]
    },
    {
        "geonameId": 2251915,
        "name": "F\u00e9t\u00e9 Ni\u00e9b\u00e9",
        "children": [
            
        ]
    },
    {
        "geonameId": 2251775,
        "name": "Gabou",
        "children": [
            
        ]
    },
    {
        "geonameId": 2251737,
        "name": "Galadi",
        "children": [
            
        ]
    },
    {
        "geonameId": 2251733,
        "name": "Galangal",
        "children": [
            
        ]
    },
    {
        "geonameId": 2251731,
        "name": "Galayab\u00e9 Foulb\u00e9",
        "children": [
            
        ]
    },
    {
        "geonameId": 2251730,
        "name": "Galayab\u00e9 Torob\u00e9",
        "children": [
            
        ]
    },
    {
        "geonameId": 6644101,
        "name": "Gana Balo",
        "children": [
            
        ]
    },
    {
        "geonameId": 2251691,
        "name": "Gand\u00e9",
        "children": [
            
        ]
    },
    {
        "geonameId": 2251679,
        "name": "Ganguel Maka",
        "children": [
            
        ]
    },
    {
        "geonameId": 2251678,
        "name": "Ganguel-Soul\u00e9",
        "children": [
            
        ]
    },
    {
        "geonameId": 2251666,
        "name": "Ganki Boubouyel",
        "children": [
            
        ]
    },
    {
        "geonameId": 2251665,
        "name": "Ganki Doumbodj\u00e9",
        "children": [
            
        ]
    },
    {
        "geonameId": 2251644,
        "name": "Garli",
        "children": [
            
        ]
    },
    {
        "geonameId": 2251638,
        "name": "Gassamb\u00e9ri",
        "children": [
            
        ]
    },
    {
        "geonameId": 2251631,
        "name": "Gassel",
        "children": [
            
        ]
    },
    {
        "geonameId": 2251626,
        "name": "Gassel Doro",
        "children": [
            
        ]
    },
    {
        "geonameId": 2251633,
        "name": "Gass\u00e9 Diab\u00e9",
        "children": [
            
        ]
    },
    {
        "geonameId": 2251658,
        "name": "Gawdal I",
        "children": [
            
        ]
    },
    {
        "geonameId": 2251556,
        "name": "Godo",
        "children": [
            
        ]
    },
    {
        "geonameId": 2251517,
        "name": "Gonriki Samba Diom",
        "children": [
            
        ]
    },
    {
        "geonameId": 2251468,
        "name": "Goudoud\u00e9 Ndou\u00e9tb\u00e9",
        "children": [
            
        ]
    },
    {
        "geonameId": 2251469,
        "name": "Goundoud\u00e9 Diob\u00e9",
        "children": [
            
        ]
    },
    {
        "geonameId": 2251402,
        "name": "Gourel Badi",
        "children": [
            
        ]
    },
    {
        "geonameId": 2251401,
        "name": "Gourel Bink",
        "children": [
            
        ]
    },
    {
        "geonameId": 2251398,
        "name": "Gourel Bouli",
        "children": [
            
        ]
    },
    {
        "geonameId": 2251396,
        "name": "Gourel Dara",
        "children": [
            
        ]
    },
    {
        "geonameId": 2251681,
        "name": "Gourel Mama Demba",
        "children": [
            
        ]
    },
    {
        "geonameId": 2251370,
        "name": "Gouriki Koliab\u00e9",
        "children": [
            
        ]
    },
    {
        "geonameId": 2251407,
        "name": "Gour\u00e9l Gu\u00e9da",
        "children": [
            
        ]
    },
    {
        "geonameId": 2251217,
        "name": "Guiraye Ouorgo",
        "children": [
            
        ]
    },
    {
        "geonameId": 2251662,
        "name": "G\u00e2wol",
        "children": [
            
        ]
    },
    {
        "geonameId": 6644102,
        "name": "Hamarab\u00e9",
        "children": [
            
        ]
    },
    {
        "geonameId": 2247094,
        "name": "Hombo",
        "children": [
            
        ]
    },
    {
        "geonameId": 2251114,
        "name": "Idite",
        "children": [
            
        ]
    },
    {
        "geonameId": 2251021,
        "name": "Kadr\u00e9 Pavi",
        "children": [
            
        ]
    },
    {
        "geonameId": 2250971,
        "name": "Kak",
        "children": [
            
        ]
    },
    {
        "geonameId": 2250926,
        "name": "Kama",
        "children": [
            
        ]
    },
    {
        "geonameId": 2250849,
        "name": "Kanel",
        "children": [
            
        ]
    },
    {
        "geonameId": 2250839,
        "name": "Kangal",
        "children": [
            
        ]
    },
    {
        "geonameId": 2250794,
        "name": "Kaouel",
        "children": [
            
        ]
    },
    {
        "geonameId": 2250699,
        "name": "Katot\u00e9",
        "children": [
            
        ]
    },
    {
        "geonameId": 2250693,
        "name": "Kavel",
        "children": [
            
        ]
    },
    {
        "geonameId": 2250691,
        "name": "Kav\u00e9l",
        "children": [
            
        ]
    },
    {
        "geonameId": 2250692,
        "name": "Kav\u00e9l Kangal",
        "children": [
            
        ]
    },
    {
        "geonameId": 2250688,
        "name": "Kawal",
        "children": [
            
        ]
    },
    {
        "geonameId": 2249865,
        "name": "Kirir",
        "children": [
            
        ]
    },
    {
        "geonameId": 2251064,
        "name": "Kobilo",
        "children": [
            
        ]
    },
    {
        "geonameId": 2249778,
        "name": "Koli",
        "children": [
            
        ]
    },
    {
        "geonameId": 2249563,
        "name": "Koundel",
        "children": [
            
        ]
    },
    {
        "geonameId": 2249560,
        "name": "Koundi Boki",
        "children": [
            
        ]
    },
    {
        "geonameId": 2249530,
        "name": "Kourbol",
        "children": [
            
        ]
    },
    {
        "geonameId": 2249505,
        "name": "Kourou Karan\u00e9",
        "children": [
            
        ]
    },
    {
        "geonameId": 2250618,
        "name": "K\u00e9llol",
        "children": [
            
        ]
    },
    {
        "geonameId": 2249410,
        "name": "Lambango",
        "children": [
            
        ]
    },
    {
        "geonameId": 2249263,
        "name": "Liou",
        "children": [
            
        ]
    },
    {
        "geonameId": 2249259,
        "name": "Lobali",
        "children": [
            
        ]
    },
    {
        "geonameId": 2249238,
        "name": "Lordouga",
        "children": [
            
        ]
    },
    {
        "geonameId": 2249232,
        "name": "Lotok\u00e9",
        "children": [
            
        ]
    },
    {
        "geonameId": 2249257,
        "name": "Loubougal",
        "children": [
            
        ]
    },
    {
        "geonameId": 2249216,
        "name": "Louggu\u00e9 Ti\u00e9kodi\u00e9",
        "children": [
            
        ]
    },
    {
        "geonameId": 2249219,
        "name": "Lougu\u00e9 Nodi",
        "children": [
            
        ]
    },
    {
        "geonameId": 2249202,
        "name": "Lougu\u00e9r\u00e9 Baba",
        "children": [
            
        ]
    },
    {
        "geonameId": 2249144,
        "name": "Loumbi",
        "children": [
            
        ]
    },
    {
        "geonameId": 2249128,
        "name": "Loumbi Nialbi",
        "children": [
            
        ]
    },
    {
        "geonameId": 2249119,
        "name": "Loumbol",
        "children": [
            
        ]
    },
    {
        "geonameId": 2249115,
        "name": "Loumbol Amar",
        "children": [
            
        ]
    },
    {
        "geonameId": 2249344,
        "name": "L\u00e8gui",
        "children": [
            
        ]
    },
    {
        "geonameId": 2249053,
        "name": "Madina",
        "children": [
            
        ]
    },
    {
        "geonameId": 2249009,
        "name": "Madina Torob\u00e9",
        "children": [
            
        ]
    },
    {
        "geonameId": 2249010,
        "name": "Madina Torob\u00e9",
        "children": [
            
        ]
    },
    {
        "geonameId": 2248887,
        "name": "Mam\u00e2ri",
        "children": [
            
        ]
    },
    {
        "geonameId": 2248873,
        "name": "Mana\u00e8l",
        "children": [
            
        ]
    },
    {
        "geonameId": 2248853,
        "name": "Mandioumba",
        "children": [
            
        ]
    },
    {
        "geonameId": 2248854,
        "name": "Mandioumba",
        "children": [
            
        ]
    },
    {
        "geonameId": 2248752,
        "name": "Matam",
        "children": [
            
        ]
    },
    {
        "geonameId": 2248737,
        "name": "Mayel Ndangam",
        "children": [
            
        ]
    },
    {
        "geonameId": 2248689,
        "name": "Mbakna",
        "children": [
            
        ]
    },
    {
        "geonameId": 2248680,
        "name": "Mbanane",
        "children": [
            
        ]
    },
    {
        "geonameId": 2253703,
        "name": "Mboloy\u00e9l",
        "children": [
            
        ]
    },
    {
        "geonameId": 2248496,
        "name": "Mboul",
        "children": [
            
        ]
    },
    {
        "geonameId": 2248483,
        "name": "Mboume Niel",
        "children": [
            
        ]
    },
    {
        "geonameId": 2248481,
        "name": "Mboune",
        "children": [
            
        ]
    },
    {
        "geonameId": 2248582,
        "name": "Mb\u00e9lone",
        "children": [
            
        ]
    },
    {
        "geonameId": 2248611,
        "name": "Mb\u00e9\u00e9da",
        "children": [
            
        ]
    },
    {
        "geonameId": 2248296,
        "name": "Modi Boulo",
        "children": [
            
        ]
    },
    {
        "geonameId": 2248294,
        "name": "Modik\u00e9lol",
        "children": [
            
        ]
    },
    {
        "geonameId": 2248288,
        "name": "Mogo Yalalb\u00e9",
        "children": [
            
        ]
    },
    {
        "geonameId": 2248252,
        "name": "Moud\u00e9ri",
        "children": [
            
        ]
    },
    {
        "geonameId": 2248202,
        "name": "Nabadji",
        "children": [
            
        ]
    },
    {
        "geonameId": 2248184,
        "name": "Nalal Daou",
        "children": [
            
        ]
    },
    {
        "geonameId": 2248143,
        "name": "Naour\u00e9",
        "children": [
            
        ]
    },
    {
        "geonameId": 2248129,
        "name": "Navel",
        "children": [
            
        ]
    },
    {
        "geonameId": 2253972,
        "name": "Ndiafaf Beltyind\u00e9",
        "children": [
            
        ]
    },
    {
        "geonameId": 2247699,
        "name": "Ndiot",
        "children": [
            
        ]
    },
    {
        "geonameId": 2247608,
        "name": "Ndouloumadji Demb\u00e9",
        "children": [
            
        ]
    },
    {
        "geonameId": 2247609,
        "name": "Ndouloumadji Foun\u00e9b\u00e9",
        "children": [
            
        ]
    },
    {
        "geonameId": 2247789,
        "name": "Nd\u00e9ndoury",
        "children": [
            
        ]
    },
    {
        "geonameId": 2247580,
        "name": "Nelbi",
        "children": [
            
        ]
    },
    {
        "geonameId": 2247547,
        "name": "Ngabou",
        "children": [
            
        ]
    },
    {
        "geonameId": 2247511,
        "name": "Ngano",
        "children": [
            
        ]
    },
    {
        "geonameId": 2247407,
        "name": "Ngouloum",
        "children": [
            
        ]
    },
    {
        "geonameId": 2247341,
        "name": "Nguidjlone",
        "children": [
            
        ]
    },
    {
        "geonameId": 2247111,
        "name": "Odioldou",
        "children": [
            
        ]
    },
    {
        "geonameId": 2247108,
        "name": "Odob\u00e9r\u00e9",
        "children": [
            
        ]
    },
    {
        "geonameId": 2247092,
        "name": "Ontorb\u00e9",
        "children": [
            
        ]
    },
    {
        "geonameId": 2247084,
        "name": "Orndold\u00e9",
        "children": [
            
        ]
    },
    {
        "geonameId": 2247015,
        "name": "Oudourou",
        "children": [
            
        ]
    },
    {
        "geonameId": 2246960,
        "name": "Ouro Ali",
        "children": [
            
        ]
    },
    {
        "geonameId": 2253313,
        "name": "Ouro Dambal",
        "children": [
            
        ]
    },
    {
        "geonameId": 2246922,
        "name": "Ouro Sogui",
        "children": [
            
        ]
    },
    {
        "geonameId": 2246967,
        "name": "Ouro S\u00e9bo",
        "children": [
            
        ]
    },
    {
        "geonameId": 2246894,
        "name": "Padalal",
        "children": [
            
        ]
    },
    {
        "geonameId": 2246739,
        "name": "Pattouki",
        "children": [
            
        ]
    },
    {
        "geonameId": 2246642,
        "name": "Pol\u00e9l Aouloub\u00e9",
        "children": [
            
        ]
    },
    {
        "geonameId": 2246618,
        "name": "Poul\u00e8m",
        "children": [
            
        ]
    },
    {
        "geonameId": 2246585,
        "name": "Ran\u00e9rou",
        "children": [
            
        ]
    },
    {
        "geonameId": 2246516,
        "name": "Roumd\u00e9 Boy\u00e9nadji",
        "children": [
            
        ]
    },
    {
        "geonameId": 2246415,
        "name": "Salndou",
        "children": [
            
        ]
    },
    {
        "geonameId": 2376656,
        "name": "Silla Ouorgo",
        "children": [
            
        ]
    },
    {
        "geonameId": 2245427,
        "name": "Sintiou Bamamb\u00e9",
        "children": [
            
        ]
    },
    {
        "geonameId": 2245423,
        "name": "Sintiou Bara",
        "children": [
            
        ]
    },
    {
        "geonameId": 2376651,
        "name": "Sintiou Boummaka",
        "children": [
            
        ]
    },
    {
        "geonameId": 2245410,
        "name": "Sintiou Boy\u00e9nadji",
        "children": [
            
        ]
    },
    {
        "geonameId": 2245399,
        "name": "Sintiou Diamdioro",
        "children": [
            
        ]
    },
    {
        "geonameId": 6644103,
        "name": "Sintiou Garba",
        "children": [
            
        ]
    },
    {
        "geonameId": 2245353,
        "name": "Sintiou Lotok\u00e9",
        "children": [
            
        ]
    },
    {
        "geonameId": 2245340,
        "name": "Sintiou Mars\u00e9",
        "children": [
            
        ]
    },
    {
        "geonameId": 2245331,
        "name": "Sintiou Mogo",
        "children": [
            
        ]
    },
    {
        "geonameId": 2245308,
        "name": "Sintiou Sileye",
        "children": [
            
        ]
    },
    {
        "geonameId": 2245480,
        "name": "Sinti\u00e2n",
        "children": [
            
        ]
    },
    {
        "geonameId": 2245283,
        "name": "Sirou Ouro",
        "children": [
            
        ]
    },
    {
        "geonameId": 2245203,
        "name": "Soringo Poular",
        "children": [
            
        ]
    },
    {
        "geonameId": 2245202,
        "name": "Soringo S\u00e9b\u00e9",
        "children": [
            
        ]
    },
    {
        "geonameId": 2245701,
        "name": "S\u00e9do S\u00e9b\u00e9",
        "children": [
            
        ]
    },
    {
        "geonameId": 2245666,
        "name": "S\u00e9m\u00e9",
        "children": [
            
        ]
    },
    {
        "geonameId": 2245645,
        "name": "S\u00e9no Dimba Sali",
        "children": [
            
        ]
    },
    {
        "geonameId": 2245638,
        "name": "S\u00e9no Pal\u00e9l",
        "children": [
            
        ]
    },
    {
        "geonameId": 2245634,
        "name": "S\u00e9noye",
        "children": [
            
        ]
    },
    {
        "geonameId": 2245619,
        "name": "S\u00e9rouka",
        "children": [
            
        ]
    },
    {
        "geonameId": 2244797,
        "name": "Thilogne",
        "children": [
            
        ]
    },
    {
        "geonameId": 6644104,
        "name": "Tiali",
        "children": [
            
        ]
    },
    {
        "geonameId": 2244705,
        "name": "Tianiato",
        "children": [
            
        ]
    },
    {
        "geonameId": 2244702,
        "name": "Tiankone Hiraye",
        "children": [
            
        ]
    },
    {
        "geonameId": 2244573,
        "name": "Tiengolel Demba Djibi",
        "children": [
            
        ]
    },
    {
        "geonameId": 2244572,
        "name": "Tiengolel Wambamb\u00e9",
        "children": [
            
        ]
    },
    {
        "geonameId": 2244497,
        "name": "Tilogne Tokossel",
        "children": [
            
        ]
    },
    {
        "geonameId": 2244463,
        "name": "Tiodord\u00e9",
        "children": [
            
        ]
    },
    {
        "geonameId": 2244597,
        "name": "Ti\u00e9l",
        "children": [
            
        ]
    },
    {
        "geonameId": 2244586,
        "name": "Ti\u00e9mping",
        "children": [
            
        ]
    },
    {
        "geonameId": 2244280,
        "name": "Toubel Bali",
        "children": [
            
        ]
    },
    {
        "geonameId": 2244878,
        "name": "T\u00e9kingu\u00e9l",
        "children": [
            
        ]
    },
    {
        "geonameId": 2247136,
        "name": "Vendou Nodi",
        "children": [
            
        ]
    },
    {
        "geonameId": 2244099,
        "name": "Vindou-Boss\u00e9ab\u00e9",
        "children": [
            
        ]
    },
    {
        "geonameId": 2244143,
        "name": "V\u00e8ndou Boulbi",
        "children": [
            
        ]
    },
    {
        "geonameId": 2244133,
        "name": "V\u00e8ndou Makam",
        "children": [
            
        ]
    },
    {
        "geonameId": 2247058,
        "name": "Wali Diallo",
        "children": [
            
        ]
    },
    {
        "geonameId": 2247044,
        "name": "Waound\u00e9",
        "children": [
            
        ]
    },
    {
        "geonameId": 2248708,
        "name": "Wassa Cod\u00e9 Mbaila",
        "children": [
            
        ]
    },
    {
        "geonameId": 2244400,
        "name": "Wassa Cod\u00e9 Tioutinkob\u00e9",
        "children": [
            
        ]
    },
    {
        "geonameId": 2244013,
        "name": "Yassin\u00e9 Lak\u00e9",
        "children": [
            
        ]
    },
    {
        "geonameId": 2243985,
        "name": "Yerma",
        "children": [
            
        ]
    },
    {
        "geonameId": 2243958,
        "name": "Yonof\u00e9r\u00e9",
        "children": [
            
        ]
    }
]