[
    {
        "geonameId": 2279133,
        "name": "Do",
        "children": [
            
        ]
    },
    {
        "geonameId": 2277028,
        "name": "Gbele-Ge",
        "children": [
            
        ]
    },
    {
        "geonameId": 2277003,
        "name": "Gbi-Doru",
        "children": [
            
        ]
    },
    {
        "geonameId": 2276973,
        "name": "Gbokole",
        "children": [
            
        ]
    },
    {
        "geonameId": 2275644,
        "name": "Keaple",
        "children": [
            
        ]
    },
    {
        "geonameId": 7669299,
        "name": "Saclepea-Mah",
        "children": [
            
        ]
    },
    {
        "geonameId": 2274221,
        "name": "Sagleipie-Ma",
        "children": [
            
        ]
    },
    {
        "geonameId": 7669286,
        "name": "Sanniquelleh- Mahn",
        "children": [
            
        ]
    },
    {
        "geonameId": 2274125,
        "name": "Sanokole-Ma",
        "children": [
            
        ]
    },
    {
        "geonameId": 9295768,
        "name": "Tappita",
        "children": [
            
        ]
    },
    {
        "geonameId": 2272804,
        "name": "Yawein-Mesono",
        "children": [
            
        ]
    },
    {
        "geonameId": 2272565,
        "name": "Zo-Ge",
        "children": [
            
        ]
    }
]