[
    {
        "geonameId": 2278307,
        "name": "Bonde-Wubomai",
        "children": [
            
        ]
    },
    {
        "geonameId": 9645106,
        "name": "Foya District",
        "children": [
            
        ]
    },
    {
        "geonameId": 2277102,
        "name": "Gbalein Faala",
        "children": [
            
        ]
    },
    {
        "geonameId": 2277082,
        "name": "Gbandi",
        "children": [
            
        ]
    },
    {
        "geonameId": 2276828,
        "name": "Gizima-Ziema",
        "children": [
            
        ]
    },
    {
        "geonameId": 2569974,
        "name": "Guma",
        "children": [
            
        ]
    },
    {
        "geonameId": 2276555,
        "name": "Guma-Mendi",
        "children": [
            
        ]
    },
    {
        "geonameId": 2276054,
        "name": "Kambo Hills",
        "children": [
            
        ]
    },
    {
        "geonameId": 2275898,
        "name": "Kisi",
        "children": [
            
        ]
    },
    {
        "geonameId": 9645107,
        "name": "Kolahun District",
        "children": [
            
        ]
    },
    {
        "geonameId": 9645112,
        "name": "Quardu Gboni District",
        "children": [
            
        ]
    },
    {
        "geonameId": 9645111,
        "name": "Salayea District",
        "children": [
            
        ]
    },
    {
        "geonameId": 9645009,
        "name": "Vahun District",
        "children": [
            
        ]
    },
    {
        "geonameId": 9645108,
        "name": "Voinjama District",
        "children": [
            
        ]
    },
    {
        "geonameId": 2273272,
        "name": "Waiglomai-Woniglomai",
        "children": [
            
        ]
    },
    {
        "geonameId": 9645110,
        "name": "Zorzor District",
        "children": [
            
        ]
    }
]