[
    {
        "geonameId": 2278880,
        "name": "Barobo",
        "children": [
            
        ]
    },
    {
        "geonameId": 2278356,
        "name": "Bolobo",
        "children": [
            
        ]
    },
    {
        "geonameId": 2278062,
        "name": "Cavalla",
        "children": [
            
        ]
    },
    {
        "geonameId": 2277859,
        "name": "Dedabo",
        "children": [
            
        ]
    },
    {
        "geonameId": 2277593,
        "name": "Dorobo",
        "children": [
            
        ]
    },
    {
        "geonameId": 2277383,
        "name": "Firestone",
        "children": [
            
        ]
    },
    {
        "geonameId": 2277359,
        "name": "Flenipo",
        "children": [
            
        ]
    },
    {
        "geonameId": 2277061,
        "name": "Gbarlobo",
        "children": [
            
        ]
    },
    {
        "geonameId": 2277030,
        "name": "Gbelakpo",
        "children": [
            
        ]
    },
    {
        "geonameId": 2277011,
        "name": "Gbeta Klepo",
        "children": [
            
        ]
    },
    {
        "geonameId": 2276909,
        "name": "Gedabo",
        "children": [
            
        ]
    },
    {
        "geonameId": 2276908,
        "name": "Gedetarbo",
        "children": [
            
        ]
    },
    {
        "geonameId": 2276816,
        "name": "Glebo",
        "children": [
            
        ]
    },
    {
        "geonameId": 2276614,
        "name": "Grawa",
        "children": [
            
        ]
    },
    {
        "geonameId": 9645231,
        "name": "Gwelekpoken District",
        "children": [
            
        ]
    },
    {
        "geonameId": 9645233,
        "name": "Karluway Number One District",
        "children": [
            
        ]
    },
    {
        "geonameId": 9645234,
        "name": "Karluway Number Two District",
        "children": [
            
        ]
    },
    {
        "geonameId": 2275351,
        "name": "Little Wrebo",
        "children": [
            
        ]
    },
    {
        "geonameId": 2274778,
        "name": "Nemea",
        "children": [
            
        ]
    },
    {
        "geonameId": 2274569,
        "name": "Nyanbo",
        "children": [
            
        ]
    },
    {
        "geonameId": 9645232,
        "name": "Nyorken District",
        "children": [
            
        ]
    },
    {
        "geonameId": 2274476,
        "name": "Pate",
        "children": [
            
        ]
    },
    {
        "geonameId": 2274403,
        "name": "Picnicess",
        "children": [
            
        ]
    },
    {
        "geonameId": 8260606,
        "name": "Pleebo/Sodeken District",
        "children": [
            
        ]
    },
    {
        "geonameId": 2274373,
        "name": "Pleebo/Sodoken",
        "children": [
            
        ]
    },
    {
        "geonameId": 2274336,
        "name": "Po River",
        "children": [
            
        ]
    },
    {
        "geonameId": 2274269,
        "name": "Rock Town",
        "children": [
            
        ]
    },
    {
        "geonameId": 2273858,
        "name": "Sodoke",
        "children": [
            
        ]
    },
    {
        "geonameId": 2273404,
        "name": "Tuobo",
        "children": [
            
        ]
    },
    {
        "geonameId": 9645230,
        "name": "Whojah District",
        "children": [
            
        ]
    },
    {
        "geonameId": 2272794,
        "name": "Yederabo",
        "children": [
            
        ]
    }
]