[
    {
        "geonameId": 2278080,
        "name": "Campwood",
        "children": [
            
        ]
    },
    {
        "geonameId": 9645127,
        "name": "Commonwealth District",
        "children": [
            
        ]
    },
    {
        "geonameId": 7669301,
        "name": "District #1",
        "children": [
            
        ]
    },
    {
        "geonameId": 7669302,
        "name": "District #2",
        "children": [
            
        ]
    },
    {
        "geonameId": 7669303,
        "name": "District #3",
        "children": [
            
        ]
    },
    {
        "geonameId": 9645131,
        "name": "District Number Four",
        "children": [
            
        ]
    },
    {
        "geonameId": 9645128,
        "name": "District Number One",
        "children": [
            
        ]
    },
    {
        "geonameId": 9645130,
        "name": "District Number Three",
        "children": [
            
        ]
    },
    {
        "geonameId": 9645129,
        "name": "District Number Two",
        "children": [
            
        ]
    },
    {
        "geonameId": 2277366,
        "name": "Five A",
        "children": [
            
        ]
    },
    {
        "geonameId": 2276820,
        "name": "Glarkon",
        "children": [
            
        ]
    },
    {
        "geonameId": 2276367,
        "name": "Jayah",
        "children": [
            
        ]
    },
    {
        "geonameId": 9645126,
        "name": "Neekreen District",
        "children": [
            
        ]
    },
    {
        "geonameId": 9645122,
        "name": "Owensgrove District",
        "children": [
            
        ]
    },
    {
        "geonameId": 9645125,
        "name": "Saint John River City District",
        "children": [
            
        ]
    },
    {
        "geonameId": 2273635,
        "name": "Tenor",
        "children": [
            
        ]
    },
    {
        "geonameId": 2273622,
        "name": "Three A",
        "children": [
            
        ]
    },
    {
        "geonameId": 2273621,
        "name": "Three B",
        "children": [
            
        ]
    },
    {
        "geonameId": 2277306,
        "name": "Trade Town",
        "children": [
            
        ]
    }
]