[
    {
        "geonameId": 9645115,
        "name": "Boinsen District",
        "children": [
            
        ]
    },
    {
        "geonameId": 2277288,
        "name": "Fuamah",
        "children": [
            
        ]
    },
    {
        "geonameId": 2276212,
        "name": "Jorquelleh",
        "children": [
            
        ]
    },
    {
        "geonameId": 7669283,
        "name": "Jorquelleh",
        "children": [
            
        ]
    },
    {
        "geonameId": 2275814,
        "name": "Kokoyah",
        "children": [
            
        ]
    },
    {
        "geonameId": 9645114,
        "name": "Kpaai District",
        "children": [
            
        ]
    },
    {
        "geonameId": 2274578,
        "name": "Nyafokole",
        "children": [
            
        ]
    },
    {
        "geonameId": 2274491,
        "name": "Panta",
        "children": [
            
        ]
    },
    {
        "geonameId": 7669285,
        "name": "Salala",
        "children": [
            
        ]
    },
    {
        "geonameId": 2274124,
        "name": "Sanoyeah",
        "children": [
            
        ]
    },
    {
        "geonameId": 7669284,
        "name": "Suakoko",
        "children": [
            
        ]
    },
    {
        "geonameId": 9645116,
        "name": "Tukpahblee District",
        "children": [
            
        ]
    },
    {
        "geonameId": 9645113,
        "name": "Yeallequelleh District",
        "children": [
            
        ]
    },
    {
        "geonameId": 2272532,
        "name": "Zota",
        "children": [
            
        ]
    }
]