[
    {
        "geonameId": 7647393,
        "name": "Jirapa",
        "children": [
            
        ]
    },
    {
        "geonameId": 7647381,
        "name": "Jirapa Lambussie",
        "children": [
            
        ]
    },
    {
        "geonameId": 7647658,
        "name": "Lambussie Karni",
        "children": [
            
        ]
    },
    {
        "geonameId": 7647392,
        "name": "Lawra",
        "children": [
            
        ]
    },
    {
        "geonameId": 7647177,
        "name": "Nadowli",
        "children": [
            
        ]
    },
    {
        "geonameId": 7647380,
        "name": "Sissala East",
        "children": [
            
        ]
    },
    {
        "geonameId": 7647179,
        "name": "Sissala West",
        "children": [
            
        ]
    },
    {
        "geonameId": 7649063,
        "name": "Wa",
        "children": [
            
        ]
    },
    {
        "geonameId": 7647181,
        "name": "Wa East",
        "children": [
            
        ]
    },
    {
        "geonameId": 7647182,
        "name": "Wa West",
        "children": [
            
        ]
    }
]