[
    {
        "geonameId": 7648932,
        "name": "Ahanta West",
        "children": [
            
        ]
    },
    {
        "geonameId": 7648941,
        "name": "Aowin/Suaman",
        "children": [
            
        ]
    },
    {
        "geonameId": 7648959,
        "name": "Bia",
        "children": [
            
        ]
    },
    {
        "geonameId": 7648962,
        "name": "Bibiani/Ahwiaso/Bekwai",
        "children": [
            
        ]
    },
    {
        "geonameId": 7647527,
        "name": "Ellembelle",
        "children": [
            
        ]
    },
    {
        "geonameId": 7648989,
        "name": "Jomoro",
        "children": [
            
        ]
    },
    {
        "geonameId": 7648990,
        "name": "Juaboso",
        "children": [
            
        ]
    },
    {
        "geonameId": 7649014,
        "name": "Mpohor/Wassa East",
        "children": [
            
        ]
    },
    {
        "geonameId": 7649021,
        "name": "Nzema East",
        "children": [
            
        ]
    },
    {
        "geonameId": 7649028,
        "name": "Prestea-Huni Valley",
        "children": [
            
        ]
    },
    {
        "geonameId": 7649030,
        "name": "Secondi Takoradi",
        "children": [
            
        ]
    },
    {
        "geonameId": 7649031,
        "name": "Sefwi Akontobra",
        "children": [
            
        ]
    },
    {
        "geonameId": 7649032,
        "name": "Sefwi-Wiawso",
        "children": [
            
        ]
    },
    {
        "geonameId": 9166073,
        "name": "Shama Ahanta East Metropolitan District",
        "children": [
            
        ]
    },
    {
        "geonameId": 7649040,
        "name": "Shama new",
        "children": [
            
        ]
    },
    {
        "geonameId": 7649054,
        "name": "Tarkwa Nsuaem",
        "children": [
            
        ]
    },
    {
        "geonameId": 7649064,
        "name": "Wassa Amenfi East",
        "children": [
            
        ]
    },
    {
        "geonameId": 7649065,
        "name": "Wassa Amenfi West",
        "children": [
            
        ]
    },
    {
        "geonameId": 8260280,
        "name": "Wassa West",
        "children": [
            
        ]
    }
]