[
    {
        "geonameId": 7648923,
        "name": "Adaklu-Anyigbe",
        "children": [
            
        ]
    },
    {
        "geonameId": 7648934,
        "name": "Akatsi District",
        "children": [
            
        ]
    },
    {
        "geonameId": 7648960,
        "name": "Biakoye",
        "children": [
            
        ]
    },
    {
        "geonameId": 7648984,
        "name": "Ho",
        "children": [
            
        ]
    },
    {
        "geonameId": 7648985,
        "name": "Hohoe",
        "children": [
            
        ]
    },
    {
        "geonameId": 7648988,
        "name": "Jasikan",
        "children": [
            
        ]
    },
    {
        "geonameId": 7648991,
        "name": "Kadjebi",
        "children": [
            
        ]
    },
    {
        "geonameId": 2299646,
        "name": "Keta",
        "children": [
            
        ]
    },
    {
        "geonameId": 7648994,
        "name": "Ketu North District",
        "children": [
            
        ]
    },
    {
        "geonameId": 7648995,
        "name": "Ketu South District",
        "children": [
            
        ]
    },
    {
        "geonameId": 7648999,
        "name": "Kpando",
        "children": [
            
        ]
    },
    {
        "geonameId": 7647501,
        "name": "Krachi East",
        "children": [
            
        ]
    },
    {
        "geonameId": 7647502,
        "name": "Krachi West",
        "children": [
            
        ]
    },
    {
        "geonameId": 7647497,
        "name": "Nkwanta North",
        "children": [
            
        ]
    },
    {
        "geonameId": 7647498,
        "name": "Nkwanta South",
        "children": [
            
        ]
    },
    {
        "geonameId": 7649019,
        "name": "North Tongu",
        "children": [
            
        ]
    },
    {
        "geonameId": 7649041,
        "name": "South Dayi",
        "children": [
            
        ]
    },
    {
        "geonameId": 7649043,
        "name": "South Tongu District",
        "children": [
            
        ]
    }
]