[
    {
        "geonameId": 7647453,
        "name": "Bole",
        "children": [
            
        ]
    },
    {
        "geonameId": 7647391,
        "name": "Bunkpurugu-Yunyoo",
        "children": [
            
        ]
    },
    {
        "geonameId": 7648970,
        "name": "Central Gonja",
        "children": [
            
        ]
    },
    {
        "geonameId": 7647639,
        "name": "Chereponi",
        "children": [
            
        ]
    },
    {
        "geonameId": 7647456,
        "name": "East Gonja",
        "children": [
            
        ]
    },
    {
        "geonameId": 7648975,
        "name": "East Mamprusi",
        "children": [
            
        ]
    },
    {
        "geonameId": 7647396,
        "name": "Gushiegu",
        "children": [
            
        ]
    },
    {
        "geonameId": 7647394,
        "name": "Karaga",
        "children": [
            
        ]
    },
    {
        "geonameId": 7647454,
        "name": "Kpandai",
        "children": [
            
        ]
    },
    {
        "geonameId": 7647388,
        "name": "Nanumba North",
        "children": [
            
        ]
    },
    {
        "geonameId": 7647387,
        "name": "Nanumba South",
        "children": [
            
        ]
    },
    {
        "geonameId": 7647638,
        "name": "Saboba",
        "children": [
            
        ]
    },
    {
        "geonameId": 7647382,
        "name": "Saboba Chereponi",
        "children": [
            
        ]
    },
    {
        "geonameId": 7649029,
        "name": "Savelugu/Nanton",
        "children": [
            
        ]
    },
    {
        "geonameId": 7647389,
        "name": "Sawla-Tuna-Kalba",
        "children": [
            
        ]
    },
    {
        "geonameId": 7649051,
        "name": "Tamale",
        "children": [
            
        ]
    },
    {
        "geonameId": 7649058,
        "name": "Tolon/Kumbungu",
        "children": [
            
        ]
    },
    {
        "geonameId": 7649070,
        "name": "West Gonja",
        "children": [
            
        ]
    },
    {
        "geonameId": 7649071,
        "name": "West Mamprusi",
        "children": [
            
        ]
    },
    {
        "geonameId": 7649072,
        "name": "Yendi",
        "children": [
            {
                "geonameId": 2293801,
                "name": "Yendi",
                "children": [
                    
                ]
            }
        ]
    },
    {
        "geonameId": 7649074,
        "name": "Zabzugu/Tatale",
        "children": [
            
        ]
    }
]