[
    {
        "geonameId": 7648935,
        "name": "Akuapim North",
        "children": [
            
        ]
    },
    {
        "geonameId": 7648936,
        "name": "Akuapim South",
        "children": [
            
        ]
    },
    {
        "geonameId": 7648937,
        "name": "Akyemansa",
        "children": [
            
        ]
    },
    {
        "geonameId": 7648949,
        "name": "Asuogyaman",
        "children": [
            
        ]
    },
    {
        "geonameId": 7647530,
        "name": "Atiwa",
        "children": [
            
        ]
    },
    {
        "geonameId": 7648963,
        "name": "Birim Central",
        "children": [
            
        ]
    },
    {
        "geonameId": 7648964,
        "name": "Birim North",
        "children": [
            
        ]
    },
    {
        "geonameId": 7648965,
        "name": "Birim South",
        "children": [
            
        ]
    },
    {
        "geonameId": 7647529,
        "name": "Dangme East District",
        "children": [
            
        ]
    },
    {
        "geonameId": 7648971,
        "name": "Dangme West District",
        "children": [
            
        ]
    },
    {
        "geonameId": 7648974,
        "name": "East Akim",
        "children": [
            
        ]
    },
    {
        "geonameId": 7648979,
        "name": "Fanteakwa",
        "children": [
            
        ]
    },
    {
        "geonameId": 7649002,
        "name": "Kwaebibirem",
        "children": [
            
        ]
    },
    {
        "geonameId": 7649003,
        "name": "Kwahu East",
        "children": [
            
        ]
    },
    {
        "geonameId": 7649004,
        "name": "Kwahu North",
        "children": [
            
        ]
    },
    {
        "geonameId": 7649009,
        "name": "Kwahu South",
        "children": [
            
        ]
    },
    {
        "geonameId": 7649005,
        "name": "Kwahu West",
        "children": [
            
        ]
    },
    {
        "geonameId": 7649011,
        "name": "Lower Manya Krobo",
        "children": [
            
        ]
    },
    {
        "geonameId": 7649015,
        "name": "New Juaben",
        "children": [
            
        ]
    },
    {
        "geonameId": 2295235,
        "name": "Somanya District",
        "children": [
            
        ]
    },
    {
        "geonameId": 7649045,
        "name": "Suhum/Kraboa/Coaltar",
        "children": [
            
        ]
    },
    {
        "geonameId": 7649061,
        "name": "Upper Manya Krobo",
        "children": [
            
        ]
    },
    {
        "geonameId": 7649068,
        "name": "West Akim",
        "children": [
            
        ]
    },
    {
        "geonameId": 7649073,
        "name": "Yilo Krobo",
        "children": [
            
        ]
    }
]