[
    {
        "geonameId": 7648947,
        "name": "Asunafo North",
        "children": [
            
        ]
    },
    {
        "geonameId": 7648948,
        "name": "Asunafo South",
        "children": [
            
        ]
    },
    {
        "geonameId": 7648950,
        "name": "Asutifi",
        "children": [
            
        ]
    },
    {
        "geonameId": 7647457,
        "name": "Atebubu",
        "children": [
            
        ]
    },
    {
        "geonameId": 7648958,
        "name": "Berekum",
        "children": [
            
        ]
    },
    {
        "geonameId": 7648972,
        "name": "Dormaa",
        "children": [
            
        ]
    },
    {
        "geonameId": 7648973,
        "name": "Dormaa East new",
        "children": [
            
        ]
    },
    {
        "geonameId": 7648986,
        "name": "Jaman North",
        "children": [
            
        ]
    },
    {
        "geonameId": 7648987,
        "name": "Jaman South",
        "children": [
            
        ]
    },
    {
        "geonameId": 7648996,
        "name": "Kintampo North Municipal District",
        "children": [
            
        ]
    },
    {
        "geonameId": 7648997,
        "name": "Kintampo South District",
        "children": [
            
        ]
    },
    {
        "geonameId": 7647503,
        "name": "Nkoranza North District",
        "children": [
            
        ]
    },
    {
        "geonameId": 7649018,
        "name": "Nkoranza South",
        "children": [
            
        ]
    },
    {
        "geonameId": 7647499,
        "name": "Pru",
        "children": [
            
        ]
    },
    {
        "geonameId": 7647500,
        "name": "Sene",
        "children": [
            
        ]
    },
    {
        "geonameId": 7649046,
        "name": "Sunyani",
        "children": [
            
        ]
    },
    {
        "geonameId": 7649047,
        "name": "Sunyani West",
        "children": [
            
        ]
    },
    {
        "geonameId": 7649049,
        "name": "Tain",
        "children": [
            
        ]
    },
    {
        "geonameId": 7649052,
        "name": "Tano North",
        "children": [
            
        ]
    },
    {
        "geonameId": 7649053,
        "name": "Tano South",
        "children": [
            
        ]
    },
    {
        "geonameId": 7649056,
        "name": "Techiman Municipal District",
        "children": [
            
        ]
    },
    {
        "geonameId": 7649067,
        "name": "Wenchi",
        "children": [
            
        ]
    }
]