[
    {
        "geonameId": 7648921,
        "name": "Abura/Asebu/Kwamankese",
        "children": [
            
        ]
    },
    {
        "geonameId": 7648928,
        "name": "Agona East",
        "children": [
            
        ]
    },
    {
        "geonameId": 7648929,
        "name": "Agona West",
        "children": [
            
        ]
    },
    {
        "geonameId": 7648933,
        "name": "Ajumako/Enyan/Essiam",
        "children": [
            
        ]
    },
    {
        "geonameId": 7648945,
        "name": "Asikuma/Odoben/Brakwa",
        "children": [
            
        ]
    },
    {
        "geonameId": 7648946,
        "name": "Assin North",
        "children": [
            
        ]
    },
    {
        "geonameId": 7647504,
        "name": "Assin South",
        "children": [
            
        ]
    },
    {
        "geonameId": 7648955,
        "name": "Awutu Senya",
        "children": [
            
        ]
    },
    {
        "geonameId": 7648969,
        "name": "Cape Coast",
        "children": [
            
        ]
    },
    {
        "geonameId": 7648976,
        "name": "Effutu",
        "children": [
            
        ]
    },
    {
        "geonameId": 7648982,
        "name": "Gomoa East",
        "children": [
            
        ]
    },
    {
        "geonameId": 7648983,
        "name": "Gomoa West",
        "children": [
            {
                "geonameId": 2297810,
                "name": "Mumford",
                "children": [
                    
                ]
            }
        ]
    },
    {
        "geonameId": 7648998,
        "name": "Komenda/Edina/Eguafo/Abirem",
        "children": [
            
        ]
    },
    {
        "geonameId": 7649013,
        "name": "Mfatseman",
        "children": [
            
        ]
    },
    {
        "geonameId": 7647505,
        "name": "Twifo Hemang Lower Denkyira",
        "children": [
            
        ]
    },
    {
        "geonameId": 7647507,
        "name": "Upper Denkyira",
        "children": [
            
        ]
    },
    {
        "geonameId": 7649059,
        "name": "Upper Denkyira East",
        "children": [
            
        ]
    },
    {
        "geonameId": 7649060,
        "name": "Upper Denkyira West",
        "children": [
            
        ]
    }
]