[
    {
        "geonameId": 7648924,
        "name": "Adansi North",
        "children": [
            
        ]
    },
    {
        "geonameId": 7648925,
        "name": "Adansi South",
        "children": [
            
        ]
    },
    {
        "geonameId": 7648927,
        "name": "Afigya-Kwabre District",
        "children": [
            
        ]
    },
    {
        "geonameId": 7648930,
        "name": "Ahafo Ano North",
        "children": [
            
        ]
    },
    {
        "geonameId": 7648931,
        "name": "Ahafo Ano South",
        "children": [
            
        ]
    },
    {
        "geonameId": 7648938,
        "name": "Amansie Central",
        "children": [
            
        ]
    },
    {
        "geonameId": 7648939,
        "name": "Amansie West",
        "children": [
            
        ]
    },
    {
        "geonameId": 7648942,
        "name": "Asante Akim North",
        "children": [
            
        ]
    },
    {
        "geonameId": 7648943,
        "name": "Asante Akim South District",
        "children": [
            
        ]
    },
    {
        "geonameId": 7648951,
        "name": "Atwima Kwanwoma",
        "children": [
            
        ]
    },
    {
        "geonameId": 7648952,
        "name": "Atwima Mponua",
        "children": [
            
        ]
    },
    {
        "geonameId": 7648953,
        "name": "Atwima Nwabiagya",
        "children": [
            
        ]
    },
    {
        "geonameId": 7648957,
        "name": "Bekwai",
        "children": [
            
        ]
    },
    {
        "geonameId": 7648967,
        "name": "Bosome Freho",
        "children": [
            
        ]
    },
    {
        "geonameId": 7648968,
        "name": "Bosomtwe",
        "children": [
            
        ]
    },
    {
        "geonameId": 7648977,
        "name": "Ejisu Juaben",
        "children": [
            
        ]
    },
    {
        "geonameId": 7648978,
        "name": "Ejura Sekyedumase",
        "children": [
            
        ]
    },
    {
        "geonameId": 7649000,
        "name": "Kumasi",
        "children": [
            
        ]
    },
    {
        "geonameId": 8299695,
        "name": "Kumasi Metropolitan District",
        "children": [
            
        ]
    },
    {
        "geonameId": 7649001,
        "name": "Kwabre District",
        "children": [
            
        ]
    },
    {
        "geonameId": 7649012,
        "name": "Mampong",
        "children": [
            
        ]
    },
    {
        "geonameId": 7649023,
        "name": "Obuasi",
        "children": [
            
        ]
    },
    {
        "geonameId": 7649024,
        "name": "Offinso",
        "children": [
            
        ]
    },
    {
        "geonameId": 7649025,
        "name": "Offinso North",
        "children": [
            
        ]
    },
    {
        "geonameId": 7647506,
        "name": "Sekyere Afram Plains",
        "children": [
            
        ]
    },
    {
        "geonameId": 7649033,
        "name": "Sekyere Central",
        "children": [
            
        ]
    },
    {
        "geonameId": 7649035,
        "name": "Sekyere East",
        "children": [
            
        ]
    },
    {
        "geonameId": 7649037,
        "name": "Sekyere South",
        "children": [
            
        ]
    }
]