[
    {
        "geonameId": 8638118,
        "name": "Abua/Odual",
        "children": [
            
        ]
    },
    {
        "geonameId": 8638107,
        "name": "Ahoada East",
        "children": [
            
        ]
    },
    {
        "geonameId": 7701495,
        "name": "Ahoada West",
        "children": [
            
        ]
    },
    {
        "geonameId": 7701497,
        "name": "Akuku Toru",
        "children": [
            
        ]
    },
    {
        "geonameId": 7701499,
        "name": "Andoni",
        "children": [
            
        ]
    },
    {
        "geonameId": 8638159,
        "name": "Asari-Toru",
        "children": [
            
        ]
    },
    {
        "geonameId": 8638157,
        "name": "Bonny",
        "children": [
            
        ]
    },
    {
        "geonameId": 8638156,
        "name": "Degema",
        "children": [
            
        ]
    },
    {
        "geonameId": 8638158,
        "name": "Eleme",
        "children": [
            
        ]
    },
    {
        "geonameId": 8638120,
        "name": "Emuoha",
        "children": [
            
        ]
    },
    {
        "geonameId": 7701519,
        "name": "Etche",
        "children": [
            
        ]
    },
    {
        "geonameId": 7730086,
        "name": "Gokana",
        "children": [
            
        ]
    },
    {
        "geonameId": 7730104,
        "name": "Ikwerre",
        "children": [
            
        ]
    },
    {
        "geonameId": 7874704,
        "name": "Khana",
        "children": [
            
        ]
    },
    {
        "geonameId": 7873930,
        "name": "Obio/Akpor",
        "children": [
            
        ]
    },
    {
        "geonameId": 7701521,
        "name": "Ogba/Egbema/Ndoni",
        "children": [
            
        ]
    },
    {
        "geonameId": 7730136,
        "name": "Ogu Bolo",
        "children": [
            
        ]
    },
    {
        "geonameId": 9485477,
        "name": "Ogu/Bolo Local Government Area",
        "children": [
            
        ]
    },
    {
        "geonameId": 8638160,
        "name": "Okrika",
        "children": [
            
        ]
    },
    {
        "geonameId": 7701522,
        "name": "Omumma",
        "children": [
            
        ]
    },
    {
        "geonameId": 8638161,
        "name": "Opobo/Nkoro",
        "children": [
            
        ]
    },
    {
        "geonameId": 7701523,
        "name": "Oyigbo",
        "children": [
            
        ]
    },
    {
        "geonameId": 7873928,
        "name": "Port-Harcourt",
        "children": [
            
        ]
    },
    {
        "geonameId": 7701524,
        "name": "Tai",
        "children": [
            
        ]
    }
]