[
    {
        "geonameId": 7873894,
        "name": "Afijio",
        "children": [
            
        ]
    },
    {
        "geonameId": 7873893,
        "name": "Akinyele",
        "children": [
            
        ]
    },
    {
        "geonameId": 8636067,
        "name": "Atiba",
        "children": [
            
        ]
    },
    {
        "geonameId": 8636066,
        "name": "Atisbo",
        "children": [
            
        ]
    },
    {
        "geonameId": 8636320,
        "name": "Egbeda",
        "children": [
            
        ]
    },
    {
        "geonameId": 7873892,
        "name": "Ibadan North",
        "children": [
            
        ]
    },
    {
        "geonameId": 7873910,
        "name": "Ibadan North East",
        "children": [
            
        ]
    },
    {
        "geonameId": 8555718,
        "name": "Ibadan North West",
        "children": [
            
        ]
    },
    {
        "geonameId": 7873908,
        "name": "Ibadan South East",
        "children": [
            
        ]
    },
    {
        "geonameId": 7873907,
        "name": "Ibadan South West",
        "children": [
            
        ]
    },
    {
        "geonameId": 8636319,
        "name": "Ibarapa Central",
        "children": [
            
        ]
    },
    {
        "geonameId": 7730054,
        "name": "Ibarapa East",
        "children": [
            
        ]
    },
    {
        "geonameId": 7730055,
        "name": "Ibarapa North",
        "children": [
            
        ]
    },
    {
        "geonameId": 7730057,
        "name": "Ido",
        "children": [
            
        ]
    },
    {
        "geonameId": 7873911,
        "name": "Irepo",
        "children": [
            
        ]
    },
    {
        "geonameId": 8636318,
        "name": "Iseyin",
        "children": [
            
        ]
    },
    {
        "geonameId": 8636070,
        "name": "Itesiwaju",
        "children": [
            
        ]
    },
    {
        "geonameId": 7701486,
        "name": "Iwajowa",
        "children": [
            
        ]
    },
    {
        "geonameId": 7730058,
        "name": "Kajola",
        "children": [
            
        ]
    },
    {
        "geonameId": 7730059,
        "name": "Lagelu",
        "children": [
            
        ]
    },
    {
        "geonameId": 8636068,
        "name": "Ogbomosho North",
        "children": [
            
        ]
    },
    {
        "geonameId": 8636321,
        "name": "Ogbomosho South",
        "children": [
            
        ]
    },
    {
        "geonameId": 8636069,
        "name": "Ogo Oluwa",
        "children": [
            
        ]
    },
    {
        "geonameId": 7701488,
        "name": "Olorunsogo",
        "children": [
            
        ]
    },
    {
        "geonameId": 7701489,
        "name": "Oluyole",
        "children": [
            
        ]
    },
    {
        "geonameId": 7701491,
        "name": "Ona Ara",
        "children": [
            
        ]
    },
    {
        "geonameId": 7701492,
        "name": "Orelope",
        "children": [
            
        ]
    },
    {
        "geonameId": 7730060,
        "name": "Ori Ire",
        "children": [
            
        ]
    },
    {
        "geonameId": 7730061,
        "name": "Oyo East",
        "children": [
            
        ]
    },
    {
        "geonameId": 7730062,
        "name": "Oyo West",
        "children": [
            
        ]
    },
    {
        "geonameId": 8636065,
        "name": "Saki East",
        "children": [
            
        ]
    },
    {
        "geonameId": 7730066,
        "name": "Saki West",
        "children": [
            
        ]
    },
    {
        "geonameId": 7730073,
        "name": "Surulere",
        "children": [
            
        ]
    }
]