[
    {
        "geonameId": 8636760,
        "name": "Akoko North East",
        "children": [
            
        ]
    },
    {
        "geonameId": 8636761,
        "name": "Akoko North West",
        "children": [
            
        ]
    },
    {
        "geonameId": 8636759,
        "name": "Akoko South East",
        "children": [
            
        ]
    },
    {
        "geonameId": 8636758,
        "name": "Akoko South West",
        "children": [
            
        ]
    },
    {
        "geonameId": 8636755,
        "name": "Akure North",
        "children": [
            
        ]
    },
    {
        "geonameId": 8636754,
        "name": "Akure South",
        "children": [
            
        ]
    },
    {
        "geonameId": 8636747,
        "name": "Ese Odo",
        "children": [
            
        ]
    },
    {
        "geonameId": 7873876,
        "name": "Idanre",
        "children": [
            
        ]
    },
    {
        "geonameId": 8636753,
        "name": "Ifedore",
        "children": [
            
        ]
    },
    {
        "geonameId": 8636746,
        "name": "Ilaje",
        "children": [
            
        ]
    },
    {
        "geonameId": 8636752,
        "name": "Ile Oluji/Okeigbo",
        "children": [
            
        ]
    },
    {
        "geonameId": 8636749,
        "name": "Irele",
        "children": [
            
        ]
    },
    {
        "geonameId": 7873875,
        "name": "Odigbo",
        "children": [
            
        ]
    },
    {
        "geonameId": 8636748,
        "name": "Okitipupa",
        "children": [
            
        ]
    },
    {
        "geonameId": 8636751,
        "name": "Ondo East",
        "children": [
            
        ]
    },
    {
        "geonameId": 8636750,
        "name": "Ondo West",
        "children": [
            
        ]
    },
    {
        "geonameId": 8636757,
        "name": "Ose",
        "children": [
            
        ]
    },
    {
        "geonameId": 8636756,
        "name": "Owo",
        "children": [
            
        ]
    }
]