[
    {
        "geonameId": 7873904,
        "name": "Agege",
        "children": [
            
        ]
    },
    {
        "geonameId": 7932527,
        "name": "Ajeromi/Ifelodun",
        "children": [
            
        ]
    },
    {
        "geonameId": 7910345,
        "name": "Alimosho",
        "children": [
            
        ]
    },
    {
        "geonameId": 7871294,
        "name": "Amuwo Odofin",
        "children": [
            
        ]
    },
    {
        "geonameId": 7871290,
        "name": "Apapa",
        "children": [
            
        ]
    },
    {
        "geonameId": 7871299,
        "name": "Badagry",
        "children": [
            
        ]
    },
    {
        "geonameId": 7910347,
        "name": "Epe",
        "children": [
            
        ]
    },
    {
        "geonameId": 7932498,
        "name": "Eti Osa",
        "children": [
            
        ]
    },
    {
        "geonameId": 7910348,
        "name": "Ibeju Lekki",
        "children": [
            
        ]
    },
    {
        "geonameId": 9485475,
        "name": "Ifako-Ijaiye Local Government Area",
        "children": [
            
        ]
    },
    {
        "geonameId": 7910346,
        "name": "Ifako/Ijaye",
        "children": [
            
        ]
    },
    {
        "geonameId": 7910350,
        "name": "Ikeja",
        "children": [
            
        ]
    },
    {
        "geonameId": 7644922,
        "name": "Ikorodu",
        "children": [
            
        ]
    },
    {
        "geonameId": 7871279,
        "name": "Kosofe",
        "children": [
            
        ]
    },
    {
        "geonameId": 9485476,
        "name": "Lagos Island Local Government Area",
        "children": [
            
        ]
    },
    {
        "geonameId": 9485474,
        "name": "Lagos Mainland Local Government Area",
        "children": [
            
        ]
    },
    {
        "geonameId": 7910351,
        "name": "Mushin",
        "children": [
            
        ]
    },
    {
        "geonameId": 7871297,
        "name": "Ojo",
        "children": [
            
        ]
    },
    {
        "geonameId": 9485473,
        "name": "Oshodi-Isolo Local Government Area",
        "children": [
            
        ]
    },
    {
        "geonameId": 7910352,
        "name": "Oshodi/Isolo",
        "children": [
            
        ]
    },
    {
        "geonameId": 7871280,
        "name": "Shomolu",
        "children": [
            
        ]
    },
    {
        "geonameId": 7932526,
        "name": "Surulere",
        "children": [
            
        ]
    }
]