[
    {
        "geonameId": 7729947,
        "name": "Aboh-Mbaise",
        "children": [
            
        ]
    },
    {
        "geonameId": 7729948,
        "name": "Ahiazu-Mbaise",
        "children": [
            
        ]
    },
    {
        "geonameId": 7729949,
        "name": "Ehime -Mbano",
        "children": [
            
        ]
    },
    {
        "geonameId": 8638291,
        "name": "Ezinihitte",
        "children": [
            
        ]
    },
    {
        "geonameId": 8638293,
        "name": "Ideato North",
        "children": [
            
        ]
    },
    {
        "geonameId": 8638294,
        "name": "Ideato South",
        "children": [
            
        ]
    },
    {
        "geonameId": 7729951,
        "name": "Ihitte/Uboma",
        "children": [
            
        ]
    },
    {
        "geonameId": 8638290,
        "name": "Ikeduru",
        "children": [
            
        ]
    },
    {
        "geonameId": 7729952,
        "name": "Isiala Mbano",
        "children": [
            
        ]
    },
    {
        "geonameId": 8638327,
        "name": "Isu",
        "children": [
            
        ]
    },
    {
        "geonameId": 9485478,
        "name": "Mbaitoli Local Government Area",
        "children": [
            
        ]
    },
    {
        "geonameId": 7729953,
        "name": "Mbatoli",
        "children": [
            
        ]
    },
    {
        "geonameId": 8638163,
        "name": "Ngor-Okpala",
        "children": [
            
        ]
    },
    {
        "geonameId": 7729955,
        "name": "Njaba",
        "children": [
            
        ]
    },
    {
        "geonameId": 8638328,
        "name": "Nkwerre",
        "children": [
            
        ]
    },
    {
        "geonameId": 8638329,
        "name": "Nwangele",
        "children": [
            
        ]
    },
    {
        "geonameId": 7729956,
        "name": "Obowo",
        "children": [
            
        ]
    },
    {
        "geonameId": 8638162,
        "name": "Oguta",
        "children": [
            
        ]
    },
    {
        "geonameId": 7729957,
        "name": "Ohaji/Egbema",
        "children": [
            
        ]
    },
    {
        "geonameId": 7729958,
        "name": "Okigwe",
        "children": [
            
        ]
    },
    {
        "geonameId": 8638292,
        "name": "Orlu",
        "children": [
            
        ]
    },
    {
        "geonameId": 7729959,
        "name": "Orsu",
        "children": [
            
        ]
    },
    {
        "geonameId": 7729960,
        "name": "Oru East",
        "children": [
            
        ]
    },
    {
        "geonameId": 7729961,
        "name": "Oru West",
        "children": [
            
        ]
    },
    {
        "geonameId": 8638164,
        "name": "Owerri Municipal",
        "children": [
            
        ]
    },
    {
        "geonameId": 8638331,
        "name": "Owerri North",
        "children": [
            
        ]
    },
    {
        "geonameId": 7729962,
        "name": "Owerri West",
        "children": [
            
        ]
    },
    {
        "geonameId": 7729964,
        "name": "Unuimo",
        "children": [
            
        ]
    }
]