[
    {
        "geonameId": 8638035,
        "name": "Aguata",
        "children": [
            
        ]
    },
    {
        "geonameId": 7701409,
        "name": "Anambra East",
        "children": [
            
        ]
    },
    {
        "geonameId": 7701530,
        "name": "Anambra West",
        "children": [
            
        ]
    },
    {
        "geonameId": 7701411,
        "name": "Anaocha",
        "children": [
            
        ]
    },
    {
        "geonameId": 7701412,
        "name": "Awka North",
        "children": [
            
        ]
    },
    {
        "geonameId": 7701413,
        "name": "Awka South",
        "children": [
            
        ]
    },
    {
        "geonameId": 8638032,
        "name": "Ayamelum",
        "children": [
            
        ]
    },
    {
        "geonameId": 7932064,
        "name": "Dunukofia",
        "children": [
            
        ]
    },
    {
        "geonameId": 8638042,
        "name": "Ekwusigo",
        "children": [
            
        ]
    },
    {
        "geonameId": 7701531,
        "name": "Idemili North",
        "children": [
            
        ]
    },
    {
        "geonameId": 7701532,
        "name": "Idemili South",
        "children": [
            
        ]
    },
    {
        "geonameId": 8638036,
        "name": "Ihiala",
        "children": [
            
        ]
    },
    {
        "geonameId": 7701533,
        "name": "Njikoka",
        "children": [
            
        ]
    },
    {
        "geonameId": 8638038,
        "name": "Nnewi North",
        "children": [
            
        ]
    },
    {
        "geonameId": 7701534,
        "name": "Nnewi South",
        "children": [
            
        ]
    },
    {
        "geonameId": 7701535,
        "name": "Ogbaru",
        "children": [
            
        ]
    },
    {
        "geonameId": 7873887,
        "name": "Onitsha North",
        "children": [
            
        ]
    },
    {
        "geonameId": 8638046,
        "name": "Onitsha South",
        "children": [
            
        ]
    },
    {
        "geonameId": 7701536,
        "name": "Orumba North",
        "children": [
            
        ]
    },
    {
        "geonameId": 7701537,
        "name": "Orumba South",
        "children": [
            
        ]
    },
    {
        "geonameId": 7701538,
        "name": "Oyi",
        "children": [
            
        ]
    }
]