[
    {
        "geonameId": 2597444,
        "name": "Pr\u00e9fecture de Danyi",
        "children": [
            
        ]
    },
    {
        "geonameId": 2367659,
        "name": "Pr\u00e9fecture de Wawa",
        "children": [
            
        ]
    },
    {
        "geonameId": 2367885,
        "name": "Pr\u00e9fecture de l\u2019Ogou",
        "children": [
            
        ]
    },
    {
        "geonameId": 2364751,
        "name": "Pr\u00e9fecture du Haho",
        "children": [
            
        ]
    },
    {
        "geonameId": 2365976,
        "name": "Pr\u00e9fecture du Kloto",
        "children": [
            
        ]
    },
    {
        "geonameId": 2597443,
        "name": "Pr\u00e9fecture du Moyen-Mono",
        "children": [
            
        ]
    },
    {
        "geonameId": 2597441,
        "name": "Pr\u00e9fecture d\u2019Agou",
        "children": [
            
        ]
    },
    {
        "geonameId": 2368034,
        "name": "Pr\u00e9fecture d\u2019Amou",
        "children": [
            
        ]
    },
    {
        "geonameId": 2597442,
        "name": "Pr\u00e9fecture d\u2019Est-Mono",
        "children": [
            
        ]
    }
]