[
    {
        "geonameId": 8260652,
        "name": "Commune of Abomey",
        "children": [
            
        ]
    },
    {
        "geonameId": 8260653,
        "name": "Commune of Agbangnizoun",
        "children": [
            
        ]
    },
    {
        "geonameId": 8260647,
        "name": "Commune of Bante",
        "children": [
            
        ]
    },
    {
        "geonameId": 7668931,
        "name": "Commune of Bohicon",
        "children": [
            
        ]
    },
    {
        "geonameId": 7668907,
        "name": "Commune of Cove",
        "children": [
            
        ]
    },
    {
        "geonameId": 8260648,
        "name": "Commune of Dassa-Zoume",
        "children": [
            
        ]
    },
    {
        "geonameId": 8260654,
        "name": "Commune of Djidja",
        "children": [
            
        ]
    },
    {
        "geonameId": 7874167,
        "name": "Commune of Glazoue",
        "children": [
            
        ]
    },
    {
        "geonameId": 8260649,
        "name": "Commune of Ouesse",
        "children": [
            
        ]
    },
    {
        "geonameId": 7668908,
        "name": "Commune of Ouinhi",
        "children": [
            
        ]
    },
    {
        "geonameId": 8260650,
        "name": "Commune of Savalou",
        "children": [
            
        ]
    },
    {
        "geonameId": 8260651,
        "name": "Commune of Save",
        "children": [
            
        ]
    },
    {
        "geonameId": 7668932,
        "name": "Commune of Za-Kpota",
        "children": [
            
        ]
    },
    {
        "geonameId": 7668909,
        "name": "Commune of Zangnanado",
        "children": [
            
        ]
    },
    {
        "geonameId": 7668934,
        "name": "Commune of Zogbodome",
        "children": [
            
        ]
    }
]