[
    {
        "geonameId": 8335162,
        "name": "Adja-Ouere",
        "children": [
            
        ]
    },
    {
        "geonameId": 8693304,
        "name": "Adjara",
        "children": [
            
        ]
    },
    {
        "geonameId": 7668940,
        "name": "Agu\u00e9gu\u00e9s",
        "children": [
            
        ]
    },
    {
        "geonameId": 9063965,
        "name": "Akpro-Misserete",
        "children": [
            
        ]
    },
    {
        "geonameId": 9063966,
        "name": "Avrankou",
        "children": [
            
        ]
    },
    {
        "geonameId": 7668898,
        "name": "Bonou",
        "children": [
            
        ]
    },
    {
        "geonameId": 7668892,
        "name": "Commune of Adjohoun",
        "children": [
            
        ]
    },
    {
        "geonameId": 7670840,
        "name": "Commune of Ketou",
        "children": [
            
        ]
    },
    {
        "geonameId": 7670841,
        "name": "Commune of Pobe",
        "children": [
            
        ]
    },
    {
        "geonameId": 8334580,
        "name": "Commune of Sakete",
        "children": [
            
        ]
    },
    {
        "geonameId": 7668900,
        "name": "Dangbo",
        "children": [
            
        ]
    },
    {
        "geonameId": 9063970,
        "name": "Ifangni",
        "children": [
            
        ]
    },
    {
        "geonameId": 7668939,
        "name": "Porto-novo",
        "children": [
            
        ]
    },
    {
        "geonameId": 7668941,
        "name": "Seme-kpodji",
        "children": [
            
        ]
    }
]