[
    {
        "geonameId": 7669270,
        "name": "Bembereke",
        "children": [
            
        ]
    },
    {
        "geonameId": 7669268,
        "name": "Commune of Parakou",
        "children": [
            
        ]
    },
    {
        "geonameId": 7669265,
        "name": "Commune of Tchaourou",
        "children": [
            
        ]
    },
    {
        "geonameId": 7669349,
        "name": "Kalal\u00e8",
        "children": [
            
        ]
    },
    {
        "geonameId": 7911056,
        "name": "Kandi",
        "children": [
            
        ]
    },
    {
        "geonameId": 7874155,
        "name": "Karimama",
        "children": [
            
        ]
    },
    {
        "geonameId": 7874170,
        "name": "Malanville",
        "children": [
            
        ]
    },
    {
        "geonameId": 7669269,
        "name": "Ndali",
        "children": [
            
        ]
    },
    {
        "geonameId": 7669355,
        "name": "Nikki",
        "children": [
            
        ]
    },
    {
        "geonameId": 7669352,
        "name": "P\u00e8r\u00e8r\u00e8",
        "children": [
            
        ]
    },
    {
        "geonameId": 7669357,
        "name": "Sinend\u00e9",
        "children": [
            
        ]
    }
]