[
    {
        "geonameId": 7874152,
        "name": "Commune of Abomey-Calavi",
        "children": [
            
        ]
    },
    {
        "geonameId": 8260655,
        "name": "Commune of Allada",
        "children": [
            
        ]
    },
    {
        "geonameId": 7668937,
        "name": "Commune of Kpomasse",
        "children": [
            
        ]
    },
    {
        "geonameId": 7668936,
        "name": "Commune of Ouidah",
        "children": [
            
        ]
    },
    {
        "geonameId": 7874154,
        "name": "Commune of So-Ava",
        "children": [
            
        ]
    },
    {
        "geonameId": 8260656,
        "name": "Commune of Toffo",
        "children": [
            
        ]
    },
    {
        "geonameId": 7668938,
        "name": "Commune of Tori-Bossito",
        "children": [
            
        ]
    },
    {
        "geonameId": 8260657,
        "name": "Commune of Ze",
        "children": [
            
        ]
    },
    {
        "geonameId": 7874113,
        "name": "Cotonou",
        "children": [
            
        ]
    }
]