[
    {
        "geonameId": 8260658,
        "name": "Commune of Djougou",
        "children": [
            
        ]
    },
    {
        "geonameId": 7668918,
        "name": "Kerou",
        "children": [
            
        ]
    },
    {
        "geonameId": 7669275,
        "name": "Kopargo",
        "children": [
            
        ]
    },
    {
        "geonameId": 7668910,
        "name": "Kouande",
        "children": [
            
        ]
    },
    {
        "geonameId": 7874158,
        "name": "Materi",
        "children": [
            
        ]
    },
    {
        "geonameId": 7669273,
        "name": "Natitingou",
        "children": [
            
        ]
    },
    {
        "geonameId": 7668916,
        "name": "Pehonko",
        "children": [
            
        ]
    },
    {
        "geonameId": 7874156,
        "name": "Tanguieta",
        "children": [
            
        ]
    },
    {
        "geonameId": 7874157,
        "name": "Toukountouna",
        "children": [
            
        ]
    }
]