[
    {
        "geonameId": 2411311,
        "name": "Abade",
        "children": [
            
        ]
    },
    {
        "geonameId": 2411285,
        "name": "Anselmo de Andrade",
        "children": [
            
        ]
    },
    {
        "geonameId": 2411279,
        "name": "Atalaia",
        "children": [
            
        ]
    },
    {
        "geonameId": 2411275,
        "name": "Babudo",
        "children": [
            
        ]
    },
    {
        "geonameId": 2411262,
        "name": "Bela Vista",
        "children": [
            
        ]
    },
    {
        "geonameId": 2411260,
        "name": "Belo Monte",
        "children": [
            
        ]
    },
    {
        "geonameId": 2411244,
        "name": "Bombom",
        "children": [
            
        ]
    },
    {
        "geonameId": 2411216,
        "name": "Campainha",
        "children": [
            
        ]
    },
    {
        "geonameId": 2411196,
        "name": "Cascalheira",
        "children": [
            
        ]
    },
    {
        "geonameId": 2411172,
        "name": "Costa e Silva",
        "children": [
            
        ]
    },
    {
        "geonameId": 2411149,
        "name": "Esperan\u00e7a",
        "children": [
            
        ]
    },
    {
        "geonameId": 2411124,
        "name": "Futuro",
        "children": [
            
        ]
    },
    {
        "geonameId": 2411118,
        "name": "General Fonseca",
        "children": [
            
        ]
    },
    {
        "geonameId": 2411115,
        "name": "Germinia Ant\u00f3nia",
        "children": [
            
        ]
    },
    {
        "geonameId": 2411090,
        "name": "Infante Dom Henrique",
        "children": [
            
        ]
    },
    {
        "geonameId": 2411079,
        "name": "Iola",
        "children": [
            
        ]
    },
    {
        "geonameId": 2411036,
        "name": "Mantero",
        "children": [
            
        ]
    },
    {
        "geonameId": 2411034,
        "name": "Manuel Gomes",
        "children": [
            
        ]
    },
    {
        "geonameId": 2411002,
        "name": "Montalegre",
        "children": [
            
        ]
    },
    {
        "geonameId": 2411001,
        "name": "Montalv\u00e3o",
        "children": [
            
        ]
    },
    {
        "geonameId": 2410993,
        "name": "Monte Pedra",
        "children": [
            
        ]
    },
    {
        "geonameId": 2411032,
        "name": "M\u00e1quina",
        "children": [
            
        ]
    },
    {
        "geonameId": 2410971,
        "name": "Neves Ferreira",
        "children": [
            
        ]
    },
    {
        "geonameId": 2410970,
        "name": "Nitreira",
        "children": [
            
        ]
    },
    {
        "geonameId": 2410969,
        "name": "Nova Cuba",
        "children": [
            
        ]
    },
    {
        "geonameId": 2410968,
        "name": "Nova Estrela",
        "children": [
            
        ]
    },
    {
        "geonameId": 2410952,
        "name": "Oqu\u00ea Gaspar",
        "children": [
            
        ]
    },
    {
        "geonameId": 2410948,
        "name": "Oqu\u00ea Ros\u00e1rio",
        "children": [
            
        ]
    },
    {
        "geonameId": 2410947,
        "name": "Oqu\u00ea Tr\u00eas",
        "children": [
            
        ]
    },
    {
        "geonameId": 2410944,
        "name": "Paciencia",
        "children": [
            
        ]
    },
    {
        "geonameId": 2410935,
        "name": "Pau Cavalo",
        "children": [
            
        ]
    },
    {
        "geonameId": 2410934,
        "name": "Paufita",
        "children": [
            
        ]
    },
    {
        "geonameId": 2410923,
        "name": "Periquito",
        "children": [
            
        ]
    },
    {
        "geonameId": 2410914,
        "name": "Piedade",
        "children": [
            
        ]
    },
    {
        "geonameId": 2410899,
        "name": "Ponta Forte",
        "children": [
            
        ]
    },
    {
        "geonameId": 2410902,
        "name": "Ponta do Sol",
        "children": [
            
        ]
    },
    {
        "geonameId": 2410885,
        "name": "Praia Inhame",
        "children": [
            
        ]
    },
    {
        "geonameId": 2410859,
        "name": "Ribeira Fria",
        "children": [
            
        ]
    },
    {
        "geonameId": 2410857,
        "name": "Ribeira Iz\u00e9",
        "children": [
            
        ]
    },
    {
        "geonameId": 2410845,
        "name": "Salom\u00e3o",
        "children": [
            
        ]
    },
    {
        "geonameId": 2410828,
        "name": "Santa Isabel",
        "children": [
            
        ]
    },
    {
        "geonameId": 2410826,
        "name": "Santa Joaquina",
        "children": [
            
        ]
    },
    {
        "geonameId": 2410813,
        "name": "Santa Rita",
        "children": [
            
        ]
    },
    {
        "geonameId": 2410811,
        "name": "Santa Trindade",
        "children": [
            
        ]
    },
    {
        "geonameId": 2410820,
        "name": "Santana",
        "children": [
            
        ]
    },
    {
        "geonameId": 2410805,
        "name": "Santo Ant\u00f3nio",
        "children": [
            
        ]
    },
    {
        "geonameId": 2410806,
        "name": "Santo Ant\u00f3nio",
        "children": [
            
        ]
    },
    {
        "geonameId": 2410802,
        "name": "Santo Cristo",
        "children": [
            
        ]
    },
    {
        "geonameId": 2410754,
        "name": "Sequeira",
        "children": [
            
        ]
    },
    {
        "geonameId": 2410748,
        "name": "Sundi",
        "children": [
            
        ]
    },
    {
        "geonameId": 2410801,
        "name": "S\u00e3o Carlos do Fund\u00e3o",
        "children": [
            
        ]
    },
    {
        "geonameId": 2410794,
        "name": "S\u00e3o Jer\u00f3nimo",
        "children": [
            
        ]
    },
    {
        "geonameId": 2410783,
        "name": "S\u00e3o Joaquim",
        "children": [
            
        ]
    },
    {
        "geonameId": 2410782,
        "name": "S\u00e3o Jorge",
        "children": [
            
        ]
    },
    {
        "geonameId": 2410778,
        "name": "S\u00e3o Jos\u00e9 Picat\u00e9",
        "children": [
            
        ]
    },
    {
        "geonameId": 2410786,
        "name": "S\u00e3o Jo\u00e3o",
        "children": [
            
        ]
    },
    {
        "geonameId": 2410774,
        "name": "S\u00e3o Mateus",
        "children": [
            
        ]
    },
    {
        "geonameId": 2410744,
        "name": "Terra Firme",
        "children": [
            
        ]
    },
    {
        "geonameId": 2410734,
        "name": "Uba",
        "children": [
            
        ]
    },
    {
        "geonameId": 2410724,
        "name": "Vila Rosa",
        "children": [
            
        ]
    }
]