[
    {
        "geonameId": 2413481,
        "name": "Foni Bintang-Karenai",
        "children": [
            
        ]
    },
    {
        "geonameId": 2413480,
        "name": "Foni Bondali",
        "children": [
            
        ]
    },
    {
        "geonameId": 2413479,
        "name": "Foni Brefet",
        "children": [
            
        ]
    },
    {
        "geonameId": 2413478,
        "name": "Foni Jarrol",
        "children": [
            
        ]
    },
    {
        "geonameId": 2413477,
        "name": "Foni Kansala",
        "children": [
            
        ]
    },
    {
        "geonameId": 2412852,
        "name": "Kombo Central District",
        "children": [
            
        ]
    },
    {
        "geonameId": 2412851,
        "name": "Kombo East District",
        "children": [
            
        ]
    },
    {
        "geonameId": 2412850,
        "name": "Kombo North District",
        "children": [
            
        ]
    },
    {
        "geonameId": 2412849,
        "name": "Kombo South District",
        "children": [
            
        ]
    }
]