[
    {
        "geonameId": 2413461,
        "name": "Fulladu West",
        "children": [
            
        ]
    },
    {
        "geonameId": 2412715,
        "name": "Lower Saloum",
        "children": [
            
        ]
    },
    {
        "geonameId": 2412424,
        "name": "Niamina Dankunku District",
        "children": [
            
        ]
    },
    {
        "geonameId": 2412423,
        "name": "Niamina East District",
        "children": [
            
        ]
    },
    {
        "geonameId": 2412422,
        "name": "Niamina West District",
        "children": [
            
        ]
    },
    {
        "geonameId": 2412421,
        "name": "Niani",
        "children": [
            
        ]
    },
    {
        "geonameId": 2412420,
        "name": "Nianija District",
        "children": [
            
        ]
    },
    {
        "geonameId": 2412201,
        "name": "Sami District",
        "children": [
            
        ]
    },
    {
        "geonameId": 2411710,
        "name": "Upper Saloum",
        "children": [
            
        ]
    }
]