[
    {
        "geonameId": 8624181,
        "name": "Abalak",
        "children": [
            
        ]
    },
    {
        "geonameId": 2443303,
        "name": "D\u00e9partement d' Ill\u00e9la",
        "children": [
            
        ]
    },
    {
        "geonameId": 2446752,
        "name": "D\u00e9partement de Birni Nkonni",
        "children": [
            
        ]
    },
    {
        "geonameId": 2446465,
        "name": "D\u00e9partement de Bouza",
        "children": [
            
        ]
    },
    {
        "geonameId": 2442477,
        "name": "D\u00e9partement de Ke\u00efta",
        "children": [
            
        ]
    },
    {
        "geonameId": 2441528,
        "name": "D\u00e9partement de Madaoua",
        "children": [
            
        ]
    },
    {
        "geonameId": 2439375,
        "name": "D\u00e9partement de Tahoua",
        "children": [
            
        ]
    },
    {
        "geonameId": 2438973,
        "name": "D\u00e9partement de Tchin-Tabaraden",
        "children": [
            
        ]
    }
]