[
    {
        "geonameId": 8299591,
        "name": "Bandiagara Cercle",
        "children": [
            
        ]
    },
    {
        "geonameId": 7701493,
        "name": "Bankass Cercle",
        "children": [
            
        ]
    },
    {
        "geonameId": 8299590,
        "name": "Djenne Cercle",
        "children": [
            
        ]
    },
    {
        "geonameId": 7670549,
        "name": "Douentza Cercle",
        "children": [
            
        ]
    },
    {
        "geonameId": 7701494,
        "name": "Koro Cercle",
        "children": [
            
        ]
    },
    {
        "geonameId": 7701484,
        "name": "Mopti Cercle",
        "children": [
            
        ]
    },
    {
        "geonameId": 8299588,
        "name": "Niafunke Cercle",
        "children": [
            
        ]
    },
    {
        "geonameId": 8299589,
        "name": "Tenenkou Cercle",
        "children": [
            
        ]
    },
    {
        "geonameId": 8299587,
        "name": "Youwarou Cercle",
        "children": [
            
        ]
    }
]