[
    {
        "geonameId": 8631538,
        "name": "Ansango",
        "children": [
            
        ]
    },
    {
        "geonameId": 7670555,
        "name": "Ansongo Cercle",
        "children": [
            
        ]
    },
    {
        "geonameId": 8631537,
        "name": "Cercle de Bourem",
        "children": [
            
        ]
    },
    {
        "geonameId": 8631539,
        "name": "Cercle de M\u00e9naka",
        "children": [
            
        ]
    },
    {
        "geonameId": 7701473,
        "name": "Dire",
        "children": [
            
        ]
    },
    {
        "geonameId": 7670553,
        "name": "Gao Cercle",
        "children": [
            
        ]
    },
    {
        "geonameId": 7670552,
        "name": "Gourma-Rharous Cercle",
        "children": [
            
        ]
    },
    {
        "geonameId": 7701465,
        "name": "Kidal",
        "children": [
            
        ]
    },
    {
        "geonameId": 7701470,
        "name": "Tombouctou",
        "children": [
            
        ]
    }
]