[
    {
        "geonameId": 8261492,
        "name": "Banamba Cercle",
        "children": [
            
        ]
    },
    {
        "geonameId": 7701194,
        "name": "Commune 1",
        "children": [
            
        ]
    },
    {
        "geonameId": 7701195,
        "name": "Commune 2",
        "children": [
            
        ]
    },
    {
        "geonameId": 7701193,
        "name": "Commune 3",
        "children": [
            
        ]
    },
    {
        "geonameId": 7701196,
        "name": "Commune 4",
        "children": [
            
        ]
    },
    {
        "geonameId": 7701197,
        "name": "Commune 5",
        "children": [
            
        ]
    },
    {
        "geonameId": 7701198,
        "name": "Commune 6",
        "children": [
            
        ]
    },
    {
        "geonameId": 7701200,
        "name": "Dioila",
        "children": [
            
        ]
    },
    {
        "geonameId": 7701199,
        "name": "Kati Cercle",
        "children": [
            
        ]
    },
    {
        "geonameId": 8261491,
        "name": "Kolokani Cercle",
        "children": [
            
        ]
    },
    {
        "geonameId": 7701503,
        "name": "Koulikoro",
        "children": [
            
        ]
    },
    {
        "geonameId": 8261493,
        "name": "Nara Cercle",
        "children": [
            
        ]
    }
]