[
    {
        "geonameId": 2473913,
        "name": "Akouda",
        "children": [
            
        ]
    },
    {
        "geonameId": 2473806,
        "name": "Al Burjayn",
        "children": [
            
        ]
    },
    {
        "geonameId": 2473632,
        "name": "Al Kan\u0101\u2019is",
        "children": [
            
        ]
    },
    {
        "geonameId": 2472721,
        "name": "Ban\u012b Kulth\u016bm",
        "children": [
            
        ]
    },
    {
        "geonameId": 2586393,
        "name": "Ben Khirat",
        "children": [
            
        ]
    },
    {
        "geonameId": 2586496,
        "name": "Bidane",
        "children": [
            
        ]
    },
    {
        "geonameId": 2472042,
        "name": "Borj el Bey",
        "children": [
            
        ]
    },
    {
        "geonameId": 2472256,
        "name": "B\u016b ar Rab\u012b\u2018ah",
        "children": [
            
        ]
    },
    {
        "geonameId": 2586505,
        "name": "Cit\u00e9 Ouvri\u00e8re",
        "children": [
            
        ]
    },
    {
        "geonameId": 2587672,
        "name": "Dar Haj Salah",
        "children": [
            
        ]
    },
    {
        "geonameId": 2471660,
        "name": "Dar Khaled",
        "children": [
            
        ]
    },
    {
        "geonameId": 2587671,
        "name": "Dar Titi",
        "children": [
            
        ]
    },
    {
        "geonameId": 2471709,
        "name": "Dar ech Chaouch Abd Alla",
        "children": [
            
        ]
    },
    {
        "geonameId": 2471739,
        "name": "Dar el Aroussi",
        "children": [
            
        ]
    },
    {
        "geonameId": 2587519,
        "name": "Dar el Haj Amara",
        "children": [
            
        ]
    },
    {
        "geonameId": 2590977,
        "name": "Dar el Sa\u00efd",
        "children": [
            
        ]
    },
    {
        "geonameId": 2587562,
        "name": "Douar Hamama",
        "children": [
            
        ]
    },
    {
        "geonameId": 2587543,
        "name": "Douar Oulad Aoun",
        "children": [
            
        ]
    },
    {
        "geonameId": 2587638,
        "name": "Douar Oulad Jebar",
        "children": [
            
        ]
    },
    {
        "geonameId": 2587640,
        "name": "Douar Oulad Kbir",
        "children": [
            
        ]
    },
    {
        "geonameId": 2587635,
        "name": "Douar Oulad Znai",
        "children": [
            
        ]
    },
    {
        "geonameId": 2586373,
        "name": "Ed Dzahibi",
        "children": [
            
        ]
    },
    {
        "geonameId": 2590969,
        "name": "El Ahmar",
        "children": [
            
        ]
    },
    {
        "geonameId": 2590971,
        "name": "El Haj Mohammed Zarrouch",
        "children": [
            
        ]
    },
    {
        "geonameId": 2473575,
        "name": "El Mhedba",
        "children": [
            
        ]
    },
    {
        "geonameId": 2473358,
        "name": "Enfidha",
        "children": [
            
        ]
    },
    {
        "geonameId": 2586388,
        "name": "Es Safet",
        "children": [
            
        ]
    },
    {
        "geonameId": 2587501,
        "name": "Et Trabelsia",
        "children": [
            
        ]
    },
    {
        "geonameId": 2587504,
        "name": "Et Trabelsia",
        "children": [
            
        ]
    },
    {
        "geonameId": 2586383,
        "name": "Ez Zaouaoudi",
        "children": [
            
        ]
    },
    {
        "geonameId": 2471088,
        "name": "Fra\u00efa",
        "children": [
            
        ]
    },
    {
        "geonameId": 2470579,
        "name": "Hammam Sousse",
        "children": [
            
        ]
    },
    {
        "geonameId": 2587529,
        "name": "Henndi Knana",
        "children": [
            
        ]
    },
    {
        "geonameId": 2587517,
        "name": "Henndi Oulad Sa\u00efd",
        "children": [
            
        ]
    },
    {
        "geonameId": 2587523,
        "name": "Henndi Salmoun",
        "children": [
            
        ]
    },
    {
        "geonameId": 2587518,
        "name": "Henndi ech Chiab",
        "children": [
            
        ]
    },
    {
        "geonameId": 2587515,
        "name": "Henndi el Alouj",
        "children": [
            
        ]
    },
    {
        "geonameId": 2587530,
        "name": "Henndi el Haj Brahim",
        "children": [
            
        ]
    },
    {
        "geonameId": 2586391,
        "name": "Henndi el Menzel",
        "children": [
            
        ]
    },
    {
        "geonameId": 2587528,
        "name": "Henndi es Saada",
        "children": [
            
        ]
    },
    {
        "geonameId": 2587526,
        "name": "Henndi es Setta",
        "children": [
            
        ]
    },
    {
        "geonameId": 2587532,
        "name": "Henndi et Teggaz",
        "children": [
            
        ]
    },
    {
        "geonameId": 2470483,
        "name": "Hergla",
        "children": [
            
        ]
    },
    {
        "geonameId": 2473481,
        "name": "Kalaa Srira",
        "children": [
            
        ]
    },
    {
        "geonameId": 2473483,
        "name": "Kelaa Kebira",
        "children": [
            
        ]
    },
    {
        "geonameId": 2469698,
        "name": "Khoussiah",
        "children": [
            
        ]
    },
    {
        "geonameId": 2467889,
        "name": "Ksiba",
        "children": [
            
        ]
    },
    {
        "geonameId": 2469639,
        "name": "La Corniche",
        "children": [
            
        ]
    },
    {
        "geonameId": 2469140,
        "name": "Masakin",
        "children": [
            
        ]
    },
    {
        "geonameId": 2469120,
        "name": "Masht\u00e1 ash Shuwayshah",
        "children": [
            
        ]
    },
    {
        "geonameId": 2473538,
        "name": "Messadine",
        "children": [
            
        ]
    },
    {
        "geonameId": 2468783,
        "name": "Moureddine",
        "children": [
            
        ]
    },
    {
        "geonameId": 2586524,
        "name": "Nafed",
        "children": [
            
        ]
    },
    {
        "geonameId": 2586398,
        "name": "Oulad Amor",
        "children": [
            
        ]
    },
    {
        "geonameId": 2586385,
        "name": "Oulad Messaouda",
        "children": [
            
        ]
    },
    {
        "geonameId": 2586401,
        "name": "Oulad Mohammed el Alounia",
        "children": [
            
        ]
    },
    {
        "geonameId": 2471701,
        "name": "Oulad Mrabot",
        "children": [
            
        ]
    },
    {
        "geonameId": 2586399,
        "name": "Oulad Neffet",
        "children": [
            
        ]
    },
    {
        "geonameId": 2473073,
        "name": "Oulad el Abed",
        "children": [
            
        ]
    },
    {
        "geonameId": 2587503,
        "name": "Oulad el Abed",
        "children": [
            
        ]
    },
    {
        "geonameId": 2586395,
        "name": "Oulad el Ghoulet",
        "children": [
            
        ]
    },
    {
        "geonameId": 2586397,
        "name": "Oulad el Kelba",
        "children": [
            
        ]
    },
    {
        "geonameId": 2586386,
        "name": "Oulad el Meniou",
        "children": [
            
        ]
    },
    {
        "geonameId": 6355180,
        "name": "Port el Kantaoui",
        "children": [
            
        ]
    },
    {
        "geonameId": 2473191,
        "name": "Sahali",
        "children": [
            
        ]
    },
    {
        "geonameId": 2466034,
        "name": "Sidi Bou Ali",
        "children": [
            
        ]
    },
    {
        "geonameId": 2465600,
        "name": "Sidi Khalifa el Ferjani",
        "children": [
            
        ]
    },
    {
        "geonameId": 2466499,
        "name": "Sidi el Hani",
        "children": [
            
        ]
    },
    {
        "geonameId": 2587525,
        "name": "Sidi et Ta\u00efari",
        "children": [
            
        ]
    },
    {
        "geonameId": 2467183,
        "name": "Souani el Adari",
        "children": [
            
        ]
    },
    {
        "geonameId": 2464915,
        "name": "Sousse",
        "children": [
            {
                "geonameId": 2465936,
                "name": "Sidi Bou Jafer",
                "children": [
                    
                ]
            }
        ]
    },
    {
        "geonameId": 2464187,
        "name": "Villa des Pins",
        "children": [
            
        ]
    },
    {
        "geonameId": 2463941,
        "name": "Zaouiet Sousse",
        "children": [
            
        ]
    }
]