[
    {
        "geonameId": 7870280,
        "name": "Ben Guerdane",
        "children": [
            
        ]
    },
    {
        "geonameId": 7870275,
        "name": "Beni Khedeche",
        "children": [
            
        ]
    },
    {
        "geonameId": 7911270,
        "name": "Jerba Ajim",
        "children": [
            
        ]
    },
    {
        "geonameId": 7911269,
        "name": "Jerba Midoun",
        "children": [
            
        ]
    },
    {
        "geonameId": 7870276,
        "name": "Medenine Nord",
        "children": [
            
        ]
    },
    {
        "geonameId": 7870277,
        "name": "Medenine Sud",
        "children": [
            
        ]
    },
    {
        "geonameId": 2470172,
        "name": "Mu\u2018tamad\u012byat Jarj\u012bs",
        "children": [
            
        ]
    },
    {
        "geonameId": 2469474,
        "name": "Mu\u2018tamad\u012byat Madan\u012b",
        "children": [
            
        ]
    },
    {
        "geonameId": 7870278,
        "name": "Sidi Makhlouf",
        "children": [
            
        ]
    }
]