[
    {
        "geonameId": 2509009,
        "name": "Achachda",
        "children": [
            
        ]
    },
    {
        "geonameId": 2507316,
        "name": "Amamra",
        "children": [
            
        ]
    },
    {
        "geonameId": 2506969,
        "name": "Annseur el Abiod",
        "children": [
            
        ]
    },
    {
        "geonameId": 2505321,
        "name": "Beka\u00efria",
        "children": [
            
        ]
    },
    {
        "geonameId": 2503695,
        "name": "Bordj Bounaama",
        "children": [
            
        ]
    },
    {
        "geonameId": 2503666,
        "name": "Bordj el Emir Abdelkader",
        "children": [
            
        ]
    },
    {
        "geonameId": 2503392,
        "name": "Bou Ca\u00efd",
        "children": [
            
        ]
    },
    {
        "geonameId": 2502641,
        "name": "Bou Menngouch",
        "children": [
            
        ]
    },
    {
        "geonameId": 2502287,
        "name": "Bou Tadjine",
        "children": [
            
        ]
    },
    {
        "geonameId": 2501896,
        "name": "Chaami",
        "children": [
            
        ]
    },
    {
        "geonameId": 2501605,
        "name": "Chehama",
        "children": [
            
        ]
    },
    {
        "geonameId": 7437858,
        "name": "Dar el Hadj Abderrahmane",
        "children": [
            
        ]
    },
    {
        "geonameId": 2571249,
        "name": "Djama Salem",
        "children": [
            
        ]
    },
    {
        "geonameId": 7437860,
        "name": "Douar Sakhri",
        "children": [
            
        ]
    },
    {
        "geonameId": 7437859,
        "name": "Douar el Merabtine",
        "children": [
            
        ]
    },
    {
        "geonameId": 7437853,
        "name": "Ech Chebka",
        "children": [
            
        ]
    },
    {
        "geonameId": 2498662,
        "name": "El Aouisset",
        "children": [
            
        ]
    },
    {
        "geonameId": 7438110,
        "name": "El Gaada el Hamra",
        "children": [
            
        ]
    },
    {
        "geonameId": 2498291,
        "name": "El Gouassem",
        "children": [
            
        ]
    },
    {
        "geonameId": 7437856,
        "name": "El Maalime",
        "children": [
            
        ]
    },
    {
        "geonameId": 2497706,
        "name": "El Mannsour",
        "children": [
            
        ]
    },
    {
        "geonameId": 2497324,
        "name": "El Rhoualem",
        "children": [
            
        ]
    },
    {
        "geonameId": 2496924,
        "name": "Ez Zeharia",
        "children": [
            
        ]
    },
    {
        "geonameId": 2494196,
        "name": "Hardy",
        "children": [
            
        ]
    },
    {
        "geonameId": 2493960,
        "name": "Hela\u00efmia",
        "children": [
            
        ]
    },
    {
        "geonameId": 2493930,
        "name": "Hena\u00efch",
        "children": [
            
        ]
    },
    {
        "geonameId": 2493799,
        "name": "Houabi",
        "children": [
            
        ]
    },
    {
        "geonameId": 2492397,
        "name": "Kerarma",
        "children": [
            
        ]
    },
    {
        "geonameId": 2491908,
        "name": "Khemisti",
        "children": [
            
        ]
    },
    {
        "geonameId": 7428868,
        "name": "Kheng Zebib",
        "children": [
            
        ]
    },
    {
        "geonameId": 2491227,
        "name": "Laali et Telli",
        "children": [
            
        ]
    },
    {
        "geonameId": 2491223,
        "name": "Laayoune",
        "children": [
            
        ]
    },
    {
        "geonameId": 2491221,
        "name": "Laba\u00efs",
        "children": [
            
        ]
    },
    {
        "geonameId": 2490679,
        "name": "Maaza",
        "children": [
            
        ]
    },
    {
        "geonameId": 7440924,
        "name": "Matmar Ain Ghorab",
        "children": [
            
        ]
    },
    {
        "geonameId": 2489299,
        "name": "Mechta Rahmane Salah",
        "children": [
            
        ]
    },
    {
        "geonameId": 2489812,
        "name": "Mechta \u2019A\u00efn Bou Ziane",
        "children": [
            
        ]
    },
    {
        "geonameId": 2489114,
        "name": "Mechtat el Djemal",
        "children": [
            
        ]
    },
    {
        "geonameId": 2487680,
        "name": "Messouket",
        "children": [
            
        ]
    },
    {
        "geonameId": 2487655,
        "name": "Metameur \u2019A\u00efn el Rhorab",
        "children": [
            
        ]
    },
    {
        "geonameId": 2487360,
        "name": "Mkada",
        "children": [
            
        ]
    },
    {
        "geonameId": 2485424,
        "name": "Oulad Abed",
        "children": [
            
        ]
    },
    {
        "geonameId": 2485213,
        "name": "Oulad Melaab",
        "children": [
            
        ]
    },
    {
        "geonameId": 2485105,
        "name": "Oulad Taza",
        "children": [
            
        ]
    },
    {
        "geonameId": 2485028,
        "name": "Ouled Allah",
        "children": [
            
        ]
    },
    {
        "geonameId": 2484970,
        "name": "Ouled Bessem",
        "children": [
            
        ]
    },
    {
        "geonameId": 2484854,
        "name": "Ouled Meddah",
        "children": [
            
        ]
    },
    {
        "geonameId": 7437848,
        "name": "Ouled Mehaia",
        "children": [
            
        ]
    },
    {
        "geonameId": 2484833,
        "name": "Ouled Mranntia",
        "children": [
            
        ]
    },
    {
        "geonameId": 7440926,
        "name": "Ouled Sidi Rabah",
        "children": [
            
        ]
    },
    {
        "geonameId": 2483410,
        "name": "Rhazlia",
        "children": [
            
        ]
    },
    {
        "geonameId": 2482942,
        "name": "Rouabah",
        "children": [
            
        ]
    },
    {
        "geonameId": 2482295,
        "name": "Scharouia",
        "children": [
            
        ]
    },
    {
        "geonameId": 2482241,
        "name": "Seba\u00efh",
        "children": [
            
        ]
    },
    {
        "geonameId": 2481632,
        "name": "Shanine",
        "children": [
            
        ]
    },
    {
        "geonameId": 2479203,
        "name": "Souk el Had",
        "children": [
            
        ]
    },
    {
        "geonameId": 2475860,
        "name": "Tissemsilt",
        "children": [
            
        ]
    },
    {
        "geonameId": 2508070,
        "name": "\u2019A\u00efn Ihanou",
        "children": [
            
        ]
    }
]