[
    {
        "geonameId": 2509245,
        "name": "Abbech",
        "children": [
            
        ]
    },
    {
        "geonameId": 2509175,
        "name": "Abd el Moumene",
        "children": [
            
        ]
    },
    {
        "geonameId": 2509035,
        "name": "Abizar",
        "children": [
            
        ]
    },
    {
        "geonameId": 2509117,
        "name": "Ab\u00eed Chamlet",
        "children": [
            
        ]
    },
    {
        "geonameId": 2508982,
        "name": "Achouba",
        "children": [
            
        ]
    },
    {
        "geonameId": 2508909,
        "name": "Adeni",
        "children": [
            
        ]
    },
    {
        "geonameId": 2508811,
        "name": "Adrar",
        "children": [
            
        ]
    },
    {
        "geonameId": 2508812,
        "name": "Adrar",
        "children": [
            
        ]
    },
    {
        "geonameId": 2508742,
        "name": "Afir",
        "children": [
            
        ]
    },
    {
        "geonameId": 2508745,
        "name": "Afir",
        "children": [
            
        ]
    },
    {
        "geonameId": 2508697,
        "name": "Agachene",
        "children": [
            
        ]
    },
    {
        "geonameId": 2508639,
        "name": "Agouni Ouzemoun",
        "children": [
            
        ]
    },
    {
        "geonameId": 2508640,
        "name": "Agouni-n-Tsalent",
        "children": [
            
        ]
    },
    {
        "geonameId": 2508637,
        "name": "Agoussim",
        "children": [
            
        ]
    },
    {
        "geonameId": 2508632,
        "name": "Agraredj",
        "children": [
            
        ]
    },
    {
        "geonameId": 2508602,
        "name": "Aguemoun",
        "children": [
            
        ]
    },
    {
        "geonameId": 2508604,
        "name": "Aguemoun",
        "children": [
            
        ]
    },
    {
        "geonameId": 2508601,
        "name": "Aguemoun Izem",
        "children": [
            
        ]
    },
    {
        "geonameId": 2507665,
        "name": "Akaoudj",
        "children": [
            
        ]
    },
    {
        "geonameId": 2507622,
        "name": "Akerroui",
        "children": [
            
        ]
    },
    {
        "geonameId": 2507621,
        "name": "Akfadou",
        "children": [
            
        ]
    },
    {
        "geonameId": 2507256,
        "name": "Amazoul",
        "children": [
            
        ]
    },
    {
        "geonameId": 2507164,
        "name": "Amkrouz",
        "children": [
            
        ]
    },
    {
        "geonameId": 2507069,
        "name": "Amzeourou",
        "children": [
            
        ]
    },
    {
        "geonameId": 2506759,
        "name": "Aourir",
        "children": [
            
        ]
    },
    {
        "geonameId": 2506760,
        "name": "Aourir",
        "children": [
            
        ]
    },
    {
        "geonameId": 2506519,
        "name": "Arhribs",
        "children": [
            
        ]
    },
    {
        "geonameId": 2506427,
        "name": "Arouled",
        "children": [
            
        ]
    },
    {
        "geonameId": 2506242,
        "name": "Assiak Bou Adda",
        "children": [
            
        ]
    },
    {
        "geonameId": 2506129,
        "name": "Atrouch",
        "children": [
            
        ]
    },
    {
        "geonameId": 2506043,
        "name": "Azazga",
        "children": [
            
        ]
    },
    {
        "geonameId": 2506034,
        "name": "Azeffoun",
        "children": [
            
        ]
    },
    {
        "geonameId": 2505993,
        "name": "Azerou Kellat",
        "children": [
            
        ]
    },
    {
        "geonameId": 2505969,
        "name": "Azib Che\u00efkh",
        "children": [
            
        ]
    },
    {
        "geonameId": 2505946,
        "name": "Azouza",
        "children": [
            
        ]
    },
    {
        "geonameId": 2505927,
        "name": "Azrou",
        "children": [
            
        ]
    },
    {
        "geonameId": 2484202,
        "name": "A\u00efn Zaou\u00efa",
        "children": [
            
        ]
    },
    {
        "geonameId": 2507862,
        "name": "A\u00efn Zaou\u00efa",
        "children": [
            
        ]
    },
    {
        "geonameId": 2507799,
        "name": "A\u00eft Abbas",
        "children": [
            
        ]
    },
    {
        "geonameId": 2507796,
        "name": "A\u00eft Abid",
        "children": [
            
        ]
    },
    {
        "geonameId": 2507795,
        "name": "A\u00eft Adja",
        "children": [
            
        ]
    },
    {
        "geonameId": 2507794,
        "name": "A\u00eft Ahlal",
        "children": [
            
        ]
    },
    {
        "geonameId": 2507791,
        "name": "A\u00eft Ahmed",
        "children": [
            
        ]
    },
    {
        "geonameId": 2507793,
        "name": "A\u00eft Ahmed",
        "children": [
            
        ]
    },
    {
        "geonameId": 2507782,
        "name": "A\u00eft Ali Abd Allah",
        "children": [
            
        ]
    },
    {
        "geonameId": 2507781,
        "name": "A\u00eft Ali Ou Harzoun",
        "children": [
            
        ]
    },
    {
        "geonameId": 2507780,
        "name": "A\u00eft Ali Ou Mohannd",
        "children": [
            
        ]
    },
    {
        "geonameId": 2507778,
        "name": "A\u00eft Aouana",
        "children": [
            
        ]
    },
    {
        "geonameId": 2507775,
        "name": "A\u00eft Atelli",
        "children": [
            
        ]
    },
    {
        "geonameId": 2507774,
        "name": "A\u00eft Aziz",
        "children": [
            
        ]
    },
    {
        "geonameId": 2507790,
        "name": "A\u00eft A\u00efcha",
        "children": [
            
        ]
    },
    {
        "geonameId": 2507788,
        "name": "A\u00eft A\u00efssa Ou Yahia",
        "children": [
            
        ]
    },
    {
        "geonameId": 2507786,
        "name": "A\u00eft A\u00efssi",
        "children": [
            
        ]
    },
    {
        "geonameId": 2507772,
        "name": "A\u00eft Berdjal",
        "children": [
            
        ]
    },
    {
        "geonameId": 2507771,
        "name": "A\u00eft Bou Abd er Rahmane",
        "children": [
            
        ]
    },
    {
        "geonameId": 2507770,
        "name": "A\u00eft Bou Madhi",
        "children": [
            
        ]
    },
    {
        "geonameId": 2507768,
        "name": "A\u00eft Bou Slimane",
        "children": [
            
        ]
    },
    {
        "geonameId": 2507767,
        "name": "A\u00eft Bou Yahia",
        "children": [
            
        ]
    },
    {
        "geonameId": 2507765,
        "name": "A\u00eft Braham",
        "children": [
            
        ]
    },
    {
        "geonameId": 2507764,
        "name": "A\u00eft Chafa",
        "children": [
            
        ]
    },
    {
        "geonameId": 2507762,
        "name": "A\u00eft Djemaa",
        "children": [
            
        ]
    },
    {
        "geonameId": 2507753,
        "name": "A\u00eft Frah",
        "children": [
            
        ]
    },
    {
        "geonameId": 2507752,
        "name": "A\u00eft Hag",
        "children": [
            
        ]
    },
    {
        "geonameId": 2507751,
        "name": "A\u00eft Halli",
        "children": [
            
        ]
    },
    {
        "geonameId": 2507750,
        "name": "A\u00eft Hamsi",
        "children": [
            
        ]
    },
    {
        "geonameId": 2507749,
        "name": "A\u00eft Hassem",
        "children": [
            
        ]
    },
    {
        "geonameId": 2507748,
        "name": "A\u00eft Hessane",
        "children": [
            
        ]
    },
    {
        "geonameId": 2507747,
        "name": "A\u00eft Hichem",
        "children": [
            
        ]
    },
    {
        "geonameId": 2507743,
        "name": "A\u00eft Idir",
        "children": [
            
        ]
    },
    {
        "geonameId": 2507740,
        "name": "A\u00eft Illoul",
        "children": [
            
        ]
    },
    {
        "geonameId": 2507739,
        "name": "A\u00eft Khalfa",
        "children": [
            
        ]
    },
    {
        "geonameId": 2507737,
        "name": "A\u00eft Khe\u00efr",
        "children": [
            
        ]
    },
    {
        "geonameId": 2507735,
        "name": "A\u00eft Larba",
        "children": [
            
        ]
    },
    {
        "geonameId": 2507734,
        "name": "A\u00eft Lerzel",
        "children": [
            
        ]
    },
    {
        "geonameId": 2507731,
        "name": "A\u00eft Mahiou",
        "children": [
            
        ]
    },
    {
        "geonameId": 2507730,
        "name": "A\u00eft Malek",
        "children": [
            
        ]
    },
    {
        "geonameId": 2507729,
        "name": "A\u00eft Mannsour",
        "children": [
            
        ]
    },
    {
        "geonameId": 2507728,
        "name": "A\u00eft Mellal",
        "children": [
            
        ]
    },
    {
        "geonameId": 2507725,
        "name": "A\u00eft Meraou",
        "children": [
            
        ]
    },
    {
        "geonameId": 2507723,
        "name": "A\u00eft Mimoun",
        "children": [
            
        ]
    },
    {
        "geonameId": 2507722,
        "name": "A\u00eft Misla\u00efn",
        "children": [
            
        ]
    },
    {
        "geonameId": 2507716,
        "name": "A\u00eft Ouanech",
        "children": [
            
        ]
    },
    {
        "geonameId": 2507715,
        "name": "A\u00eft Ouhalane",
        "children": [
            
        ]
    },
    {
        "geonameId": 2507709,
        "name": "A\u00eft Raouna",
        "children": [
            
        ]
    },
    {
        "geonameId": 2507707,
        "name": "A\u00eft Saada",
        "children": [
            
        ]
    },
    {
        "geonameId": 2507705,
        "name": "A\u00eft Sa\u00efd",
        "children": [
            
        ]
    },
    {
        "geonameId": 2507703,
        "name": "A\u00eft Sa\u00efd Ou Zeggane",
        "children": [
            
        ]
    },
    {
        "geonameId": 2507702,
        "name": "A\u00eft Sellam",
        "children": [
            
        ]
    },
    {
        "geonameId": 2507696,
        "name": "A\u00eft Temouchene",
        "children": [
            
        ]
    },
    {
        "geonameId": 2507695,
        "name": "A\u00eft Yahia Youssef",
        "children": [
            
        ]
    },
    {
        "geonameId": 2507694,
        "name": "A\u00eft Ya\u00efch",
        "children": [
            
        ]
    },
    {
        "geonameId": 2507693,
        "name": "A\u00eft Za\u00efm",
        "children": [
            
        ]
    },
    {
        "geonameId": 2507692,
        "name": "A\u00eft Zellal",
        "children": [
            
        ]
    },
    {
        "geonameId": 2507690,
        "name": "A\u00eft Ziri",
        "children": [
            
        ]
    },
    {
        "geonameId": 2507756,
        "name": "A\u00eft el Mannsour",
        "children": [
            
        ]
    },
    {
        "geonameId": 2507761,
        "name": "A\u00eft el \u2019Az\u00eez",
        "children": [
            
        ]
    },
    {
        "geonameId": 2505062,
        "name": "Bel Resli",
        "children": [
            
        ]
    },
    {
        "geonameId": 2504703,
        "name": "Beni Douala",
        "children": [
            
        ]
    },
    {
        "geonameId": 2504641,
        "name": "Beni Mahmoud",
        "children": [
            
        ]
    },
    {
        "geonameId": 2504599,
        "name": "Beni Ou \u2019Ammar",
        "children": [
            
        ]
    },
    {
        "geonameId": 2504569,
        "name": "Beni Sellam",
        "children": [
            
        ]
    },
    {
        "geonameId": 2504557,
        "name": "Beni Soula",
        "children": [
            
        ]
    },
    {
        "geonameId": 2504168,
        "name": "Berka\u00efs",
        "children": [
            
        ]
    },
    {
        "geonameId": 2503802,
        "name": "Bizarga",
        "children": [
            
        ]
    },
    {
        "geonameId": 2503755,
        "name": "Boghni",
        "children": [
            
        ]
    },
    {
        "geonameId": 2503563,
        "name": "Bou Adda",
        "children": [
            
        ]
    },
    {
        "geonameId": 2503474,
        "name": "Bou Aoun",
        "children": [
            
        ]
    },
    {
        "geonameId": 2502868,
        "name": "Bou Khalfa",
        "children": [
            
        ]
    },
    {
        "geonameId": 2502565,
        "name": "Bou Nouh",
        "children": [
            
        ]
    },
    {
        "geonameId": 2502384,
        "name": "Bou Saada",
        "children": [
            
        ]
    },
    {
        "geonameId": 2502303,
        "name": "Bou Souar",
        "children": [
            
        ]
    },
    {
        "geonameId": 2503237,
        "name": "Boudjima",
        "children": [
            
        ]
    },
    {
        "geonameId": 2501522,
        "name": "Chellata",
        "children": [
            
        ]
    },
    {
        "geonameId": 2501508,
        "name": "Chemini",
        "children": [
            
        ]
    },
    {
        "geonameId": 2501345,
        "name": "Cheurfa el Bahloul",
        "children": [
            
        ]
    },
    {
        "geonameId": 2500278,
        "name": "Djama-n- Saharidj",
        "children": [
            
        ]
    },
    {
        "geonameId": 2497747,
        "name": "El Ma Guechtoum",
        "children": [
            
        ]
    },
    {
        "geonameId": 2497201,
        "name": "Erdjaouna Techt",
        "children": [
            
        ]
    },
    {
        "geonameId": 2497202,
        "name": "Erdjaouna el Bour",
        "children": [
            
        ]
    },
    {
        "geonameId": 2496990,
        "name": "Et Tissael",
        "children": [
            
        ]
    },
    {
        "geonameId": 2496611,
        "name": "Feldene",
        "children": [
            
        ]
    },
    {
        "geonameId": 2496241,
        "name": "Freha",
        "children": [
            
        ]
    },
    {
        "geonameId": 2494759,
        "name": "Halouane",
        "children": [
            
        ]
    },
    {
        "geonameId": 2571544,
        "name": "Haouch Ben Touil",
        "children": [
            
        ]
    },
    {
        "geonameId": 2493640,
        "name": "Iferhounene",
        "children": [
            
        ]
    },
    {
        "geonameId": 2493629,
        "name": "Ifigha",
        "children": [
            
        ]
    },
    {
        "geonameId": 2493626,
        "name": "Iflissen",
        "children": [
            
        ]
    },
    {
        "geonameId": 2493605,
        "name": "Ighram",
        "children": [
            
        ]
    },
    {
        "geonameId": 2493591,
        "name": "Igounane \u2019Amer",
        "children": [
            
        ]
    },
    {
        "geonameId": 2493562,
        "name": "Ihassanene-n-A\u00eft Isaad",
        "children": [
            
        ]
    },
    {
        "geonameId": 2493131,
        "name": "Irha\u00efn",
        "children": [
            
        ]
    },
    {
        "geonameId": 2493116,
        "name": "Irhil Bou Anou",
        "children": [
            
        ]
    },
    {
        "geonameId": 2493101,
        "name": "Irhil Khelil",
        "children": [
            
        ]
    },
    {
        "geonameId": 2493090,
        "name": "Irhil Oumessed",
        "children": [
            
        ]
    },
    {
        "geonameId": 2493086,
        "name": "Irhilt Keroun",
        "children": [
            
        ]
    },
    {
        "geonameId": 2493079,
        "name": "Irhzer Amokrane",
        "children": [
            
        ]
    },
    {
        "geonameId": 2492979,
        "name": "Issouane",
        "children": [
            
        ]
    },
    {
        "geonameId": 2492495,
        "name": "Kelaa",
        "children": [
            
        ]
    },
    {
        "geonameId": 2492190,
        "name": "Khahra",
        "children": [
            
        ]
    },
    {
        "geonameId": 2492045,
        "name": "Kharrouch",
        "children": [
            
        ]
    },
    {
        "geonameId": 2491621,
        "name": "Klaa",
        "children": [
            
        ]
    },
    {
        "geonameId": 2491042,
        "name": "L\u2019Arbaa Na\u00eft Irathen",
        "children": [
            
        ]
    },
    {
        "geonameId": 2488865,
        "name": "Mechtras",
        "children": [
            
        ]
    },
    {
        "geonameId": 2488500,
        "name": "Mekla",
        "children": [
            
        ]
    },
    {
        "geonameId": 2485877,
        "name": "Ouadhia",
        "children": [
            
        ]
    },
    {
        "geonameId": 2485374,
        "name": "Oulad Amarou Zeggane",
        "children": [
            
        ]
    },
    {
        "geonameId": 2484407,
        "name": "Oumzizou",
        "children": [
            
        ]
    },
    {
        "geonameId": 2483617,
        "name": "Renndoussa",
        "children": [
            
        ]
    },
    {
        "geonameId": 2482610,
        "name": "Sahel",
        "children": [
            {
                "geonameId": 2507700,
                "name": "A\u00eft Sidi Amar Ou el Hadj",
                "children": [
                    
                ]
            }
        ]
    },
    {
        "geonameId": 2481882,
        "name": "Semaoun",
        "children": [
            
        ]
    },
    {
        "geonameId": 2481108,
        "name": "Sidi Ali Moussa",
        "children": [
            
        ]
    },
    {
        "geonameId": 2479591,
        "name": "Sikh Ou Meddour",
        "children": [
            
        ]
    },
    {
        "geonameId": 2479308,
        "name": "Souama",
        "children": [
            
        ]
    },
    {
        "geonameId": 2479207,
        "name": "Souk el Arba",
        "children": [
            
        ]
    },
    {
        "geonameId": 2478975,
        "name": "Tablablat",
        "children": [
            
        ]
    },
    {
        "geonameId": 2478966,
        "name": "Tabouda",
        "children": [
            
        ]
    },
    {
        "geonameId": 2478967,
        "name": "Tabouda",
        "children": [
            
        ]
    },
    {
        "geonameId": 2478963,
        "name": "Taboudrist",
        "children": [
            
        ]
    },
    {
        "geonameId": 2478947,
        "name": "Tachat",
        "children": [
            
        ]
    },
    {
        "geonameId": 2478911,
        "name": "Taddart Gouadda",
        "children": [
            
        ]
    },
    {
        "geonameId": 2478910,
        "name": "Tadder Nachech",
        "children": [
            
        ]
    },
    {
        "geonameId": 2478907,
        "name": "Taddert Amokhane",
        "children": [
            
        ]
    },
    {
        "geonameId": 2478905,
        "name": "Taddert Oufellah",
        "children": [
            
        ]
    },
    {
        "geonameId": 2478885,
        "name": "Tadjdiout",
        "children": [
            
        ]
    },
    {
        "geonameId": 2478745,
        "name": "Tafraout",
        "children": [
            
        ]
    },
    {
        "geonameId": 2478645,
        "name": "Taguemount el Djedid",
        "children": [
            
        ]
    },
    {
        "geonameId": 2478631,
        "name": "Taguercif",
        "children": [
            
        ]
    },
    {
        "geonameId": 2478436,
        "name": "Takhlijt",
        "children": [
            
        ]
    },
    {
        "geonameId": 2478368,
        "name": "Tala Alem",
        "children": [
            
        ]
    },
    {
        "geonameId": 2478212,
        "name": "Tamarhoucht",
        "children": [
            
        ]
    },
    {
        "geonameId": 2478045,
        "name": "Tamziouene",
        "children": [
            
        ]
    },
    {
        "geonameId": 2477903,
        "name": "Taourirt Amokrane",
        "children": [
            
        ]
    },
    {
        "geonameId": 2477891,
        "name": "Taourirt Menguellet",
        "children": [
            
        ]
    },
    {
        "geonameId": 2477887,
        "name": "Taourirt-n-Tezgui",
        "children": [
            
        ]
    },
    {
        "geonameId": 2477659,
        "name": "Tassaft",
        "children": [
            
        ]
    },
    {
        "geonameId": 2477644,
        "name": "Tasselent",
        "children": [
            
        ]
    },
    {
        "geonameId": 2477080,
        "name": "Tensa",
        "children": [
            
        ]
    },
    {
        "geonameId": 2476888,
        "name": "Tibane",
        "children": [
            
        ]
    },
    {
        "geonameId": 2476747,
        "name": "Tifezouin",
        "children": [
            
        ]
    },
    {
        "geonameId": 2476713,
        "name": "Tifrit-n-A\u00eft el Hadj",
        "children": [
            
        ]
    },
    {
        "geonameId": 2476660,
        "name": "Tigzirt",
        "children": [
            
        ]
    },
    {
        "geonameId": 2476591,
        "name": "Tikjda",
        "children": [
            
        ]
    },
    {
        "geonameId": 2476581,
        "name": "Tikoba\u00efn",
        "children": [
            
        ]
    },
    {
        "geonameId": 2476452,
        "name": "Timeliline",
        "children": [
            
        ]
    },
    {
        "geonameId": 2476396,
        "name": "Timizart",
        "children": [
            
        ]
    },
    {
        "geonameId": 2476083,
        "name": "Tinzar Laghbar",
        "children": [
            
        ]
    },
    {
        "geonameId": 2475941,
        "name": "Tirhzert",
        "children": [
            
        ]
    },
    {
        "geonameId": 2475921,
        "name": "Tirmitine",
        "children": [
            
        ]
    },
    {
        "geonameId": 2475904,
        "name": "Tirzirt-n-Boubehir",
        "children": [
            
        ]
    },
    {
        "geonameId": 2475789,
        "name": "Tizerouine",
        "children": [
            
        ]
    },
    {
        "geonameId": 2475745,
        "name": "Tizi Ourhni",
        "children": [
            
        ]
    },
    {
        "geonameId": 2475744,
        "name": "Tizi Ouzou",
        "children": [
            
        ]
    },
    {
        "geonameId": 2475740,
        "name": "Tizi Rached",
        "children": [
            
        ]
    },
    {
        "geonameId": 2571414,
        "name": "Tizi-n-Djama",
        "children": [
            
        ]
    },
    {
        "geonameId": 2475752,
        "name": "Tizi-n-Tleta",
        "children": [
            
        ]
    },
    {
        "geonameId": 2571446,
        "name": "Tizi-n\u2019Terga",
        "children": [
            
        ]
    },
    {
        "geonameId": 2475039,
        "name": "Yakouren",
        "children": [
            
        ]
    },
    {
        "geonameId": 2474681,
        "name": "Zekri",
        "children": [
            
        ]
    },
    {
        "geonameId": 2507861,
        "name": "\u2019A\u00efn Zebda",
        "children": [
            
        ]
    },
    {
        "geonameId": 2508152,
        "name": "\u2019A\u00efn el Hammam",
        "children": [
            
        ]
    }
]