[
    {
        "geonameId": 2508850,
        "name": "Adjeroud",
        "children": [
            
        ]
    },
    {
        "geonameId": 2508588,
        "name": "Aguillal",
        "children": [
            
        ]
    },
    {
        "geonameId": 2506063,
        "name": "Aza\u00efna",
        "children": [
            
        ]
    },
    {
        "geonameId": 2507868,
        "name": "A\u00efn Youcef",
        "children": [
            
        ]
    },
    {
        "geonameId": 2505860,
        "name": "Bab el Assa",
        "children": [
            
        ]
    },
    {
        "geonameId": 2505742,
        "name": "Bahlalla",
        "children": [
            
        ]
    },
    {
        "geonameId": 2496901,
        "name": "Ben Zahni",
        "children": [
            
        ]
    },
    {
        "geonameId": 2504725,
        "name": "Beni Bahdel",
        "children": [
            
        ]
    },
    {
        "geonameId": 2504680,
        "name": "Beni Hammou",
        "children": [
            
        ]
    },
    {
        "geonameId": 2504616,
        "name": "Beni Mester",
        "children": [
            
        ]
    },
    {
        "geonameId": 2504545,
        "name": "Beni Yakoub",
        "children": [
            
        ]
    },
    {
        "geonameId": 2504544,
        "name": "Beni Ya\u2019ko\u00fbb",
        "children": [
            
        ]
    },
    {
        "geonameId": 2504541,
        "name": "Beni Znassene",
        "children": [
            
        ]
    },
    {
        "geonameId": 2504385,
        "name": "Bensekrane",
        "children": [
            
        ]
    },
    {
        "geonameId": 2504184,
        "name": "Berhaoun",
        "children": [
            
        ]
    },
    {
        "geonameId": 2504151,
        "name": "Berkoussa",
        "children": [
            
        ]
    },
    {
        "geonameId": 2502826,
        "name": "Bou Khenayes",
        "children": [
            
        ]
    },
    {
        "geonameId": 2588194,
        "name": "Bou N\u2019aim",
        "children": [
            
        ]
    },
    {
        "geonameId": 2503564,
        "name": "Bou \u2019Ad\u00e2l",
        "children": [
            
        ]
    },
    {
        "geonameId": 2502047,
        "name": "Breat",
        "children": [
            
        ]
    },
    {
        "geonameId": 2501362,
        "name": "Chetouane",
        "children": [
            
        ]
    },
    {
        "geonameId": 2501196,
        "name": "Chouly",
        "children": [
            
        ]
    },
    {
        "geonameId": 2500909,
        "name": "Dar Boumediene",
        "children": [
            
        ]
    },
    {
        "geonameId": 2500846,
        "name": "Dar Mtaa el Anabra",
        "children": [
            
        ]
    },
    {
        "geonameId": 2570948,
        "name": "Dar Nasseur",
        "children": [
            
        ]
    },
    {
        "geonameId": 2500881,
        "name": "Dar el H\u00e2dj",
        "children": [
            
        ]
    },
    {
        "geonameId": 2593171,
        "name": "Dar el Yafati",
        "children": [
            
        ]
    },
    {
        "geonameId": 2500716,
        "name": "Dechera Za\u00eflou",
        "children": [
            
        ]
    },
    {
        "geonameId": 2500715,
        "name": "Decheret Taouia",
        "children": [
            
        ]
    },
    {
        "geonameId": 2500705,
        "name": "Dechret Beni Zid\u00e2z",
        "children": [
            
        ]
    },
    {
        "geonameId": 2500658,
        "name": "Deglene",
        "children": [
            
        ]
    },
    {
        "geonameId": 2500512,
        "name": "Dernam",
        "children": [
            
        ]
    },
    {
        "geonameId": 2500449,
        "name": "Diar S\u00e2lah",
        "children": [
            
        ]
    },
    {
        "geonameId": 2499535,
        "name": "Douar Akache",
        "children": [
            
        ]
    },
    {
        "geonameId": 2499534,
        "name": "Douar Ali Bel Rida",
        "children": [
            
        ]
    },
    {
        "geonameId": 2499531,
        "name": "Douar Ali ed Deba",
        "children": [
            
        ]
    },
    {
        "geonameId": 2499530,
        "name": "Douar Amiyer",
        "children": [
            
        ]
    },
    {
        "geonameId": 2499528,
        "name": "Douar Bab Tahar",
        "children": [
            
        ]
    },
    {
        "geonameId": 2499508,
        "name": "Douar Ben Smina",
        "children": [
            
        ]
    },
    {
        "geonameId": 2499517,
        "name": "Douar Beni \u2019Ach\u00eer",
        "children": [
            
        ]
    },
    {
        "geonameId": 2499506,
        "name": "Douar Bider",
        "children": [
            
        ]
    },
    {
        "geonameId": 2499500,
        "name": "Douar Bouriche",
        "children": [
            
        ]
    },
    {
        "geonameId": 2499491,
        "name": "Douar Cha\u00efb Rasso",
        "children": [
            
        ]
    },
    {
        "geonameId": 2499393,
        "name": "Douar Feddan Sellah",
        "children": [
            
        ]
    },
    {
        "geonameId": 2499381,
        "name": "Douar Hadjar Mensouk",
        "children": [
            
        ]
    },
    {
        "geonameId": 2499322,
        "name": "Douar Oulad Bachir",
        "children": [
            
        ]
    },
    {
        "geonameId": 2499316,
        "name": "Douar Oulad Bou Setta",
        "children": [
            
        ]
    },
    {
        "geonameId": 2499310,
        "name": "Douar Oulad Hammou",
        "children": [
            
        ]
    },
    {
        "geonameId": 2499308,
        "name": "Douar Oulad Mohammed Berriah",
        "children": [
            
        ]
    },
    {
        "geonameId": 2499305,
        "name": "Douar Oulad Sa\u2019\u00e2d",
        "children": [
            
        ]
    },
    {
        "geonameId": 2499297,
        "name": "Douar Oulad Slimane",
        "children": [
            
        ]
    },
    {
        "geonameId": 2499286,
        "name": "Douar Ouled Bar Hamou",
        "children": [
            
        ]
    },
    {
        "geonameId": 2499266,
        "name": "Douar Ouled Kaddo\u00fbr Asrh\u00e2r",
        "children": [
            
        ]
    },
    {
        "geonameId": 2499450,
        "name": "Douar el Bkhata",
        "children": [
            
        ]
    },
    {
        "geonameId": 2499439,
        "name": "Douar el Hadj Mohammed",
        "children": [
            
        ]
    },
    {
        "geonameId": 2499435,
        "name": "Douar el Harr\u00e2ch",
        "children": [
            
        ]
    },
    {
        "geonameId": 2499432,
        "name": "Douar el Kamra",
        "children": [
            
        ]
    },
    {
        "geonameId": 2499422,
        "name": "Douar el Kre\u00efeb",
        "children": [
            
        ]
    },
    {
        "geonameId": 2498675,
        "name": "El Aouedj",
        "children": [
            
        ]
    },
    {
        "geonameId": 2498629,
        "name": "El Aricha",
        "children": [
            
        ]
    },
    {
        "geonameId": 2498702,
        "name": "El A\u2019Nabra",
        "children": [
            
        ]
    },
    {
        "geonameId": 2570919,
        "name": "El Bet\u00e1iem",
        "children": [
            
        ]
    },
    {
        "geonameId": 2498302,
        "name": "El Gor",
        "children": [
            
        ]
    },
    {
        "geonameId": 2498336,
        "name": "El G\u2019amas",
        "children": [
            
        ]
    },
    {
        "geonameId": 2498207,
        "name": "El Haca\u00efba",
        "children": [
            
        ]
    },
    {
        "geonameId": 2498169,
        "name": "El Hadj Marnia",
        "children": [
            
        ]
    },
    {
        "geonameId": 2498141,
        "name": "El Hala\u00efba",
        "children": [
            
        ]
    },
    {
        "geonameId": 2498079,
        "name": "El Haouanet",
        "children": [
            
        ]
    },
    {
        "geonameId": 2498031,
        "name": "El Heda\u00efr",
        "children": [
            
        ]
    },
    {
        "geonameId": 2497991,
        "name": "El Kabar",
        "children": [
            
        ]
    },
    {
        "geonameId": 2497949,
        "name": "El Kelba",
        "children": [
            
        ]
    },
    {
        "geonameId": 2497948,
        "name": "El Kelssa\u00efne",
        "children": [
            
        ]
    },
    {
        "geonameId": 2497842,
        "name": "El Kolla",
        "children": [
            
        ]
    },
    {
        "geonameId": 2497817,
        "name": "El Krelafna",
        "children": [
            
        ]
    },
    {
        "geonameId": 2497176,
        "name": "Er Rabta",
        "children": [
            
        ]
    },
    {
        "geonameId": 2497106,
        "name": "Es Safr\u00e2",
        "children": [
            
        ]
    },
    {
        "geonameId": 2497104,
        "name": "Es Safs\u00e2f",
        "children": [
            
        ]
    },
    {
        "geonameId": 2497084,
        "name": "Es Sb\u00e2bna",
        "children": [
            
        ]
    },
    {
        "geonameId": 2496919,
        "name": "Ez Zen\u00e2ta",
        "children": [
            
        ]
    },
    {
        "geonameId": 2496909,
        "name": "Ez Ziatine",
        "children": [
            
        ]
    },
    {
        "geonameId": 2496042,
        "name": "Ghazaouet",
        "children": [
            
        ]
    },
    {
        "geonameId": 2495575,
        "name": "Guen\u00e2yene",
        "children": [
            
        ]
    },
    {
        "geonameId": 2494556,
        "name": "Hammam Boughrara",
        "children": [
            
        ]
    },
    {
        "geonameId": 2494283,
        "name": "Haoud Ben Youb",
        "children": [
            
        ]
    },
    {
        "geonameId": 2494015,
        "name": "Hassi Zehana",
        "children": [
            
        ]
    },
    {
        "geonameId": 2493918,
        "name": "Hennaya",
        "children": [
            
        ]
    },
    {
        "geonameId": 2493812,
        "name": "Hona\u00efne",
        "children": [
            
        ]
    },
    {
        "geonameId": 2493242,
        "name": "Inndouz",
        "children": [
            
        ]
    },
    {
        "geonameId": 2491923,
        "name": "Khemis",
        "children": [
            
        ]
    },
    {
        "geonameId": 2491102,
        "name": "Lalla Kre\u00efba",
        "children": [
            
        ]
    },
    {
        "geonameId": 2490910,
        "name": "Le Kef",
        "children": [
            
        ]
    },
    {
        "geonameId": 2490676,
        "name": "Maaziz",
        "children": [
            
        ]
    },
    {
        "geonameId": 2490585,
        "name": "Magdad",
        "children": [
            
        ]
    },
    {
        "geonameId": 2490584,
        "name": "Maghnia",
        "children": [
            
        ]
    },
    {
        "geonameId": 2490577,
        "name": "Magoura",
        "children": [
            
        ]
    },
    {
        "geonameId": 2490183,
        "name": "Manso\u00fbra",
        "children": [
            
        ]
    },
    {
        "geonameId": 2490106,
        "name": "Marsa Ben Mehidi",
        "children": [
            
        ]
    },
    {
        "geonameId": 2588148,
        "name": "Mazra\u2019at Mohammed Salah",
        "children": [
            
        ]
    },
    {
        "geonameId": 2489977,
        "name": "Mazzer",
        "children": [
            
        ]
    },
    {
        "geonameId": 2488669,
        "name": "Mehada",
        "children": [
            
        ]
    },
    {
        "geonameId": 2487862,
        "name": "Merrika",
        "children": [
            
        ]
    },
    {
        "geonameId": 2487319,
        "name": "Ml\u00eelia",
        "children": [
            
        ]
    },
    {
        "geonameId": 2486376,
        "name": "Namlou",
        "children": [
            
        ]
    },
    {
        "geonameId": 2486284,
        "name": "Nedroma",
        "children": [
            
        ]
    },
    {
        "geonameId": 2485881,
        "name": "Ouada",
        "children": [
            
        ]
    },
    {
        "geonameId": 2485399,
        "name": "Oulad Ali",
        "children": [
            
        ]
    },
    {
        "geonameId": 2485378,
        "name": "Oulad Amar",
        "children": [
            
        ]
    },
    {
        "geonameId": 2485373,
        "name": "Oulad Ameur",
        "children": [
            
        ]
    },
    {
        "geonameId": 2485351,
        "name": "Oulad Bel Kassem",
        "children": [
            
        ]
    },
    {
        "geonameId": 2485344,
        "name": "Oulad Ben Ayad",
        "children": [
            
        ]
    },
    {
        "geonameId": 2485334,
        "name": "Oulad Berraba",
        "children": [
            
        ]
    },
    {
        "geonameId": 2485333,
        "name": "Oulad Berrhama",
        "children": [
            
        ]
    },
    {
        "geonameId": 2485310,
        "name": "Oulad Breouch",
        "children": [
            
        ]
    },
    {
        "geonameId": 2485302,
        "name": "Oulad Cher\u00eef",
        "children": [
            
        ]
    },
    {
        "geonameId": 2485261,
        "name": "Oulad Hamamou",
        "children": [
            
        ]
    },
    {
        "geonameId": 2485223,
        "name": "Oulad Malek",
        "children": [
            
        ]
    },
    {
        "geonameId": 2484837,
        "name": "Oulad Moussa",
        "children": [
            
        ]
    },
    {
        "geonameId": 2485169,
        "name": "Oulad Ralem",
        "children": [
            
        ]
    },
    {
        "geonameId": 2485157,
        "name": "Oulad Salah",
        "children": [
            
        ]
    },
    {
        "geonameId": 2485129,
        "name": "Oulad Sidi el Abed",
        "children": [
            
        ]
    },
    {
        "geonameId": 2485079,
        "name": "Oulad Ziri",
        "children": [
            
        ]
    },
    {
        "geonameId": 2485291,
        "name": "Oulad el Abbes",
        "children": [
            
        ]
    },
    {
        "geonameId": 2485289,
        "name": "Oulad el Adassi",
        "children": [
            
        ]
    },
    {
        "geonameId": 2485269,
        "name": "Oulad es Souaber",
        "children": [
            
        ]
    },
    {
        "geonameId": 2484973,
        "name": "Ouled Ben Sa\u2019\u00efd",
        "children": [
            
        ]
    },
    {
        "geonameId": 2484962,
        "name": "Ouled Bou Hamida",
        "children": [
            
        ]
    },
    {
        "geonameId": 2484958,
        "name": "Ouled Bouya\u2019ko\u00fbb",
        "children": [
            
        ]
    },
    {
        "geonameId": 2484946,
        "name": "Ouled Chabane",
        "children": [
            
        ]
    },
    {
        "geonameId": 2484886,
        "name": "Ouled Hammed",
        "children": [
            
        ]
    },
    {
        "geonameId": 2484846,
        "name": "Ouled Mimoun",
        "children": [
            
        ]
    },
    {
        "geonameId": 2484840,
        "name": "Ouled Mohammed Bouya\u2019ko\u00fbb",
        "children": [
            
        ]
    },
    {
        "geonameId": 2484819,
        "name": "Ouled Rihana",
        "children": [
            
        ]
    },
    {
        "geonameId": 2484786,
        "name": "Ouled Sidi Mohammed el Hemyani",
        "children": [
            
        ]
    },
    {
        "geonameId": 2484902,
        "name": "Ouled el Ho\u00fb\u00e2ri",
        "children": [
            
        ]
    },
    {
        "geonameId": 2484916,
        "name": "Ouled el \u2019Arbi",
        "children": [
            
        ]
    },
    {
        "geonameId": 2484644,
        "name": "Oum el \u2019Alou",
        "children": [
            
        ]
    },
    {
        "geonameId": 2484236,
        "name": "Ouzidane",
        "children": [
            
        ]
    },
    {
        "geonameId": 2484195,
        "name": "Plage de Sidna Youcha",
        "children": [
            
        ]
    },
    {
        "geonameId": 2570461,
        "name": "Pont de L'Lsser",
        "children": [
            
        ]
    },
    {
        "geonameId": 2483721,
        "name": "Rehamna",
        "children": [
            
        ]
    },
    {
        "geonameId": 2483649,
        "name": "Remchi",
        "children": [
            
        ]
    },
    {
        "geonameId": 2483433,
        "name": "Rhar Madene",
        "children": [
            
        ]
    },
    {
        "geonameId": 2483425,
        "name": "Rhar Roubane",
        "children": [
            
        ]
    },
    {
        "geonameId": 2482736,
        "name": "Sabra",
        "children": [
            
        ]
    },
    {
        "geonameId": 2482211,
        "name": "Sebdou",
        "children": [
            
        ]
    },
    {
        "geonameId": 2481683,
        "name": "Settout",
        "children": [
            
        ]
    },
    {
        "geonameId": 2481604,
        "name": "Sidi Abdallah",
        "children": [
            
        ]
    },
    {
        "geonameId": 2481389,
        "name": "Sidi Abdelli",
        "children": [
            
        ]
    },
    {
        "geonameId": 2481096,
        "name": "Sidi Amar",
        "children": [
            
        ]
    },
    {
        "geonameId": 2480939,
        "name": "Sidi Ben Diaf",
        "children": [
            
        ]
    },
    {
        "geonameId": 2480795,
        "name": "Sidi Bo\u00fb Mediene",
        "children": [
            
        ]
    },
    {
        "geonameId": 2480634,
        "name": "Sidi Djilali",
        "children": [
            
        ]
    },
    {
        "geonameId": 2480480,
        "name": "Sidi Embarek",
        "children": [
            
        ]
    },
    {
        "geonameId": 2480601,
        "name": "Sidi Larbi",
        "children": [
            
        ]
    },
    {
        "geonameId": 2480213,
        "name": "Sidi Medjahed",
        "children": [
            
        ]
    },
    {
        "geonameId": 2479882,
        "name": "Sidi Rahmoun",
        "children": [
            
        ]
    },
    {
        "geonameId": 2570973,
        "name": "Sidi Yahia",
        "children": [
            
        ]
    },
    {
        "geonameId": 2479317,
        "name": "Souahlia",
        "children": [
            
        ]
    },
    {
        "geonameId": 2478861,
        "name": "Tadjera",
        "children": [
            
        ]
    },
    {
        "geonameId": 2478771,
        "name": "Taffessera",
        "children": [
            
        ]
    },
    {
        "geonameId": 2478594,
        "name": "Tahar",
        "children": [
            
        ]
    },
    {
        "geonameId": 2478561,
        "name": "Tahdariat",
        "children": [
            
        ]
    },
    {
        "geonameId": 2477713,
        "name": "Tarnana",
        "children": [
            
        ]
    },
    {
        "geonameId": 2477447,
        "name": "Tebouchkourt",
        "children": [
            
        ]
    },
    {
        "geonameId": 2477019,
        "name": "Terni Beni Hadiel",
        "children": [
            
        ]
    },
    {
        "geonameId": 2476768,
        "name": "Tiennt",
        "children": [
            
        ]
    },
    {
        "geonameId": 2475874,
        "name": "Tisrar",
        "children": [
            
        ]
    },
    {
        "geonameId": 2475687,
        "name": "Tlemcen",
        "children": [
            
        ]
    },
    {
        "geonameId": 2475681,
        "name": "Tleta",
        "children": [
            
        ]
    },
    {
        "geonameId": 2475020,
        "name": "Yebdar",
        "children": [
            
        ]
    },
    {
        "geonameId": 2474951,
        "name": "Zahra",
        "children": [
            
        ]
    },
    {
        "geonameId": 2474917,
        "name": "Zalboun",
        "children": [
            
        ]
    },
    {
        "geonameId": 2474231,
        "name": "Zoudj el Beghal",
        "children": [
            
        ]
    },
    {
        "geonameId": 2508091,
        "name": "\u2019A\u00efn Fezza",
        "children": [
            
        ]
    },
    {
        "geonameId": 2507905,
        "name": "\u2019A\u00efn Tekbalet",
        "children": [
            
        ]
    },
    {
        "geonameId": 2507903,
        "name": "\u2019A\u00efn Tellout",
        "children": [
            
        ]
    },
    {
        "geonameId": 2508161,
        "name": "\u2019A\u00efn el Hadjar",
        "children": [
            
        ]
    },
    {
        "geonameId": 2508146,
        "name": "\u2019A\u00efn el Ho\u00fbt",
        "children": [
            
        ]
    },
    {
        "geonameId": 2485728,
        "name": "\u2019Ouchba",
        "children": [
            
        ]
    }
]