[
    {
        "geonameId": 2509214,
        "name": "Abdallah Ou Amar",
        "children": [
            
        ]
    },
    {
        "geonameId": 2573246,
        "name": "Aboucha",
        "children": [
            
        ]
    },
    {
        "geonameId": 2508990,
        "name": "Achem",
        "children": [
            
        ]
    },
    {
        "geonameId": 2508818,
        "name": "Adouia",
        "children": [
            
        ]
    },
    {
        "geonameId": 2508770,
        "name": "Afedj",
        "children": [
            
        ]
    },
    {
        "geonameId": 2508427,
        "name": "Ahmer el \u2019A\u00efn",
        "children": [
            
        ]
    },
    {
        "geonameId": 2506964,
        "name": "Annza Absa",
        "children": [
            
        ]
    },
    {
        "geonameId": 2506098,
        "name": "Attatba",
        "children": [
            
        ]
    },
    {
        "geonameId": 2572973,
        "name": "Azouna",
        "children": [
            
        ]
    },
    {
        "geonameId": 2505870,
        "name": "Baba Ali",
        "children": [
            
        ]
    },
    {
        "geonameId": 2505865,
        "name": "Baba Hassen",
        "children": [
            
        ]
    },
    {
        "geonameId": 2573241,
        "name": "Bahla",
        "children": [
            
        ]
    },
    {
        "geonameId": 2505707,
        "name": "Bains Romains",
        "children": [
            
        ]
    },
    {
        "geonameId": 2505653,
        "name": "Baraki",
        "children": [
            
        ]
    },
    {
        "geonameId": 2505708,
        "name": "Ba\u00efnem Falaise",
        "children": [
            
        ]
    },
    {
        "geonameId": 2505094,
        "name": "Bel Lezhar",
        "children": [
            
        ]
    },
    {
        "geonameId": 2573242,
        "name": "Belahcene",
        "children": [
            
        ]
    },
    {
        "geonameId": 2505100,
        "name": "Bellevue",
        "children": [
            
        ]
    },
    {
        "geonameId": 2504934,
        "name": "Ben Chabane",
        "children": [
            
        ]
    },
    {
        "geonameId": 2504445,
        "name": "Ben Nessah",
        "children": [
            
        ]
    },
    {
        "geonameId": 2504397,
        "name": "Ben Salah",
        "children": [
            
        ]
    },
    {
        "geonameId": 2505015,
        "name": "Ben \u2019Akno\u00fbn",
        "children": [
            
        ]
    },
    {
        "geonameId": 2504749,
        "name": "Beni Abdi",
        "children": [
            
        ]
    },
    {
        "geonameId": 2504717,
        "name": "Beni Bou Atmane",
        "children": [
            
        ]
    },
    {
        "geonameId": 2504718,
        "name": "Beni Bou A\u00efch",
        "children": [
            
        ]
    },
    {
        "geonameId": 2504715,
        "name": "Beni Bouhelf",
        "children": [
            
        ]
    },
    {
        "geonameId": 2504414,
        "name": "Beni Rhazi",
        "children": [
            
        ]
    },
    {
        "geonameId": 2504550,
        "name": "Beni Toka\u00ef",
        "children": [
            
        ]
    },
    {
        "geonameId": 2504452,
        "name": "Benndou",
        "children": [
            
        ]
    },
    {
        "geonameId": 2504234,
        "name": "Berbessa",
        "children": [
            
        ]
    },
    {
        "geonameId": 2503829,
        "name": "Birtouta",
        "children": [
            
        ]
    },
    {
        "geonameId": 2503778,
        "name": "Bled es Sahel",
        "children": [
            
        ]
    },
    {
        "geonameId": 2503746,
        "name": "Bois Sacr\u00e9",
        "children": [
            
        ]
    },
    {
        "geonameId": 2503643,
        "name": "Bordj Malek",
        "children": [
            
        ]
    },
    {
        "geonameId": 2503473,
        "name": "Bou Arara",
        "children": [
            
        ]
    },
    {
        "geonameId": 2503459,
        "name": "Bou Aroua",
        "children": [
            
        ]
    },
    {
        "geonameId": 2503433,
        "name": "Bou Aziza",
        "children": [
            
        ]
    },
    {
        "geonameId": 2503020,
        "name": "Bou Haroun",
        "children": [
            
        ]
    },
    {
        "geonameId": 2502939,
        "name": "Bou Isma\u00efl",
        "children": [
            
        ]
    },
    {
        "geonameId": 2502820,
        "name": "Bou Kherrouba",
        "children": [
            
        ]
    },
    {
        "geonameId": 2502403,
        "name": "Bou Roumi",
        "children": [
            
        ]
    },
    {
        "geonameId": 2502207,
        "name": "Bou Yahia",
        "children": [
            
        ]
    },
    {
        "geonameId": 2573250,
        "name": "Bouhlou",
        "children": [
            
        ]
    },
    {
        "geonameId": 2573053,
        "name": "Bouibaouene",
        "children": [
            
        ]
    },
    {
        "geonameId": 2572959,
        "name": "Boukhidja",
        "children": [
            
        ]
    },
    {
        "geonameId": 2502702,
        "name": "Bouma\u2019chouk",
        "children": [
            
        ]
    },
    {
        "geonameId": 2502438,
        "name": "Bourkika",
        "children": [
            
        ]
    },
    {
        "geonameId": 2504244,
        "name": "B\u00e9rard",
        "children": [
            
        ]
    },
    {
        "geonameId": 2501818,
        "name": "Cha\u00efba",
        "children": [
            
        ]
    },
    {
        "geonameId": 2501465,
        "name": "Cheraga",
        "children": [
            
        ]
    },
    {
        "geonameId": 2501466,
        "name": "Cheraga",
        "children": [
            
        ]
    },
    {
        "geonameId": 2501440,
        "name": "Cherchell",
        "children": [
            
        ]
    },
    {
        "geonameId": 2501324,
        "name": "Chifalo",
        "children": [
            
        ]
    },
    {
        "geonameId": 2573245,
        "name": "Choula",
        "children": [
            
        ]
    },
    {
        "geonameId": 2489532,
        "name": "Cit\u00e9 Ibela\u00efdene",
        "children": [
            
        ]
    },
    {
        "geonameId": 2501168,
        "name": "Clos Bakir",
        "children": [
            
        ]
    },
    {
        "geonameId": 2592670,
        "name": "Club des Pins",
        "children": [
            
        ]
    },
    {
        "geonameId": 2500592,
        "name": "Deli Ibrahim",
        "children": [
            
        ]
    },
    {
        "geonameId": 2490865,
        "name": "Deux Moulins",
        "children": [
            
        ]
    },
    {
        "geonameId": 2500268,
        "name": "Djaouti",
        "children": [
            
        ]
    },
    {
        "geonameId": 2499555,
        "name": "Douaouda",
        "children": [
            
        ]
    },
    {
        "geonameId": 2499553,
        "name": "Douaouda-Les Bains",
        "children": [
            
        ]
    },
    {
        "geonameId": 2505449,
        "name": "Douar Abahri",
        "children": [
            
        ]
    },
    {
        "geonameId": 2572968,
        "name": "Douar Arbal",
        "children": [
            
        ]
    },
    {
        "geonameId": 2572936,
        "name": "Douar Bel Afia",
        "children": [
            
        ]
    },
    {
        "geonameId": 2572990,
        "name": "Douar Beni Ali",
        "children": [
            
        ]
    },
    {
        "geonameId": 2572969,
        "name": "Douar Beni A\u00efrour",
        "children": [
            
        ]
    },
    {
        "geonameId": 2572988,
        "name": "Douar Beni Freh",
        "children": [
            
        ]
    },
    {
        "geonameId": 2504604,
        "name": "Douar Beni M\u2019Safer",
        "children": [
            
        ]
    },
    {
        "geonameId": 2572970,
        "name": "Douar Beni Nadour",
        "children": [
            
        ]
    },
    {
        "geonameId": 2572937,
        "name": "Douar Beni Ouarkchene",
        "children": [
            
        ]
    },
    {
        "geonameId": 2499497,
        "name": "Douar Bou Ziy\u00e2ne",
        "children": [
            
        ]
    },
    {
        "geonameId": 2573082,
        "name": "Douar Bouakhra",
        "children": [
            
        ]
    },
    {
        "geonameId": 2572980,
        "name": "Douar Bouankouda",
        "children": [
            
        ]
    },
    {
        "geonameId": 2573040,
        "name": "Douar Bounamane",
        "children": [
            
        ]
    },
    {
        "geonameId": 7514405,
        "name": "Douar Hdaoua",
        "children": [
            
        ]
    },
    {
        "geonameId": 2572994,
        "name": "Douar Iachoura\u00efne",
        "children": [
            
        ]
    },
    {
        "geonameId": 2572975,
        "name": "Douar Ibela\u00efdene",
        "children": [
            
        ]
    },
    {
        "geonameId": 2573009,
        "name": "Douar Ibouamama\u00efne",
        "children": [
            
        ]
    },
    {
        "geonameId": 2573096,
        "name": "Douar Ikorchiyene",
        "children": [
            
        ]
    },
    {
        "geonameId": 2573033,
        "name": "Douar Imelhayene",
        "children": [
            
        ]
    },
    {
        "geonameId": 2573065,
        "name": "Douar Irsene",
        "children": [
            
        ]
    },
    {
        "geonameId": 2573014,
        "name": "Douar Iynayene",
        "children": [
            
        ]
    },
    {
        "geonameId": 2572920,
        "name": "Douar Kalifain",
        "children": [
            
        ]
    },
    {
        "geonameId": 2592675,
        "name": "Douar Mansour",
        "children": [
            
        ]
    },
    {
        "geonameId": 2573061,
        "name": "Douar Molchtari Oussedou",
        "children": [
            
        ]
    },
    {
        "geonameId": 2572982,
        "name": "Douar Mouafak",
        "children": [
            
        ]
    },
    {
        "geonameId": 7512527,
        "name": "Douar Moussa",
        "children": [
            
        ]
    },
    {
        "geonameId": 2573020,
        "name": "Douar M\u2019Haba",
        "children": [
            
        ]
    },
    {
        "geonameId": 2572967,
        "name": "Douar Nora\u00efa",
        "children": [
            
        ]
    },
    {
        "geonameId": 2572974,
        "name": "Douar Sadouna",
        "children": [
            
        ]
    },
    {
        "geonameId": 2572978,
        "name": "Douar Sidi Barkouk",
        "children": [
            
        ]
    },
    {
        "geonameId": 2573010,
        "name": "Douar Sidi Barkouk",
        "children": [
            
        ]
    },
    {
        "geonameId": 2480980,
        "name": "Douar Sidi Belkacem",
        "children": [
            
        ]
    },
    {
        "geonameId": 2572997,
        "name": "Douar Sidi Yahia",
        "children": [
            
        ]
    },
    {
        "geonameId": 2573071,
        "name": "Douar Ta\u00efbi",
        "children": [
            
        ]
    },
    {
        "geonameId": 2573051,
        "name": "Douar Tizardheth",
        "children": [
            
        ]
    },
    {
        "geonameId": 2499434,
        "name": "Douar el Hassasna",
        "children": [
            
        ]
    },
    {
        "geonameId": 2573066,
        "name": "Douar el Kolla",
        "children": [
            
        ]
    },
    {
        "geonameId": 2499420,
        "name": "Douar el M\u00e2\u2019a\u00efef",
        "children": [
            
        ]
    },
    {
        "geonameId": 2499406,
        "name": "Douar el Z\u2019Atria",
        "children": [
            
        ]
    },
    {
        "geonameId": 2499193,
        "name": "Douera",
        "children": [
            
        ]
    },
    {
        "geonameId": 2499061,
        "name": "Draria",
        "children": [
            
        ]
    },
    {
        "geonameId": 2498765,
        "name": "El Achour",
        "children": [
            
        ]
    },
    {
        "geonameId": 2498752,
        "name": "El Affroun",
        "children": [
            
        ]
    },
    {
        "geonameId": 2498435,
        "name": "El Djamila",
        "children": [
            
        ]
    },
    {
        "geonameId": 2498037,
        "name": "El Hattatba",
        "children": [
            
        ]
    },
    {
        "geonameId": 2572995,
        "name": "El Kalla",
        "children": [
            
        ]
    },
    {
        "geonameId": 2497938,
        "name": "El Keriat",
        "children": [
            
        ]
    },
    {
        "geonameId": 2573267,
        "name": "El Mokhfi",
        "children": [
            
        ]
    },
    {
        "geonameId": 2497445,
        "name": "El Msene",
        "children": [
            
        ]
    },
    {
        "geonameId": 2496374,
        "name": "Fontaine du G\u00e9nie",
        "children": [
            
        ]
    },
    {
        "geonameId": 2496331,
        "name": "Fouka",
        "children": [
            
        ]
    },
    {
        "geonameId": 2496329,
        "name": "Fouka Marine",
        "children": [
            
        ]
    },
    {
        "geonameId": 2495921,
        "name": "Gouraya",
        "children": [
            
        ]
    },
    {
        "geonameId": 7512540,
        "name": "Habiche",
        "children": [
            
        ]
    },
    {
        "geonameId": 2494962,
        "name": "Hadjout",
        "children": [
            
        ]
    },
    {
        "geonameId": 2592666,
        "name": "Hadjret en No\u00fbss",
        "children": [
            
        ]
    },
    {
        "geonameId": 2494515,
        "name": "Hammouda\u00efne",
        "children": [
            
        ]
    },
    {
        "geonameId": 2494303,
        "name": "Haouch Ben Taraha",
        "children": [
            
        ]
    },
    {
        "geonameId": 2592674,
        "name": "Haouch ben Daouin",
        "children": [
            
        ]
    },
    {
        "geonameId": 2494937,
        "name": "H\u00e2dj Ya\u2019ko\u00fbb",
        "children": [
            
        ]
    },
    {
        "geonameId": 2493353,
        "name": "Imsad",
        "children": [
            
        ]
    },
    {
        "geonameId": 2493071,
        "name": "Iril Yer",
        "children": [
            
        ]
    },
    {
        "geonameId": 2491653,
        "name": "Khraicia",
        "children": [
            
        ]
    },
    {
        "geonameId": 2491578,
        "name": "Kolea",
        "children": [
            
        ]
    },
    {
        "geonameId": 2490993,
        "name": "La Trappe",
        "children": [
            
        ]
    },
    {
        "geonameId": 2475078,
        "name": "Larhat",
        "children": [
            
        ]
    },
    {
        "geonameId": 2491018,
        "name": "Lari Larhat",
        "children": [
            
        ]
    },
    {
        "geonameId": 2491013,
        "name": "Lari Ou Melzi",
        "children": [
            
        ]
    },
    {
        "geonameId": 2490928,
        "name": "Le Gu\u00e9 de Constantine",
        "children": [
            
        ]
    },
    {
        "geonameId": 2490856,
        "name": "Les Horizons Bleus",
        "children": [
            
        ]
    },
    {
        "geonameId": 2490847,
        "name": "Les Quatre Chemins",
        "children": [
            
        ]
    },
    {
        "geonameId": 2490845,
        "name": "Les Rosiers",
        "children": [
            
        ]
    },
    {
        "geonameId": 2490844,
        "name": "Les Sables d\u2019Or",
        "children": [
            
        ]
    },
    {
        "geonameId": 2490459,
        "name": "Mahelma",
        "children": [
            
        ]
    },
    {
        "geonameId": 2490370,
        "name": "Maison Blanche",
        "children": [
            
        ]
    },
    {
        "geonameId": 2490162,
        "name": "Marabcha",
        "children": [
            
        ]
    },
    {
        "geonameId": 2490012,
        "name": "Mayeur",
        "children": [
            
        ]
    },
    {
        "geonameId": 2489180,
        "name": "Mechta Tardet",
        "children": [
            
        ]
    },
    {
        "geonameId": 2572944,
        "name": "Mechtita",
        "children": [
            
        ]
    },
    {
        "geonameId": 2488189,
        "name": "Menaceur",
        "children": [
            
        ]
    },
    {
        "geonameId": 2488058,
        "name": "Merad",
        "children": [
            
        ]
    },
    {
        "geonameId": 2487750,
        "name": "Messaoud",
        "children": [
            
        ]
    },
    {
        "geonameId": 2487709,
        "name": "Messelmoun",
        "children": [
            
        ]
    },
    {
        "geonameId": 2592667,
        "name": "Messlmo\u00fbn",
        "children": [
            
        ]
    },
    {
        "geonameId": 2487276,
        "name": "Mohammed Ben el Mouloud",
        "children": [
            
        ]
    },
    {
        "geonameId": 2487194,
        "name": "Monfroid Zonca",
        "children": [
            
        ]
    },
    {
        "geonameId": 2573056,
        "name": "Mouarhou",
        "children": [
            
        ]
    },
    {
        "geonameId": 2486825,
        "name": "Mouza\u00efa",
        "children": [
            
        ]
    },
    {
        "geonameId": 2486214,
        "name": "Nessassha",
        "children": [
            
        ]
    },
    {
        "geonameId": 2486192,
        "name": "Neurkache",
        "children": [
            
        ]
    },
    {
        "geonameId": 2486492,
        "name": "N\u00e2d\u00f4r",
        "children": [
            
        ]
    },
    {
        "geonameId": 2573240,
        "name": "Ouakli",
        "children": [
            
        ]
    },
    {
        "geonameId": 2573100,
        "name": "Oued Sebt",
        "children": [
            
        ]
    },
    {
        "geonameId": 2485573,
        "name": "Oued Sidi Slimane",
        "children": [
            
        ]
    },
    {
        "geonameId": 2485633,
        "name": "Oued el Alleug",
        "children": [
            
        ]
    },
    {
        "geonameId": 2592671,
        "name": "Oulad Sidi Mohammed",
        "children": [
            
        ]
    },
    {
        "geonameId": 2485286,
        "name": "Oulad el Badji",
        "children": [
            
        ]
    },
    {
        "geonameId": 2484996,
        "name": "Ouled Bel Hadj",
        "children": [
            
        ]
    },
    {
        "geonameId": 2484979,
        "name": "Ouled Beni Messous",
        "children": [
            {
                "geonameId": 2482943,
                "name": "Rostomia",
                "children": [
                    
                ]
            }
        ]
    },
    {
        "geonameId": 2484894,
        "name": "Ouled Fayet",
        "children": [
            
        ]
    },
    {
        "geonameId": 2484849,
        "name": "Ouled Mend\u00eel Rhraba",
        "children": [
            
        ]
    },
    {
        "geonameId": 2572986,
        "name": "Ouled Mokhtar",
        "children": [
            
        ]
    },
    {
        "geonameId": 2484218,
        "name": "Palm Beach",
        "children": [
            
        ]
    },
    {
        "geonameId": 2484193,
        "name": "Plage Moretti",
        "children": [
            
        ]
    },
    {
        "geonameId": 2484187,
        "name": "Pointe Pescade",
        "children": [
            
        ]
    },
    {
        "geonameId": 2484083,
        "name": "Rahmenia",
        "children": [
            
        ]
    },
    {
        "geonameId": 2483986,
        "name": "Rardous",
        "children": [
            
        ]
    },
    {
        "geonameId": 2482495,
        "name": "Saint-Maurice",
        "children": [
            
        ]
    },
    {
        "geonameId": 2482390,
        "name": "Saoula",
        "children": [
            
        ]
    },
    {
        "geonameId": 2482482,
        "name": "Sa\u00efrher",
        "children": [
            
        ]
    },
    {
        "geonameId": 2481305,
        "name": "Sidi Ahmed Bel Hassene",
        "children": [
            
        ]
    },
    {
        "geonameId": 2481095,
        "name": "Sidi Amar",
        "children": [
            
        ]
    },
    {
        "geonameId": 2592676,
        "name": "Sidi Amar",
        "children": [
            
        ]
    },
    {
        "geonameId": 2480454,
        "name": "Sidi Ferruch",
        "children": [
            
        ]
    },
    {
        "geonameId": 2480447,
        "name": "Sidi Ghiles",
        "children": [
            
        ]
    },
    {
        "geonameId": 2479889,
        "name": "Sidi Rached",
        "children": [
            
        ]
    },
    {
        "geonameId": 2479238,
        "name": "Souidania",
        "children": [
            
        ]
    },
    {
        "geonameId": 2479361,
        "name": "Soulaya",
        "children": [
            
        ]
    },
    {
        "geonameId": 2479099,
        "name": "Staoueli",
        "children": [
            
        ]
    },
    {
        "geonameId": 2478991,
        "name": "Taberkouk",
        "children": [
            
        ]
    },
    {
        "geonameId": 2592673,
        "name": "Tagourait",
        "children": [
            
        ]
    },
    {
        "geonameId": 2478321,
        "name": "Tala Oursou",
        "children": [
            
        ]
    },
    {
        "geonameId": 2478096,
        "name": "Tamezla\u00eft",
        "children": [
            
        ]
    },
    {
        "geonameId": 2477873,
        "name": "Taoutat",
        "children": [
            
        ]
    },
    {
        "geonameId": 2477551,
        "name": "Tazrout",
        "children": [
            
        ]
    },
    {
        "geonameId": 2477379,
        "name": "Tefeschoun",
        "children": [
            
        ]
    },
    {
        "geonameId": 2477278,
        "name": "Tekteka",
        "children": [
            
        ]
    },
    {
        "geonameId": 2573265,
        "name": "Timerdjanine",
        "children": [
            
        ]
    },
    {
        "geonameId": 2476028,
        "name": "Tipasa",
        "children": [
            
        ]
    },
    {
        "geonameId": 2475759,
        "name": "Tizi Meblaf",
        "children": [
            
        ]
    },
    {
        "geonameId": 7514411,
        "name": "Zadra Ihosnien",
        "children": [
            
        ]
    },
    {
        "geonameId": 7514412,
        "name": "Zadra Klilich",
        "children": [
            
        ]
    },
    {
        "geonameId": 2474873,
        "name": "Zaouia Serombak",
        "children": [
            
        ]
    },
    {
        "geonameId": 2474583,
        "name": "Zeralda",
        "children": [
            
        ]
    },
    {
        "geonameId": 2572977,
        "name": "Zrouka",
        "children": [
            
        ]
    },
    {
        "geonameId": 2508275,
        "name": "\u2019A\u00efn Benian",
        "children": [
            
        ]
    },
    {
        "geonameId": 2508256,
        "name": "\u2019A\u00efn Bou Ziane",
        "children": [
            
        ]
    },
    {
        "geonameId": 2508017,
        "name": "\u2019A\u00efn Marmora",
        "children": [
            
        ]
    }
]