[
    {
        "geonameId": 2509176,
        "name": "Abdelmoumen",
        "children": [
            
        ]
    },
    {
        "geonameId": 2508585,
        "name": "Ahach",
        "children": [
            
        ]
    },
    {
        "geonameId": 2573463,
        "name": "Ain Baadj",
        "children": [
            
        ]
    },
    {
        "geonameId": 2508164,
        "name": "Ain el Hadid",
        "children": [
            
        ]
    },
    {
        "geonameId": 2508068,
        "name": "A\u00efn Kaddour Ben Larbi",
        "children": [
            
        ]
    },
    {
        "geonameId": 2573472,
        "name": "A\u00efn Kerma",
        "children": [
            
        ]
    },
    {
        "geonameId": 2578541,
        "name": "A\u00efn Saffah",
        "children": [
            
        ]
    },
    {
        "geonameId": 2573473,
        "name": "A\u00efn el Be\u00efda",
        "children": [
            
        ]
    },
    {
        "geonameId": 2508168,
        "name": "A\u00efn el Fritissa",
        "children": [
            
        ]
    },
    {
        "geonameId": 2508113,
        "name": "A\u00efn es Sa\u00efd",
        "children": [
            
        ]
    },
    {
        "geonameId": 2505732,
        "name": "Bahra",
        "children": [
            
        ]
    },
    {
        "geonameId": 2505311,
        "name": "Bekhata",
        "children": [
            
        ]
    },
    {
        "geonameId": 2505173,
        "name": "Bel Haouari",
        "children": [
            
        ]
    },
    {
        "geonameId": 2578141,
        "name": "Ben Amara",
        "children": [
            
        ]
    },
    {
        "geonameId": 7468820,
        "name": "Ben Nirane",
        "children": [
            
        ]
    },
    {
        "geonameId": 2577463,
        "name": "Beni Ouendjel",
        "children": [
            
        ]
    },
    {
        "geonameId": 2503697,
        "name": "Bordj Bou Harket",
        "children": [
            
        ]
    },
    {
        "geonameId": 2573488,
        "name": "Borj el Kradra",
        "children": [
            
        ]
    },
    {
        "geonameId": 2503351,
        "name": "Bou Chenafa",
        "children": [
            
        ]
    },
    {
        "geonameId": 2573534,
        "name": "Bou Loual",
        "children": [
            
        ]
    },
    {
        "geonameId": 7491625,
        "name": "Bou Mouader",
        "children": [
            
        ]
    },
    {
        "geonameId": 2573533,
        "name": "Bou Tagga",
        "children": [
            
        ]
    },
    {
        "geonameId": 2502570,
        "name": "Bounoual",
        "children": [
            
        ]
    },
    {
        "geonameId": 2502433,
        "name": "Bourlier",
        "children": [
            
        ]
    },
    {
        "geonameId": 2502128,
        "name": "Bouziane",
        "children": [
            
        ]
    },
    {
        "geonameId": 7469603,
        "name": "Cit\u00e9 Ouled Aoune",
        "children": [
            
        ]
    },
    {
        "geonameId": 7468803,
        "name": "Cit\u00e9 el Guercha",
        "children": [
            
        ]
    },
    {
        "geonameId": 2501089,
        "name": "Dahmouni",
        "children": [
            
        ]
    },
    {
        "geonameId": 7443132,
        "name": "Dar Aied Naasse",
        "children": [
            
        ]
    },
    {
        "geonameId": 2500915,
        "name": "Dar Ben Chahra",
        "children": [
            
        ]
    },
    {
        "geonameId": 2500914,
        "name": "Dar Ben Chohra",
        "children": [
            
        ]
    },
    {
        "geonameId": 7468837,
        "name": "Dar el Aoudja",
        "children": [
            
        ]
    },
    {
        "geonameId": 7838650,
        "name": "Djebilet Rosfa",
        "children": [
            
        ]
    },
    {
        "geonameId": 2499695,
        "name": "Djilali Ben Anane",
        "children": [
            
        ]
    },
    {
        "geonameId": 7491700,
        "name": "Doaur Ain Merzoug",
        "children": [
            
        ]
    },
    {
        "geonameId": 7491633,
        "name": "Doaur Alouane",
        "children": [
            
        ]
    },
    {
        "geonameId": 2505290,
        "name": "Douar Bel Abd Ennour",
        "children": [
            
        ]
    },
    {
        "geonameId": 2577896,
        "name": "Douar Ben Halima",
        "children": [
            
        ]
    },
    {
        "geonameId": 2577863,
        "name": "Douar Ben Ouhchia",
        "children": [
            
        ]
    },
    {
        "geonameId": 2482921,
        "name": "Douar Bou Ghoufala",
        "children": [
            
        ]
    },
    {
        "geonameId": 2578529,
        "name": "Douar Bou Khaloua",
        "children": [
            
        ]
    },
    {
        "geonameId": 2578581,
        "name": "Douar Bouka\u00e2ben",
        "children": [
            
        ]
    },
    {
        "geonameId": 7468906,
        "name": "Douar Douchebba",
        "children": [
            
        ]
    },
    {
        "geonameId": 7491654,
        "name": "Douar Hadj Khelifa",
        "children": [
            
        ]
    },
    {
        "geonameId": 7491781,
        "name": "Douar Kamkam",
        "children": [
            
        ]
    },
    {
        "geonameId": 2577770,
        "name": "Douar Laghraba",
        "children": [
            
        ]
    },
    {
        "geonameId": 7491698,
        "name": "Douar Mguesba",
        "children": [
            
        ]
    },
    {
        "geonameId": 7491766,
        "name": "Douar Ouled Abed",
        "children": [
            
        ]
    },
    {
        "geonameId": 2485372,
        "name": "Douar Ouled Amar",
        "children": [
            
        ]
    },
    {
        "geonameId": 2485407,
        "name": "Douar Ouled A\u00efssa",
        "children": [
            
        ]
    },
    {
        "geonameId": 2578444,
        "name": "Douar Ouled Hallouf",
        "children": [
            
        ]
    },
    {
        "geonameId": 2578162,
        "name": "Douar Ouled Lakhdar",
        "children": [
            
        ]
    },
    {
        "geonameId": 2485204,
        "name": "Douar Ouled Mimoun",
        "children": [
            
        ]
    },
    {
        "geonameId": 2578521,
        "name": "Douar Ouled Mohamed",
        "children": [
            
        ]
    },
    {
        "geonameId": 2485122,
        "name": "Douar Ouled Sidi Muhammad",
        "children": [
            
        ]
    },
    {
        "geonameId": 2578490,
        "name": "Douar Ouled Sidi Yahia",
        "children": [
            
        ]
    },
    {
        "geonameId": 2485557,
        "name": "Douar Ouled Thlatha",
        "children": [
            
        ]
    },
    {
        "geonameId": 2577390,
        "name": "Douar Ouled Yahia",
        "children": [
            
        ]
    },
    {
        "geonameId": 2485265,
        "name": "Douar Ouled el Hadj",
        "children": [
            
        ]
    },
    {
        "geonameId": 2482310,
        "name": "Douar Sbiba",
        "children": [
            
        ]
    },
    {
        "geonameId": 2578532,
        "name": "Douar Sidi Ahmed Ben Ali",
        "children": [
            
        ]
    },
    {
        "geonameId": 7491748,
        "name": "Douar Sna\u00efs",
        "children": [
            
        ]
    },
    {
        "geonameId": 7468856,
        "name": "Douar Tazakka",
        "children": [
            
        ]
    },
    {
        "geonameId": 2577267,
        "name": "Douar el Abidat",
        "children": [
            
        ]
    },
    {
        "geonameId": 2578435,
        "name": "Douar el Assa\u00eflia",
        "children": [
            
        ]
    },
    {
        "geonameId": 2578463,
        "name": "Douar el Fosha",
        "children": [
            
        ]
    },
    {
        "geonameId": 2577392,
        "name": "Douar el Guercha",
        "children": [
            
        ]
    },
    {
        "geonameId": 2578370,
        "name": "Douar el Khellala",
        "children": [
            
        ]
    },
    {
        "geonameId": 2578390,
        "name": "Douar el Klib",
        "children": [
            
        ]
    },
    {
        "geonameId": 7469596,
        "name": "Douar el Krab\u00efa",
        "children": [
            
        ]
    },
    {
        "geonameId": 7491796,
        "name": "Douar el Mazla",
        "children": [
            
        ]
    },
    {
        "geonameId": 2497523,
        "name": "Douar el Meza\u00efnia",
        "children": [
            
        ]
    },
    {
        "geonameId": 2578094,
        "name": "Douar el Mfatih",
        "children": [
            
        ]
    },
    {
        "geonameId": 2577846,
        "name": "Douar ez Zouala",
        "children": [
            
        ]
    },
    {
        "geonameId": 7468853,
        "name": "El Agba",
        "children": [
            
        ]
    },
    {
        "geonameId": 7469610,
        "name": "El Argoub",
        "children": [
            
        ]
    },
    {
        "geonameId": 2578965,
        "name": "El Ariga",
        "children": [
            
        ]
    },
    {
        "geonameId": 7468872,
        "name": "El Bettam",
        "children": [
            
        ]
    },
    {
        "geonameId": 2498422,
        "name": "El Djenane",
        "children": [
            
        ]
    },
    {
        "geonameId": 2578379,
        "name": "El Ghouata",
        "children": [
            
        ]
    },
    {
        "geonameId": 2498300,
        "name": "El Gora",
        "children": [
            
        ]
    },
    {
        "geonameId": 2578377,
        "name": "El Graouia",
        "children": [
            
        ]
    },
    {
        "geonameId": 2578496,
        "name": "El Hamri",
        "children": [
            
        ]
    },
    {
        "geonameId": 2498038,
        "name": "El Hatatba",
        "children": [
            
        ]
    },
    {
        "geonameId": 2578344,
        "name": "El Kedadra",
        "children": [
            
        ]
    },
    {
        "geonameId": 2498921,
        "name": "El Matmour",
        "children": [
            
        ]
    },
    {
        "geonameId": 2577720,
        "name": "El Ma\u00e2izia",
        "children": [
            
        ]
    },
    {
        "geonameId": 2578966,
        "name": "El Mela\u00e2b",
        "children": [
            
        ]
    },
    {
        "geonameId": 2578577,
        "name": "El Meza\u00efnia",
        "children": [
            
        ]
    },
    {
        "geonameId": 2485195,
        "name": "El Mssatfa",
        "children": [
            
        ]
    },
    {
        "geonameId": 2497441,
        "name": "El Mzili",
        "children": [
            
        ]
    },
    {
        "geonameId": 2593173,
        "name": "El Rhoualem",
        "children": [
            
        ]
    },
    {
        "geonameId": 7468858,
        "name": "Es Souik",
        "children": [
            
        ]
    },
    {
        "geonameId": 2578585,
        "name": "Et Touahria",
        "children": [
            
        ]
    },
    {
        "geonameId": 2496838,
        "name": "Faidherbe",
        "children": [
            
        ]
    },
    {
        "geonameId": 2496673,
        "name": "Fedoul",
        "children": [
            
        ]
    },
    {
        "geonameId": 2496274,
        "name": "Foussa",
        "children": [
            
        ]
    },
    {
        "geonameId": 2496232,
        "name": "Frenda",
        "children": [
            
        ]
    },
    {
        "geonameId": 7491674,
        "name": "Fritissa",
        "children": [
            
        ]
    },
    {
        "geonameId": 2483536,
        "name": "Ghabet Aouda",
        "children": [
            
        ]
    },
    {
        "geonameId": 7491631,
        "name": "Ghorraf Deries",
        "children": [
            
        ]
    },
    {
        "geonameId": 2578894,
        "name": "Guercha Bouaziz",
        "children": [
            
        ]
    },
    {
        "geonameId": 7441590,
        "name": "Guernini",
        "children": [
            
        ]
    },
    {
        "geonameId": 2495407,
        "name": "Guertoufa",
        "children": [
            
        ]
    },
    {
        "geonameId": 2494743,
        "name": "Hamadia",
        "children": [
            
        ]
    },
    {
        "geonameId": 7447016,
        "name": "Hassi Fedoul",
        "children": [
            
        ]
    },
    {
        "geonameId": 2492879,
        "name": "Kaddour Bel Hadj",
        "children": [
            
        ]
    },
    {
        "geonameId": 2492866,
        "name": "Kadri Messadi",
        "children": [
            
        ]
    },
    {
        "geonameId": 2492374,
        "name": "Kercha",
        "children": [
            
        ]
    },
    {
        "geonameId": 7441591,
        "name": "Kobbi el Mograne",
        "children": [
            
        ]
    },
    {
        "geonameId": 7491678,
        "name": "Kra Ouled Adda",
        "children": [
            
        ]
    },
    {
        "geonameId": 2491336,
        "name": "Ksar Ben Hammad",
        "children": [
            
        ]
    },
    {
        "geonameId": 2491335,
        "name": "Ksar Chellala",
        "children": [
            
        ]
    },
    {
        "geonameId": 2498637,
        "name": "Machtat el Argoub",
        "children": [
            
        ]
    },
    {
        "geonameId": 7491675,
        "name": "Matmar Labiad",
        "children": [
            
        ]
    },
    {
        "geonameId": 2477662,
        "name": "Matmar Tassa",
        "children": [
            
        ]
    },
    {
        "geonameId": 2489868,
        "name": "Mecheraa Asfa",
        "children": [
            
        ]
    },
    {
        "geonameId": 2489565,
        "name": "Mechtat Gouchgal",
        "children": [
            
        ]
    },
    {
        "geonameId": 2489213,
        "name": "Mechtat Smadene",
        "children": [
            
        ]
    },
    {
        "geonameId": 2578519,
        "name": "Medina",
        "children": [
            
        ]
    },
    {
        "geonameId": 2488742,
        "name": "Medrissa",
        "children": [
            
        ]
    },
    {
        "geonameId": 2488736,
        "name": "Medroussa",
        "children": [
            
        ]
    },
    {
        "geonameId": 2488616,
        "name": "Mehdia",
        "children": [
            
        ]
    },
    {
        "geonameId": 2488525,
        "name": "Mekheref",
        "children": [
            
        ]
    },
    {
        "geonameId": 2488242,
        "name": "Mellakou",
        "children": [
            
        ]
    },
    {
        "geonameId": 7491689,
        "name": "Meriem Bent Allel",
        "children": [
            
        ]
    },
    {
        "geonameId": 7491636,
        "name": "Metameur",
        "children": [
            
        ]
    },
    {
        "geonameId": 2487654,
        "name": "Metameur Ben Hadjela",
        "children": [
            
        ]
    },
    {
        "geonameId": 2487653,
        "name": "Metameur Dehalsa",
        "children": [
            
        ]
    },
    {
        "geonameId": 2487649,
        "name": "Metameur Oulad Tami",
        "children": [
            
        ]
    },
    {
        "geonameId": 7491728,
        "name": "Metameur Ouled Ben Hamou",
        "children": [
            
        ]
    },
    {
        "geonameId": 2487651,
        "name": "Metameur es Soualem",
        "children": [
            
        ]
    },
    {
        "geonameId": 2486901,
        "name": "Moulguelouane",
        "children": [
            
        ]
    },
    {
        "geonameId": 2494031,
        "name": "M\u2019Kimene",
        "children": [
            
        ]
    },
    {
        "geonameId": 2486113,
        "name": "Nouasseur",
        "children": [
            
        ]
    },
    {
        "geonameId": 2485599,
        "name": "Oued Lili",
        "children": [
            
        ]
    },
    {
        "geonameId": 2485343,
        "name": "Oulad Ben Cha\u00efb",
        "children": [
            
        ]
    },
    {
        "geonameId": 2485197,
        "name": "Oulad Mokhtar",
        "children": [
            
        ]
    },
    {
        "geonameId": 2485283,
        "name": "Oulad el Hadj",
        "children": [
            
        ]
    },
    {
        "geonameId": 2485277,
        "name": "Oulad el Merhraoui",
        "children": [
            
        ]
    },
    {
        "geonameId": 7468859,
        "name": "Ouled Ali",
        "children": [
            
        ]
    },
    {
        "geonameId": 2485007,
        "name": "Ouled Attia",
        "children": [
            
        ]
    },
    {
        "geonameId": 2578464,
        "name": "Ouled Bakhlifa",
        "children": [
            
        ]
    },
    {
        "geonameId": 2577300,
        "name": "Ouled Hammou",
        "children": [
            
        ]
    },
    {
        "geonameId": 7491724,
        "name": "Ouled Kh\u2019Lafa",
        "children": [
            
        ]
    },
    {
        "geonameId": 2485361,
        "name": "Ouled Othamna",
        "children": [
            
        ]
    },
    {
        "geonameId": 2484815,
        "name": "Ouled Sa\u00efd",
        "children": [
            
        ]
    },
    {
        "geonameId": 2577727,
        "name": "Ouled Sidi Yahia",
        "children": [
            
        ]
    },
    {
        "geonameId": 2485147,
        "name": "Ouled Snoussi",
        "children": [
            
        ]
    },
    {
        "geonameId": 2578287,
        "name": "Ouled Tessa",
        "children": [
            
        ]
    },
    {
        "geonameId": 2578470,
        "name": "Ouled Zaoui",
        "children": [
            
        ]
    },
    {
        "geonameId": 2484904,
        "name": "Ouled el Hadj Kaddour",
        "children": [
            
        ]
    },
    {
        "geonameId": 2484602,
        "name": "Oum el Guetouta",
        "children": [
            
        ]
    },
    {
        "geonameId": 7491804,
        "name": "Ouriache",
        "children": [
            
        ]
    },
    {
        "geonameId": 2484078,
        "name": "Rahouia",
        "children": [
            
        ]
    },
    {
        "geonameId": 2483827,
        "name": "Recha\u00efga",
        "children": [
            
        ]
    },
    {
        "geonameId": 7468807,
        "name": "Regdad",
        "children": [
            
        ]
    },
    {
        "geonameId": 2483719,
        "name": "Rehegragui",
        "children": [
            
        ]
    },
    {
        "geonameId": 2483320,
        "name": "Rherbali Hadj Abed",
        "children": [
            
        ]
    },
    {
        "geonameId": 2482935,
        "name": "Roua\u00efha",
        "children": [
            
        ]
    },
    {
        "geonameId": 2483974,
        "name": "R\u00e2s el \u2019A\u00efn",
        "children": [
            
        ]
    },
    {
        "geonameId": 2482238,
        "name": "Seba\u00efn A\u00efoun",
        "children": [
            
        ]
    },
    {
        "geonameId": 7491774,
        "name": "Serget Lihoudi",
        "children": [
            
        ]
    },
    {
        "geonameId": 2578524,
        "name": "Sidi Allal",
        "children": [
            
        ]
    },
    {
        "geonameId": 2578561,
        "name": "Sidi Bakhti",
        "children": [
            
        ]
    },
    {
        "geonameId": 2573531,
        "name": "Sidi Bou Keder",
        "children": [
            
        ]
    },
    {
        "geonameId": 2480395,
        "name": "Sidi Hosni",
        "children": [
            
        ]
    },
    {
        "geonameId": 2577724,
        "name": "Sidi Nour Eddine",
        "children": [
            
        ]
    },
    {
        "geonameId": 2573509,
        "name": "Sidi Yahia",
        "children": [
            
        ]
    },
    {
        "geonameId": 2479523,
        "name": "Sla\u00efm",
        "children": [
            
        ]
    },
    {
        "geonameId": 2479247,
        "name": "Sougueur",
        "children": [
            
        ]
    },
    {
        "geonameId": 2479204,
        "name": "Souk el Had",
        "children": [
            
        ]
    },
    {
        "geonameId": 2478707,
        "name": "Tagdempt",
        "children": [
            
        ]
    },
    {
        "geonameId": 2478623,
        "name": "Taguine",
        "children": [
            
        ]
    },
    {
        "geonameId": 2478666,
        "name": "Takhemaret",
        "children": [
            
        ]
    },
    {
        "geonameId": 7468857,
        "name": "Takhemaret el Balia",
        "children": [
            
        ]
    },
    {
        "geonameId": 2477880,
        "name": "Taoughazout",
        "children": [
            
        ]
    },
    {
        "geonameId": 2477666,
        "name": "Taslemt",
        "children": [
            
        ]
    },
    {
        "geonameId": 2477199,
        "name": "Temda",
        "children": [
            
        ]
    },
    {
        "geonameId": 2477020,
        "name": "Ternanech",
        "children": [
            
        ]
    },
    {
        "geonameId": 2476897,
        "name": "Tiaret",
        "children": [
            
        ]
    },
    {
        "geonameId": 2475382,
        "name": "Touilat",
        "children": [
            
        ]
    },
    {
        "geonameId": 2475257,
        "name": "Tousnina",
        "children": [
            
        ]
    },
    {
        "geonameId": 2474874,
        "name": "Zaouia Oulad Sidi Adda",
        "children": [
            
        ]
    },
    {
        "geonameId": 2474884,
        "name": "Zaou\u00efa",
        "children": [
            
        ]
    },
    {
        "geonameId": 2474828,
        "name": "Zaroura",
        "children": [
            
        ]
    },
    {
        "geonameId": 7468864,
        "name": "Zeribet Ben Brahim",
        "children": [
            
        ]
    },
    {
        "geonameId": 2508225,
        "name": "\u2019A\u00efn Deheb",
        "children": [
            
        ]
    },
    {
        "geonameId": 2508213,
        "name": "\u2019A\u00efn Dzarit",
        "children": [
            
        ]
    },
    {
        "geonameId": 2508049,
        "name": "\u2019A\u00efn Kermes",
        "children": [
            
        ]
    },
    {
        "geonameId": 2507991,
        "name": "\u2019A\u00efn Mzira",
        "children": [
            
        ]
    },
    {
        "geonameId": 2507981,
        "name": "\u2019A\u00efn Oueba",
        "children": [
            
        ]
    },
    {
        "geonameId": 2507931,
        "name": "\u2019A\u00efn Sidi Ali",
        "children": [
            
        ]
    },
    {
        "geonameId": 2507884,
        "name": "\u2019A\u00efn Touhala",
        "children": [
            
        ]
    },
    {
        "geonameId": 2507883,
        "name": "\u2019A\u00efn Touhalla",
        "children": [
            
        ]
    },
    {
        "geonameId": 2508185,
        "name": "\u2019A\u00efn el Be\u00efda",
        "children": [
            
        ]
    },
    {
        "geonameId": 2508171,
        "name": "\u2019A\u00efn el Boualek",
        "children": [
            
        ]
    },
    {
        "geonameId": 2508118,
        "name": "\u2019A\u00efn en Nef",
        "children": [
            
        ]
    },
    {
        "geonameId": 2508116,
        "name": "\u2019A\u00efn er Rouina",
        "children": [
            
        ]
    },
    {
        "geonameId": 2508104,
        "name": "\u2019A\u00efn ez Ze\u00efate",
        "children": [
            
        ]
    }
]