[
    {
        "geonameId": 2506811,
        "name": "Aouinet el Mora",
        "children": [
            
        ]
    },
    {
        "geonameId": 2505308,
        "name": "Bekkaria",
        "children": [
            
        ]
    },
    {
        "geonameId": 2503845,
        "name": "Bir Khenafis",
        "children": [
            
        ]
    },
    {
        "geonameId": 2503836,
        "name": "Bir Salem",
        "children": [
            
        ]
    },
    {
        "geonameId": 2589457,
        "name": "Bir Zlas",
        "children": [
            
        ]
    },
    {
        "geonameId": 2503878,
        "name": "Bir el Ater",
        "children": [
            
        ]
    },
    {
        "geonameId": 2503867,
        "name": "Bir el M\u2019Kaddem",
        "children": [
            
        ]
    },
    {
        "geonameId": 2503680,
        "name": "Bordj du Ca\u00efd",
        "children": [
            
        ]
    },
    {
        "geonameId": 2503676,
        "name": "Bordj du Ca\u00efd Ahmed Lakhdar",
        "children": [
            
        ]
    },
    {
        "geonameId": 2502875,
        "name": "Bou Khadra",
        "children": [
            
        ]
    },
    {
        "geonameId": 2501404,
        "name": "Cheria",
        "children": [
            
        ]
    },
    {
        "geonameId": 2500193,
        "name": "Djebel Onk",
        "children": [
            
        ]
    },
    {
        "geonameId": 2499725,
        "name": "Djeurf",
        "children": [
            
        ]
    },
    {
        "geonameId": 2499251,
        "name": "Douar Ouled Sidi Mannsour",
        "children": [
            
        ]
    },
    {
        "geonameId": 2498725,
        "name": "El Alaouinia",
        "children": [
            
        ]
    },
    {
        "geonameId": 2498393,
        "name": "El Euch",
        "children": [
            
        ]
    },
    {
        "geonameId": 2498378,
        "name": "El Fedj",
        "children": [
            
        ]
    },
    {
        "geonameId": 2497825,
        "name": "El Kouif",
        "children": [
            
        ]
    },
    {
        "geonameId": 2589495,
        "name": "El Ma el Abiod",
        "children": [
            
        ]
    },
    {
        "geonameId": 2497578,
        "name": "El Merarhdia",
        "children": [
            
        ]
    },
    {
        "geonameId": 2497559,
        "name": "El Meridj",
        "children": [
            
        ]
    },
    {
        "geonameId": 2497553,
        "name": "El Mermoutsia",
        "children": [
            
        ]
    },
    {
        "geonameId": 2497521,
        "name": "El Mezeraa",
        "children": [
            
        ]
    },
    {
        "geonameId": 2496703,
        "name": "Fedj ed Dedjal",
        "children": [
            
        ]
    },
    {
        "geonameId": 2496509,
        "name": "Ferkane",
        "children": [
            
        ]
    },
    {
        "geonameId": 2494548,
        "name": "Hammamet",
        "children": [
            
        ]
    },
    {
        "geonameId": 2493906,
        "name": "Hennchir Bel Frouts",
        "children": [
            
        ]
    },
    {
        "geonameId": 2490250,
        "name": "Ksar Malek",
        "children": [
            
        ]
    },
    {
        "geonameId": 2491231,
        "name": "Laabedna",
        "children": [
            
        ]
    },
    {
        "geonameId": 2489775,
        "name": "Mechta Aouachria",
        "children": [
            
        ]
    },
    {
        "geonameId": 2489753,
        "name": "Mechta Bekakchia",
        "children": [
            
        ]
    },
    {
        "geonameId": 2489727,
        "name": "Mechta Ben Meriem",
        "children": [
            
        ]
    },
    {
        "geonameId": 2489656,
        "name": "Mechta Chaacha el Ghorira",
        "children": [
            
        ]
    },
    {
        "geonameId": 2489606,
        "name": "Mechta Djefafli",
        "children": [
            
        ]
    },
    {
        "geonameId": 2489599,
        "name": "Mechta Djghatchia",
        "children": [
            
        ]
    },
    {
        "geonameId": 2489473,
        "name": "Mechta Lemsaada",
        "children": [
            
        ]
    },
    {
        "geonameId": 2489432,
        "name": "Mechta Mohammed Ben Bouzid",
        "children": [
            
        ]
    },
    {
        "geonameId": 2489431,
        "name": "Mechta Mohammed Larbi",
        "children": [
            
        ]
    },
    {
        "geonameId": 2489407,
        "name": "Mechta Oulad Boulasbaa",
        "children": [
            
        ]
    },
    {
        "geonameId": 2489404,
        "name": "Mechta Oulad Dif",
        "children": [
            
        ]
    },
    {
        "geonameId": 2489397,
        "name": "Mechta Oulad Khalifa",
        "children": [
            
        ]
    },
    {
        "geonameId": 2489392,
        "name": "Mechta Oulad Mohammed",
        "children": [
            
        ]
    },
    {
        "geonameId": 2489389,
        "name": "Mechta Oulad Nasseur",
        "children": [
            
        ]
    },
    {
        "geonameId": 2489383,
        "name": "Mechta Oulad Saad",
        "children": [
            
        ]
    },
    {
        "geonameId": 2489382,
        "name": "Mechta Oulad Sa\u00efd",
        "children": [
            
        ]
    },
    {
        "geonameId": 2489369,
        "name": "Mechta Ouled Abd el Aziz",
        "children": [
            
        ]
    },
    {
        "geonameId": 2489364,
        "name": "Mechta Ouled Ahmed",
        "children": [
            
        ]
    },
    {
        "geonameId": 2489358,
        "name": "Mechta Ouled Aou\u00e2di",
        "children": [
            
        ]
    },
    {
        "geonameId": 2489349,
        "name": "Mechta Ouled Boua\u00efla",
        "children": [
            
        ]
    },
    {
        "geonameId": 2489339,
        "name": "Mechta Ouled Dehimi",
        "children": [
            
        ]
    },
    {
        "geonameId": 2489323,
        "name": "Mechta Ouled Melloul",
        "children": [
            
        ]
    },
    {
        "geonameId": 2489322,
        "name": "Mechta Ouled Messaoud",
        "children": [
            
        ]
    },
    {
        "geonameId": 2489315,
        "name": "Mechta Ouled Saad",
        "children": [
            
        ]
    },
    {
        "geonameId": 2489311,
        "name": "Mechta Ouled Sediane",
        "children": [
            
        ]
    },
    {
        "geonameId": 2489214,
        "name": "Mechta Smaala",
        "children": [
            
        ]
    },
    {
        "geonameId": 2489209,
        "name": "Mechta Soltane",
        "children": [
            
        ]
    },
    {
        "geonameId": 2489593,
        "name": "Mechta ech Cherfa",
        "children": [
            
        ]
    },
    {
        "geonameId": 2489585,
        "name": "Mechta el Oussera",
        "children": [
            
        ]
    },
    {
        "geonameId": 2489170,
        "name": "Mechtat Ben Falia",
        "children": [
            
        ]
    },
    {
        "geonameId": 2489169,
        "name": "Mechtat Ben Khedim",
        "children": [
            
        ]
    },
    {
        "geonameId": 2489173,
        "name": "Mechtat Benarfa",
        "children": [
            
        ]
    },
    {
        "geonameId": 2489168,
        "name": "Mechtat Bir Chtathia",
        "children": [
            
        ]
    },
    {
        "geonameId": 2489163,
        "name": "Mechtat Dakhli",
        "children": [
            
        ]
    },
    {
        "geonameId": 2489161,
        "name": "Mechtat Deba\u00efb el Alfa",
        "children": [
            
        ]
    },
    {
        "geonameId": 2489013,
        "name": "Mechtat Haouach Raa\u00ef",
        "children": [
            
        ]
    },
    {
        "geonameId": 2488999,
        "name": "Mechtat Khechine",
        "children": [
            
        ]
    },
    {
        "geonameId": 2488997,
        "name": "Mechtat Meharzia",
        "children": [
            
        ]
    },
    {
        "geonameId": 2488993,
        "name": "Mechtat Oulad el Hadj",
        "children": [
            
        ]
    },
    {
        "geonameId": 2488984,
        "name": "Mechtat Ouled Hamza",
        "children": [
            
        ]
    },
    {
        "geonameId": 2488983,
        "name": "Mechtat Ouled Kheir",
        "children": [
            
        ]
    },
    {
        "geonameId": 2488981,
        "name": "Mechtat Ouled Salah",
        "children": [
            
        ]
    },
    {
        "geonameId": 2488985,
        "name": "Mechtat Ouled ez Zoua\u00efria",
        "children": [
            
        ]
    },
    {
        "geonameId": 2488964,
        "name": "Mechtat Soua\u00efdia",
        "children": [
            
        ]
    },
    {
        "geonameId": 2488959,
        "name": "Mechtat Torchane",
        "children": [
            
        ]
    },
    {
        "geonameId": 2488958,
        "name": "Mechtat Torrich",
        "children": [
            
        ]
    },
    {
        "geonameId": 2488957,
        "name": "Mechtat Toualbia",
        "children": [
            
        ]
    },
    {
        "geonameId": 2489155,
        "name": "Mechtat ech Chaacha",
        "children": [
            
        ]
    },
    {
        "geonameId": 2489124,
        "name": "Mechtat el Bahachia",
        "children": [
            
        ]
    },
    {
        "geonameId": 2489052,
        "name": "Mechtat el Meharzia",
        "children": [
            
        ]
    },
    {
        "geonameId": 2489022,
        "name": "Mechtat er Rouis",
        "children": [
            
        ]
    },
    {
        "geonameId": 2487144,
        "name": "Morsott",
        "children": [
            
        ]
    },
    {
        "geonameId": 2589456,
        "name": "Nagu\u00eas",
        "children": [
            
        ]
    },
    {
        "geonameId": 2486265,
        "name": "Negrine",
        "children": [
            
        ]
    },
    {
        "geonameId": 2485967,
        "name": "Oglat Oulad Mahboub",
        "children": [
            
        ]
    },
    {
        "geonameId": 2485540,
        "name": "Ouenza",
        "children": [
            
        ]
    },
    {
        "geonameId": 2589493,
        "name": "Oulad Bou Aziz",
        "children": [
            
        ]
    },
    {
        "geonameId": 2484853,
        "name": "Ouled Mehania",
        "children": [
            
        ]
    },
    {
        "geonameId": 2484723,
        "name": "Oum Ali",
        "children": [
            
        ]
    },
    {
        "geonameId": 2483969,
        "name": "R\u00e2s el A\u00efoun",
        "children": [
            
        ]
    },
    {
        "geonameId": 2482317,
        "name": "Sbe\u00efkia",
        "children": [
            
        ]
    },
    {
        "geonameId": 2481892,
        "name": "Selsla",
        "children": [
            
        ]
    },
    {
        "geonameId": 2479818,
        "name": "Sidi Salem",
        "children": [
            
        ]
    },
    {
        "geonameId": 2477571,
        "name": "Tazbent",
        "children": [
            
        ]
    },
    {
        "geonameId": 2475666,
        "name": "Tlidjen",
        "children": [
            
        ]
    },
    {
        "geonameId": 2477461,
        "name": "T\u00e9bessa",
        "children": [
            
        ]
    },
    {
        "geonameId": 2475002,
        "name": "Youkous",
        "children": [
            
        ]
    },
    {
        "geonameId": 2508246,
        "name": "\u2019A\u00efn Chenia",
        "children": [
            
        ]
    },
    {
        "geonameId": 2507949,
        "name": "\u2019A\u00efn Sa\u00efd",
        "children": [
            
        ]
    },
    {
        "geonameId": 2507860,
        "name": "\u2019A\u00efn Zerga",
        "children": [
            
        ]
    },
    {
        "geonameId": 2508177,
        "name": "\u2019A\u00efn el Bey",
        "children": [
            
        ]
    }
]