[
    {
        "geonameId": 2507763,
        "name": "A\u00eft de Khedara",
        "children": [
            
        ]
    },
    {
        "geonameId": 2570508,
        "name": "Bordiel el Hassane",
        "children": [
            
        ]
    },
    {
        "geonameId": 2503636,
        "name": "Bordj M\u2019Raou",
        "children": [
            
        ]
    },
    {
        "geonameId": 2503674,
        "name": "Bordj du Che\u00efkh",
        "children": [
            
        ]
    },
    {
        "geonameId": 2589455,
        "name": "Daghbouche",
        "children": [
            
        ]
    },
    {
        "geonameId": 2570509,
        "name": "Dar Zouah Ali",
        "children": [
            
        ]
    },
    {
        "geonameId": 2593178,
        "name": "Dar el Ca\u00efd",
        "children": [
            
        ]
    },
    {
        "geonameId": 2499057,
        "name": "Drea",
        "children": [
            
        ]
    },
    {
        "geonameId": 2498526,
        "name": "El Be\u00efda",
        "children": [
            
        ]
    },
    {
        "geonameId": 2586886,
        "name": "Gambetta",
        "children": [
            
        ]
    },
    {
        "geonameId": 2494530,
        "name": "Hammam Oulad Za\u00efd",
        "children": [
            
        ]
    },
    {
        "geonameId": 2570507,
        "name": "Kebarit",
        "children": [
            
        ]
    },
    {
        "geonameId": 2490758,
        "name": "Louritsia",
        "children": [
            
        ]
    },
    {
        "geonameId": 2489781,
        "name": "Mechta Ameur",
        "children": [
            
        ]
    },
    {
        "geonameId": 2489703,
        "name": "Mechta Bir Sedra",
        "children": [
            
        ]
    },
    {
        "geonameId": 2489708,
        "name": "Mechta Bir el H\u00e2dj et Tayeb",
        "children": [
            
        ]
    },
    {
        "geonameId": 2489596,
        "name": "Mechta Draa el Metenane",
        "children": [
            
        ]
    },
    {
        "geonameId": 2489572,
        "name": "Mechta Gabel Rebta",
        "children": [
            
        ]
    },
    {
        "geonameId": 2489277,
        "name": "Mechta Gharbi el Biar",
        "children": [
            
        ]
    },
    {
        "geonameId": 2489563,
        "name": "Mechta Gouramzi",
        "children": [
            
        ]
    },
    {
        "geonameId": 2593188,
        "name": "Mechta Guebel \u2018A\u00efn",
        "children": [
            
        ]
    },
    {
        "geonameId": 2585773,
        "name": "Mechta Hafer Ma\u00e2la",
        "children": [
            
        ]
    },
    {
        "geonameId": 2489451,
        "name": "Mechta Mechouicha",
        "children": [
            
        ]
    },
    {
        "geonameId": 2489449,
        "name": "Mechta Medjez Ahmar",
        "children": [
            
        ]
    },
    {
        "geonameId": 2489447,
        "name": "Mechta Medkour",
        "children": [
            
        ]
    },
    {
        "geonameId": 2585771,
        "name": "Mechta Oued Abd en Nour",
        "children": [
            
        ]
    },
    {
        "geonameId": 2489398,
        "name": "Mechta Oulad Kassem",
        "children": [
            
        ]
    },
    {
        "geonameId": 2489386,
        "name": "Mechta Oulad Rajah",
        "children": [
            
        ]
    },
    {
        "geonameId": 2489378,
        "name": "Mechta Oulad Sidi Ahmor",
        "children": [
            
        ]
    },
    {
        "geonameId": 2489283,
        "name": "Mechta Remadet el Babouche",
        "children": [
            
        ]
    },
    {
        "geonameId": 2489282,
        "name": "Mechta Remadia el Babouche",
        "children": [
            
        ]
    },
    {
        "geonameId": 2585898,
        "name": "Mechta Retbet Nouar",
        "children": [
            
        ]
    },
    {
        "geonameId": 2489275,
        "name": "Mechta Rharbi et Trik",
        "children": [
            
        ]
    },
    {
        "geonameId": 2489265,
        "name": "Mechta Rouiguet",
        "children": [
            
        ]
    },
    {
        "geonameId": 2489293,
        "name": "Mechta R\u00e2s et Trouch",
        "children": [
            
        ]
    },
    {
        "geonameId": 2489229,
        "name": "Mechta Sidi Ameur",
        "children": [
            
        ]
    },
    {
        "geonameId": 2489220,
        "name": "Mechta Sidi Maatallah",
        "children": [
            
        ]
    },
    {
        "geonameId": 2585768,
        "name": "Mechta el Gueta\u00effia",
        "children": [
            
        ]
    },
    {
        "geonameId": 2489816,
        "name": "Mechta \u2019A\u00efn Be\u00efda",
        "children": [
            
        ]
    },
    {
        "geonameId": 2489792,
        "name": "Mechta \u2019A\u00efn Redjem",
        "children": [
            
        ]
    },
    {
        "geonameId": 2489166,
        "name": "Mechtat Chergui el Biar",
        "children": [
            
        ]
    },
    {
        "geonameId": 2488974,
        "name": "Mechtat Rass el Ganntra",
        "children": [
            
        ]
    },
    {
        "geonameId": 2488972,
        "name": "Mechtat Rharbi Settara",
        "children": [
            
        ]
    },
    {
        "geonameId": 2585858,
        "name": "Mechtat el Alliga",
        "children": [
            
        ]
    },
    {
        "geonameId": 2585897,
        "name": "Mechtat el Hammamil",
        "children": [
            
        ]
    },
    {
        "geonameId": 2585808,
        "name": "Mechtat el Kherouba",
        "children": [
            
        ]
    },
    {
        "geonameId": 2585848,
        "name": "Mechtat el Magroun",
        "children": [
            
        ]
    },
    {
        "geonameId": 2585867,
        "name": "Mechtat el Outa\u00efa",
        "children": [
            
        ]
    },
    {
        "geonameId": 2593189,
        "name": "Mechtat es Stah",
        "children": [
            
        ]
    },
    {
        "geonameId": 2489922,
        "name": "M\u2019Daourouch",
        "children": [
            
        ]
    },
    {
        "geonameId": 2485883,
        "name": "Ouachouache",
        "children": [
            
        ]
    },
    {
        "geonameId": 2585839,
        "name": "Oulad Sidi A\u00efssa",
        "children": [
            
        ]
    },
    {
        "geonameId": 2482090,
        "name": "Sedrata",
        "children": [
            
        ]
    },
    {
        "geonameId": 2479215,
        "name": "Souk Ahras",
        "children": [
            
        ]
    },
    {
        "geonameId": 2478989,
        "name": "Tabet es Sefra",
        "children": [
            
        ]
    },
    {
        "geonameId": 2477933,
        "name": "Taoura",
        "children": [
            
        ]
    },
    {
        "geonameId": 2570525,
        "name": "Tarja",
        "children": [
            
        ]
    },
    {
        "geonameId": 2474826,
        "name": "Zarouria",
        "children": [
            
        ]
    },
    {
        "geonameId": 2570511,
        "name": "\u2019A\u00efn Djehifa",
        "children": [
            
        ]
    },
    {
        "geonameId": 2570510,
        "name": "\u2019A\u00efn Sidi Djemaa",
        "children": [
            
        ]
    }
]