[
    {
        "geonameId": 2582461,
        "name": "Aranim",
        "children": [
            
        ]
    },
    {
        "geonameId": 2506539,
        "name": "Arhb\u00e2l",
        "children": [
            
        ]
    },
    {
        "geonameId": 2582339,
        "name": "Azakour",
        "children": [
            
        ]
    },
    {
        "geonameId": 2505915,
        "name": "Azzaba",
        "children": [
            
        ]
    },
    {
        "geonameId": 2508062,
        "name": "A\u00efn Kechera",
        "children": [
            
        ]
    },
    {
        "geonameId": 2489855,
        "name": "A\u00efn Zeroula",
        "children": [
            
        ]
    },
    {
        "geonameId": 2575361,
        "name": "A\u00efn ech Cher\u00e2ya",
        "children": [
            
        ]
    },
    {
        "geonameId": 2506455,
        "name": "Bardi Boudjemaa",
        "children": [
            
        ]
    },
    {
        "geonameId": 2505557,
        "name": "Bayard",
        "children": [
            
        ]
    },
    {
        "geonameId": 2505304,
        "name": "Bekkouche Lakhdar",
        "children": [
            
        ]
    },
    {
        "geonameId": 2570455,
        "name": "Belkassem",
        "children": [
            
        ]
    },
    {
        "geonameId": 2504473,
        "name": "Ben Moktar",
        "children": [
            
        ]
    },
    {
        "geonameId": 2504723,
        "name": "Beni Bech\u00eer",
        "children": [
            
        ]
    },
    {
        "geonameId": 2582323,
        "name": "Beni Mdas",
        "children": [
            
        ]
    },
    {
        "geonameId": 2504628,
        "name": "Beni M\u00ealek",
        "children": [
            
        ]
    },
    {
        "geonameId": 2504578,
        "name": "Beni Sa\u00efd",
        "children": [
            
        ]
    },
    {
        "geonameId": 2574606,
        "name": "Bir Rakk\u00e2d",
        "children": [
            
        ]
    },
    {
        "geonameId": 2503818,
        "name": "Bissy",
        "children": [
            
        ]
    },
    {
        "geonameId": 2503691,
        "name": "Bordj Ca\u00efd Tahar",
        "children": [
            
        ]
    },
    {
        "geonameId": 2503667,
        "name": "Bordj du Ca\u00efd",
        "children": [
            
        ]
    },
    {
        "geonameId": 2503675,
        "name": "Bordj du Ca\u00efd Lakhdar",
        "children": [
            
        ]
    },
    {
        "geonameId": 2503672,
        "name": "Bordj du Marabout",
        "children": [
            
        ]
    },
    {
        "geonameId": 2503671,
        "name": "Bordj ech Cheikh ed Da\u00eff",
        "children": [
            
        ]
    },
    {
        "geonameId": 2582459,
        "name": "Bou Alkma",
        "children": [
            
        ]
    },
    {
        "geonameId": 2503435,
        "name": "Bou Aziz",
        "children": [
            
        ]
    },
    {
        "geonameId": 2503420,
        "name": "Bou Ballouta",
        "children": [
            
        ]
    },
    {
        "geonameId": 2582425,
        "name": "Bou Djama",
        "children": [
            
        ]
    },
    {
        "geonameId": 2582458,
        "name": "Bou Lateb",
        "children": [
            
        ]
    },
    {
        "geonameId": 2574097,
        "name": "Bou Saa",
        "children": [
            
        ]
    },
    {
        "geonameId": 2574114,
        "name": "Bou Trerou",
        "children": [
            
        ]
    },
    {
        "geonameId": 2503210,
        "name": "Bou el Djerad",
        "children": [
            
        ]
    },
    {
        "geonameId": 2503319,
        "name": "Boucht\u00e2ta Mahmo\u00fbd",
        "children": [
            
        ]
    },
    {
        "geonameId": 2503062,
        "name": "Bouhalbas",
        "children": [
            
        ]
    },
    {
        "geonameId": 2503194,
        "name": "Bounoghra",
        "children": [
            
        ]
    },
    {
        "geonameId": 2501446,
        "name": "Chera\u00efa",
        "children": [
            
        ]
    },
    {
        "geonameId": 2501385,
        "name": "Cherka",
        "children": [
            
        ]
    },
    {
        "geonameId": 2501371,
        "name": "Chetaibi",
        "children": [
            
        ]
    },
    {
        "geonameId": 2501170,
        "name": "Cit\u00e9 el \u2019Arbi Ben Mh\u00eedi",
        "children": [
            
        ]
    },
    {
        "geonameId": 2501162,
        "name": "Collo",
        "children": [
            
        ]
    },
    {
        "geonameId": 2500999,
        "name": "Damn\u00eeya",
        "children": [
            
        ]
    },
    {
        "geonameId": 2500567,
        "name": "Dem el Begrat",
        "children": [
            
        ]
    },
    {
        "geonameId": 2593200,
        "name": "Djenane El Bey",
        "children": [
            
        ]
    },
    {
        "geonameId": 2499874,
        "name": "Djenane ed Dib",
        "children": [
            
        ]
    },
    {
        "geonameId": 2499851,
        "name": "Djendel",
        "children": [
            
        ]
    },
    {
        "geonameId": 2499735,
        "name": "Djerr\u00e2h",
        "children": [
            
        ]
    },
    {
        "geonameId": 2499575,
        "name": "Dokna",
        "children": [
            
        ]
    },
    {
        "geonameId": 2498896,
        "name": "Ed Douar",
        "children": [
            
        ]
    },
    {
        "geonameId": 2575617,
        "name": "El Ammo\u00fbchi Ali",
        "children": [
            
        ]
    },
    {
        "geonameId": 2498614,
        "name": "El Arrouch",
        "children": [
            
        ]
    },
    {
        "geonameId": 2582427,
        "name": "El Hafeur",
        "children": [
            
        ]
    },
    {
        "geonameId": 2498114,
        "name": "El Hamma Dakhelania",
        "children": [
            
        ]
    },
    {
        "geonameId": 2498033,
        "name": "El Heda\u00efek",
        "children": [
            
        ]
    },
    {
        "geonameId": 2575535,
        "name": "El Hr\u00e2yech",
        "children": [
            
        ]
    },
    {
        "geonameId": 2497882,
        "name": "El Khem\u00ees",
        "children": [
            
        ]
    },
    {
        "geonameId": 2497883,
        "name": "El Khem\u00ees",
        "children": [
            
        ]
    },
    {
        "geonameId": 2574564,
        "name": "El K\u00e2nt\u00eela",
        "children": [
            
        ]
    },
    {
        "geonameId": 2497547,
        "name": "El Mersa",
        "children": [
            
        ]
    },
    {
        "geonameId": 2497717,
        "name": "El M\u00e2l\u2019ab",
        "children": [
            
        ]
    },
    {
        "geonameId": 2497425,
        "name": "El Oualdja",
        "children": [
            
        ]
    },
    {
        "geonameId": 2497385,
        "name": "El Oulo\u00fbdj",
        "children": [
            
        ]
    },
    {
        "geonameId": 2497395,
        "name": "El Ou\u00eed\u00eer",
        "children": [
            
        ]
    },
    {
        "geonameId": 2497345,
        "name": "El Rhedir",
        "children": [
            
        ]
    },
    {
        "geonameId": 2497298,
        "name": "Em Jez ed Chich",
        "children": [
            
        ]
    },
    {
        "geonameId": 2497078,
        "name": "Es Sebt",
        "children": [
            
        ]
    },
    {
        "geonameId": 2574365,
        "name": "Es Souak",
        "children": [
            
        ]
    },
    {
        "geonameId": 2496061,
        "name": "Gbar G\u00e2\u00efd",
        "children": [
            
        ]
    },
    {
        "geonameId": 2572617,
        "name": "Gourbis",
        "children": [
            
        ]
    },
    {
        "geonameId": 2570468,
        "name": "Guenguita",
        "children": [
            
        ]
    },
    {
        "geonameId": 2494514,
        "name": "Hammo\u00fbdi Hamro\u00fbch",
        "children": [
            
        ]
    },
    {
        "geonameId": 2494605,
        "name": "Hamm\u00e2di Kro\u00fbma",
        "children": [
            
        ]
    },
    {
        "geonameId": 2494308,
        "name": "Haouch Ali Mosb\u00e2h",
        "children": [
            
        ]
    },
    {
        "geonameId": 2494299,
        "name": "Haouch Hamm\u00e2di Kro\u00fbma",
        "children": [
            
        ]
    },
    {
        "geonameId": 2492815,
        "name": "Kahouet \u2019Ibich",
        "children": [
            
        ]
    },
    {
        "geonameId": 2492752,
        "name": "Kanou\u00e2",
        "children": [
            
        ]
    },
    {
        "geonameId": 2582435,
        "name": "Kerba",
        "children": [
            
        ]
    },
    {
        "geonameId": 2492345,
        "name": "Kerkera",
        "children": [
            
        ]
    },
    {
        "geonameId": 2491266,
        "name": "Ksir Beni Zid",
        "children": [
            
        ]
    },
    {
        "geonameId": 2574137,
        "name": "Legbar Labyad",
        "children": [
            
        ]
    },
    {
        "geonameId": 2490864,
        "name": "Les Deux Ponts",
        "children": [
            
        ]
    },
    {
        "geonameId": 2490780,
        "name": "Loubyer",
        "children": [
            
        ]
    },
    {
        "geonameId": 2490160,
        "name": "Marabout A\u00efcha",
        "children": [
            
        ]
    },
    {
        "geonameId": 2489772,
        "name": "Mechta Aouid Teffa",
        "children": [
            
        ]
    },
    {
        "geonameId": 2489724,
        "name": "Mechta Ben Sanoun",
        "children": [
            
        ]
    },
    {
        "geonameId": 2593185,
        "name": "Mechta Beni Hameza",
        "children": [
            
        ]
    },
    {
        "geonameId": 2570443,
        "name": "Mechta Bo\u00fb el Rhab",
        "children": [
            
        ]
    },
    {
        "geonameId": 2489715,
        "name": "Mechta B\u00een el Ou\u00eed\u00e2ne",
        "children": [
            
        ]
    },
    {
        "geonameId": 2489654,
        "name": "Mechta Chabet el Ma",
        "children": [
            
        ]
    },
    {
        "geonameId": 2489622,
        "name": "Mechta Dar Chehla",
        "children": [
            
        ]
    },
    {
        "geonameId": 2593186,
        "name": "Mechta Fetmiat",
        "children": [
            
        ]
    },
    {
        "geonameId": 2570454,
        "name": "Mechta Kermat",
        "children": [
            
        ]
    },
    {
        "geonameId": 2489477,
        "name": "Mechta Larsahas",
        "children": [
            
        ]
    },
    {
        "geonameId": 2574258,
        "name": "Mechta Oulad R\u00e2bah",
        "children": [
            
        ]
    },
    {
        "geonameId": 2489287,
        "name": "Mechta Reggada",
        "children": [
            
        ]
    },
    {
        "geonameId": 2489244,
        "name": "Mechta Sa\u00efd",
        "children": [
            
        ]
    },
    {
        "geonameId": 2489197,
        "name": "Mechta Tafra",
        "children": [
            
        ]
    },
    {
        "geonameId": 2489144,
        "name": "Mechta Teffahah",
        "children": [
            
        ]
    },
    {
        "geonameId": 2489020,
        "name": "Mechta Tessa\u2019t\u00e2ch",
        "children": [
            
        ]
    },
    {
        "geonameId": 2574985,
        "name": "Mechta Zo\u00fbbia",
        "children": [
            
        ]
    },
    {
        "geonameId": 2573682,
        "name": "Mechtat A\u00efn Djenane",
        "children": [
            
        ]
    },
    {
        "geonameId": 2489232,
        "name": "Mechtat Sfardjela",
        "children": [
            
        ]
    },
    {
        "geonameId": 2489128,
        "name": "Mechtat el Asnab",
        "children": [
            
        ]
    },
    {
        "geonameId": 2489115,
        "name": "Mechtat el Djazia",
        "children": [
            
        ]
    },
    {
        "geonameId": 2489106,
        "name": "Mechtat el Gassa",
        "children": [
            
        ]
    },
    {
        "geonameId": 2489083,
        "name": "Mechtat el Hiout",
        "children": [
            
        ]
    },
    {
        "geonameId": 2573888,
        "name": "Mechtat el Marra",
        "children": [
            
        ]
    },
    {
        "geonameId": 2489026,
        "name": "Mechtat er Rgarg",
        "children": [
            
        ]
    },
    {
        "geonameId": 2489023,
        "name": "Mechtat er R\u2019Mel",
        "children": [
            
        ]
    },
    {
        "geonameId": 2573683,
        "name": "Mechtat es Serdouk",
        "children": [
            
        ]
    },
    {
        "geonameId": 2488937,
        "name": "Mechtet Ago\u00fbf",
        "children": [
            
        ]
    },
    {
        "geonameId": 2488925,
        "name": "Mechtet Bir St\u00e2l",
        "children": [
            
        ]
    },
    {
        "geonameId": 2488924,
        "name": "Mechtet Bou Gr\u00e2\u00efn\u00e2h",
        "children": [
            
        ]
    },
    {
        "geonameId": 2488922,
        "name": "Mechtet Bou Rk\u00eez",
        "children": [
            
        ]
    },
    {
        "geonameId": 2488921,
        "name": "Mechtet Ch\u2019\u00e2b Ben Had\u00eed",
        "children": [
            
        ]
    },
    {
        "geonameId": 2488905,
        "name": "Mechtet Gouley\u2019a",
        "children": [
            
        ]
    },
    {
        "geonameId": 2574184,
        "name": "Mechtet Hamr\u00eea",
        "children": [
            
        ]
    },
    {
        "geonameId": 2488900,
        "name": "Mechtet Koudiet Rmel",
        "children": [
            
        ]
    },
    {
        "geonameId": 2488901,
        "name": "Mechtet Koudiet el F\u00eedjel",
        "children": [
            
        ]
    },
    {
        "geonameId": 2574315,
        "name": "Mechtet Oued el Bi\u00e2r",
        "children": [
            
        ]
    },
    {
        "geonameId": 2575644,
        "name": "Mechtet Oueldedja",
        "children": [
            
        ]
    },
    {
        "geonameId": 2488890,
        "name": "Mechtet Ouest\u00f4ra",
        "children": [
            
        ]
    },
    {
        "geonameId": 2488880,
        "name": "Mechtet Oumm el Ma\u2019\u00eez",
        "children": [
            
        ]
    },
    {
        "geonameId": 2570459,
        "name": "Mechtet Sidi Hamed",
        "children": [
            
        ]
    },
    {
        "geonameId": 2488935,
        "name": "Mechtet \u2019A\u00efn Gaddida",
        "children": [
            
        ]
    },
    {
        "geonameId": 2482511,
        "name": "Mehari Mohamed",
        "children": [
            
        ]
    },
    {
        "geonameId": 2488064,
        "name": "Menzel el Abtal",
        "children": [
            
        ]
    },
    {
        "geonameId": 2582440,
        "name": "Mraba\u00ef",
        "children": [
            
        ]
    },
    {
        "geonameId": 2593198,
        "name": "Mzara Sidi Goulea",
        "children": [
            
        ]
    },
    {
        "geonameId": 2486568,
        "name": "Mzata",
        "children": [
            
        ]
    },
    {
        "geonameId": 2485600,
        "name": "Oued di Djebel",
        "children": [
            
        ]
    },
    {
        "geonameId": 2485627,
        "name": "Oued el Kebir",
        "children": [
            
        ]
    },
    {
        "geonameId": 2497404,
        "name": "Ouldja",
        "children": [
            
        ]
    },
    {
        "geonameId": 2575615,
        "name": "Ouled Ma\u2019zo\u00fbz",
        "children": [
            
        ]
    },
    {
        "geonameId": 2484413,
        "name": "Oumm To\u00fbb",
        "children": [
            
        ]
    },
    {
        "geonameId": 2484183,
        "name": "Pont Cavalla",
        "children": [
            
        ]
    },
    {
        "geonameId": 2484020,
        "name": "Ramdane Djamal",
        "children": [
            
        ]
    },
    {
        "geonameId": 2483987,
        "name": "Rarch",
        "children": [
            
        ]
    },
    {
        "geonameId": 2582441,
        "name": "Raroui",
        "children": [
            
        ]
    },
    {
        "geonameId": 2483861,
        "name": "Reba\u00efb",
        "children": [
            
        ]
    },
    {
        "geonameId": 2582444,
        "name": "Rhedir el Kahla",
        "children": [
            
        ]
    },
    {
        "geonameId": 2582465,
        "name": "Roumila",
        "children": [
            
        ]
    },
    {
        "geonameId": 2483950,
        "name": "R\u00e2s el Ma",
        "children": [
            
        ]
    },
    {
        "geonameId": 2482445,
        "name": "Salah Bouchaour",
        "children": [
            
        ]
    },
    {
        "geonameId": 2482089,
        "name": "Sedrata",
        "children": [
            
        ]
    },
    {
        "geonameId": 2572864,
        "name": "Sidi Abd Allah",
        "children": [
            
        ]
    },
    {
        "geonameId": 2573013,
        "name": "Sidi Ahmed Sa\u00efd",
        "children": [
            
        ]
    },
    {
        "geonameId": 2481195,
        "name": "Sidi Al\u00ee",
        "children": [
            
        ]
    },
    {
        "geonameId": 2572791,
        "name": "Sidi Bahfoul",
        "children": [
            
        ]
    },
    {
        "geonameId": 2573001,
        "name": "Sidi Bou Ze\u00efd",
        "children": [
            
        ]
    },
    {
        "geonameId": 2480379,
        "name": "Sidi Kamber",
        "children": [
            
        ]
    },
    {
        "geonameId": 2573052,
        "name": "Sidi Maklouf",
        "children": [
            
        ]
    },
    {
        "geonameId": 2480172,
        "name": "Sidi Mezghiche",
        "children": [
            
        ]
    },
    {
        "geonameId": 2572782,
        "name": "Sidi Takouch",
        "children": [
            
        ]
    },
    {
        "geonameId": 2572784,
        "name": "Sidi Zakri",
        "children": [
            
        ]
    },
    {
        "geonameId": 2479536,
        "name": "Skikda",
        "children": [
            {
                "geonameId": 2497833,
                "name": "El Ko\u00fbbb\u00eeya",
                "children": [
                    
                ]
            },
            {
                "geonameId": 2496743,
                "name": "Faubourg de l\u2019Esp\u00e9rance",
                "children": [
                    
                ]
            },
            {
                "geonameId": 2491058,
                "name": "La P\u00e9pini\u00e8re",
                "children": [
                    
                ]
            }
        ]
    },
    {
        "geonameId": 2479341,
        "name": "Solt\u00e2ne \u2019Azzo\u00fbz",
        "children": [
            
        ]
    },
    {
        "geonameId": 2574287,
        "name": "Souk el Had",
        "children": [
            
        ]
    },
    {
        "geonameId": 2574713,
        "name": "Souk et Tn\u00eene",
        "children": [
            
        ]
    },
    {
        "geonameId": 2479311,
        "name": "So\u00fb\u00e2lem",
        "children": [
            
        ]
    },
    {
        "geonameId": 2479077,
        "name": "Stora",
        "children": [
            
        ]
    },
    {
        "geonameId": 2479571,
        "name": "S\u00eeou\u00e2ne",
        "children": [
            
        ]
    },
    {
        "geonameId": 2574277,
        "name": "Tagma",
        "children": [
            
        ]
    },
    {
        "geonameId": 2478226,
        "name": "Tamalous",
        "children": [
            {
                "geonameId": 2499908,
                "name": "Djemm\u00e2la",
                "children": [
                    
                ]
            }
        ]
    },
    {
        "geonameId": 2477718,
        "name": "Tarkount Sidi Ennouar",
        "children": [
            
        ]
    },
    {
        "geonameId": 2477599,
        "name": "Taya",
        "children": [
            
        ]
    },
    {
        "geonameId": 2575610,
        "name": "Telezza",
        "children": [
            
        ]
    },
    {
        "geonameId": 2574099,
        "name": "Touhame",
        "children": [
            
        ]
    },
    {
        "geonameId": 2574135,
        "name": "Vieux A\u00efn Bouziane",
        "children": [
            
        ]
    },
    {
        "geonameId": 2502496,
        "name": "Zaouia Bou Rkache",
        "children": [
            
        ]
    },
    {
        "geonameId": 2474875,
        "name": "Zaouia Ham\u00eeda",
        "children": [
            
        ]
    },
    {
        "geonameId": 2474864,
        "name": "Zaouia Toutouch",
        "children": [
            
        ]
    },
    {
        "geonameId": 2582383,
        "name": "Zeriba",
        "children": [
            
        ]
    },
    {
        "geonameId": 2474341,
        "name": "Zitouna",
        "children": [
            
        ]
    },
    {
        "geonameId": 2575648,
        "name": "Zoubia",
        "children": [
            
        ]
    },
    {
        "geonameId": 2474156,
        "name": "Zr\u00eebet Ka\u2019ba Rhz\u00eal",
        "children": [
            
        ]
    },
    {
        "geonameId": 2508255,
        "name": "\u2019A\u00efn Bouziane",
        "children": [
            
        ]
    },
    {
        "geonameId": 2508249,
        "name": "\u2019A\u00efn Charchar",
        "children": [
            
        ]
    },
    {
        "geonameId": 2507999,
        "name": "\u2019A\u00efn Moenchem",
        "children": [
            
        ]
    },
    {
        "geonameId": 2507854,
        "name": "\u2019A\u00efn Zo\u00fb\u00eeT",
        "children": [
            
        ]
    }
]