[
    {
        "geonameId": 2507486,
        "name": "Alexandre Dumas",
        "children": [
            
        ]
    },
    {
        "geonameId": 2505481,
        "name": "Bedrabine",
        "children": [
            
        ]
    },
    {
        "geonameId": 2505258,
        "name": "Belarbi",
        "children": [
            
        ]
    },
    {
        "geonameId": 2504950,
        "name": "Ben Badis",
        "children": [
            
        ]
    },
    {
        "geonameId": 2504883,
        "name": "Bendida",
        "children": [
            
        ]
    },
    {
        "geonameId": 2502862,
        "name": "Boukhanefis",
        "children": [
            
        ]
    },
    {
        "geonameId": 2502248,
        "name": "Boutin",
        "children": [
            
        ]
    },
    {
        "geonameId": 2501963,
        "name": "Ca\u00efd Mohammed",
        "children": [
            
        ]
    },
    {
        "geonameId": 2501851,
        "name": "Chabri\u00e8re",
        "children": [
            
        ]
    },
    {
        "geonameId": 2501361,
        "name": "Chetouane",
        "children": [
            
        ]
    },
    {
        "geonameId": 2499484,
        "name": "Chouaref",
        "children": [
            
        ]
    },
    {
        "geonameId": 2501131,
        "name": "Crampel",
        "children": [
            
        ]
    },
    {
        "geonameId": 2500898,
        "name": "Dar Dechera Inadene",
        "children": [
            
        ]
    },
    {
        "geonameId": 2500878,
        "name": "Dar el Hadj el Habib",
        "children": [
            
        ]
    },
    {
        "geonameId": 2500482,
        "name": "Dhaya",
        "children": [
            
        ]
    },
    {
        "geonameId": 2499667,
        "name": "Djob",
        "children": [
            
        ]
    },
    {
        "geonameId": 2499495,
        "name": "Douar Ca\u00efd Ben Abbou",
        "children": [
            
        ]
    },
    {
        "geonameId": 2499494,
        "name": "Douar Chabane",
        "children": [
            
        ]
    },
    {
        "geonameId": 2499474,
        "name": "Douar Djeba\u00efria",
        "children": [
            
        ]
    },
    {
        "geonameId": 2499354,
        "name": "Douar Mehadid",
        "children": [
            
        ]
    },
    {
        "geonameId": 2499328,
        "name": "Douar Obba\u2019\u00eech",
        "children": [
            
        ]
    },
    {
        "geonameId": 2499303,
        "name": "Douar Oulad Safi",
        "children": [
            
        ]
    },
    {
        "geonameId": 2499301,
        "name": "Douar Oulad Sidi el Hachemi",
        "children": [
            
        ]
    },
    {
        "geonameId": 2499287,
        "name": "Douar Ouled Bachir",
        "children": [
            
        ]
    },
    {
        "geonameId": 2499278,
        "name": "Douar Ouled Daoud",
        "children": [
            
        ]
    },
    {
        "geonameId": 2499258,
        "name": "Douar Ouled Ouis",
        "children": [
            
        ]
    },
    {
        "geonameId": 2499256,
        "name": "Douar Ouled Sidi Ali",
        "children": [
            
        ]
    },
    {
        "geonameId": 2499247,
        "name": "Douar Ouled Slimane",
        "children": [
            
        ]
    },
    {
        "geonameId": 2499238,
        "name": "Douar Rhelalda",
        "children": [
            
        ]
    },
    {
        "geonameId": 2499212,
        "name": "Douar Tialba",
        "children": [
            
        ]
    },
    {
        "geonameId": 2499207,
        "name": "Douar Tououa\u00efta",
        "children": [
            
        ]
    },
    {
        "geonameId": 2499461,
        "name": "Douar el Abid",
        "children": [
            
        ]
    },
    {
        "geonameId": 2499443,
        "name": "Douar el Gouassem",
        "children": [
            
        ]
    },
    {
        "geonameId": 2499431,
        "name": "Douar el Kdadra",
        "children": [
            
        ]
    },
    {
        "geonameId": 2499426,
        "name": "Douar el Khle\u00effia",
        "children": [
            
        ]
    },
    {
        "geonameId": 2499416,
        "name": "Douar el Mhad\u00eed",
        "children": [
            
        ]
    },
    {
        "geonameId": 2499396,
        "name": "Douar ez Zaouia",
        "children": [
            
        ]
    },
    {
        "geonameId": 2498109,
        "name": "El Hammam",
        "children": [
            
        ]
    },
    {
        "geonameId": 2497533,
        "name": "El Messa\u00eff",
        "children": [
            
        ]
    },
    {
        "geonameId": 2496745,
        "name": "Faubourg Bou Melik Abdelkader",
        "children": [
            
        ]
    },
    {
        "geonameId": 2495754,
        "name": "Guededra",
        "children": [
            
        ]
    },
    {
        "geonameId": 2492169,
        "name": "Khalidj",
        "children": [
            
        ]
    },
    {
        "geonameId": 2491083,
        "name": "La Maison Blanche",
        "children": [
            
        ]
    },
    {
        "geonameId": 2491082,
        "name": "Lamamda",
        "children": [
            
        ]
    },
    {
        "geonameId": 2491068,
        "name": "Lamt\u00e2r",
        "children": [
            
        ]
    },
    {
        "geonameId": 2490872,
        "name": "Le Rocher",
        "children": [
            
        ]
    },
    {
        "geonameId": 2490369,
        "name": "Maison de l\u2019Agha",
        "children": [
            
        ]
    },
    {
        "geonameId": 2490138,
        "name": "Marhoum",
        "children": [
            
        ]
    },
    {
        "geonameId": 2488221,
        "name": "Mellinet",
        "children": [
            
        ]
    },
    {
        "geonameId": 2487912,
        "name": "Merine",
        "children": [
            
        ]
    },
    {
        "geonameId": 2487576,
        "name": "Mezaourou",
        "children": [
            
        ]
    },
    {
        "geonameId": 2486936,
        "name": "Moulay Slissen",
        "children": [
            
        ]
    },
    {
        "geonameId": 2485754,
        "name": "Ouazane",
        "children": [
            
        ]
    },
    {
        "geonameId": 2499268,
        "name": "Ouled Guenndouzi",
        "children": [
            
        ]
    },
    {
        "geonameId": 2483952,
        "name": "R\u00e2s el Ma",
        "children": [
            
        ]
    },
    {
        "geonameId": 2481639,
        "name": "Sfizef",
        "children": [
            
        ]
    },
    {
        "geonameId": 2481136,
        "name": "Sidi Ali Ben Youb",
        "children": [
            
        ]
    },
    {
        "geonameId": 2481125,
        "name": "Sidi Ali Boussidi",
        "children": [
            
        ]
    },
    {
        "geonameId": 2481007,
        "name": "Sidi Bel Abbes",
        "children": [
            {
                "geonameId": 2506070,
                "name": "Ayet Mustapha Ben Bo\u00fb La\u2019\u00efd",
                "children": [
                    
                ]
            },
            {
                "geonameId": 2506071,
                "name": "Ayet el \u2019Arbi Ben Lemhidi",
                "children": [
                    
                ]
            },
            {
                "geonameId": 2496744,
                "name": "Faubourg Che\u00efkh Ben B\u00e2dis",
                "children": [
                    
                ]
            },
            {
                "geonameId": 2496740,
                "name": "Faubourg Marceau",
                "children": [
                    
                ]
            },
            {
                "geonameId": 2496736,
                "name": "Faubourg Thiers",
                "children": [
                    
                ]
            }
        ]
    },
    {
        "geonameId": 2480743,
        "name": "Sidi Brahim",
        "children": [
            
        ]
    },
    {
        "geonameId": 2480676,
        "name": "Sidi Daho",
        "children": [
            
        ]
    },
    {
        "geonameId": 2480420,
        "name": "Sidi Hamadouche",
        "children": [
            
        ]
    },
    {
        "geonameId": 2480367,
        "name": "Sidi Kh\u00e2led",
        "children": [
            
        ]
    },
    {
        "geonameId": 2480312,
        "name": "Sidi Lahssen",
        "children": [
            
        ]
    },
    {
        "geonameId": 2479683,
        "name": "Sidi Ya\u2019ko\u00fbb",
        "children": [
            
        ]
    },
    {
        "geonameId": 2478984,
        "name": "Tabia",
        "children": [
            
        ]
    },
    {
        "geonameId": 2477357,
        "name": "Teghalimet",
        "children": [
            
        ]
    },
    {
        "geonameId": 2477244,
        "name": "Telioum",
        "children": [
            
        ]
    },
    {
        "geonameId": 2477142,
        "name": "Tenezara",
        "children": [
            
        ]
    },
    {
        "geonameId": 2570471,
        "name": "Tenira",
        "children": [
            
        ]
    },
    {
        "geonameId": 2476982,
        "name": "Tessala",
        "children": [
            
        ]
    },
    {
        "geonameId": 2477277,
        "name": "T\u00e9lagh",
        "children": [
            
        ]
    },
    {
        "geonameId": 2474485,
        "name": "Zerouala",
        "children": [
            
        ]
    },
    {
        "geonameId": 2507894,
        "name": "\u2019A\u00efn Tindamine",
        "children": [
            
        ]
    },
    {
        "geonameId": 2507871,
        "name": "\u2019A\u00efn Tr\u00eed",
        "children": [
            
        ]
    },
    {
        "geonameId": 2508180,
        "name": "\u2019A\u00efn el Berd",
        "children": [
            
        ]
    }
]