[
    {
        "geonameId": 2508718,
        "name": "Aftis",
        "children": [
            
        ]
    },
    {
        "geonameId": 2507146,
        "name": "Amoucha",
        "children": [
            
        ]
    },
    {
        "geonameId": 2506976,
        "name": "Annoual",
        "children": [
            
        ]
    },
    {
        "geonameId": 2506800,
        "name": "Aoulad Badis",
        "children": [
            
        ]
    },
    {
        "geonameId": 2504954,
        "name": "Arbaoun",
        "children": [
            
        ]
    },
    {
        "geonameId": 2505980,
        "name": "Azib",
        "children": [
            
        ]
    },
    {
        "geonameId": 2508297,
        "name": "A\u00efn Arnat",
        "children": [
            
        ]
    },
    {
        "geonameId": 2507979,
        "name": "A\u00efn Oulmene",
        "children": [
            
        ]
    },
    {
        "geonameId": 6698360,
        "name": "BABOR - VILLE",
        "children": [
            
        ]
    },
    {
        "geonameId": 2505824,
        "name": "Badjerou",
        "children": [
            
        ]
    },
    {
        "geonameId": 2505549,
        "name": "Bazer Sakra",
        "children": [
            
        ]
    },
    {
        "geonameId": 2505112,
        "name": "Bellaa",
        "children": [
            
        ]
    },
    {
        "geonameId": 2504811,
        "name": "Ben Guemmez",
        "children": [
            
        ]
    },
    {
        "geonameId": 2504695,
        "name": "Beni Fouda",
        "children": [
            
        ]
    },
    {
        "geonameId": 2504701,
        "name": "Beni el Ma\u00ef",
        "children": [
            
        ]
    },
    {
        "geonameId": 2505346,
        "name": "Be\u00efda Bordj",
        "children": [
            
        ]
    },
    {
        "geonameId": 2503892,
        "name": "Bir Bra\u00efch",
        "children": [
            
        ]
    },
    {
        "geonameId": 2503857,
        "name": "Bir Haddada",
        "children": [
            
        ]
    },
    {
        "geonameId": 2503844,
        "name": "Bir Louksia",
        "children": [
            
        ]
    },
    {
        "geonameId": 2478942,
        "name": "Bir Tachema",
        "children": [
            
        ]
    },
    {
        "geonameId": 2503880,
        "name": "Bir el Arche",
        "children": [
            
        ]
    },
    {
        "geonameId": 2503723,
        "name": "Bondjih",
        "children": [
            
        ]
    },
    {
        "geonameId": 2503706,
        "name": "Bordj Ben Ali Cherif",
        "children": [
            
        ]
    },
    {
        "geonameId": 2503694,
        "name": "Bordj Bou Rerhda",
        "children": [
            
        ]
    },
    {
        "geonameId": 2503690,
        "name": "Bordj Chabet Zekkar",
        "children": [
            
        ]
    },
    {
        "geonameId": 2503678,
        "name": "Bordj du Ca\u00efd",
        "children": [
            
        ]
    },
    {
        "geonameId": 2503673,
        "name": "Bordj du Keskes",
        "children": [
            
        ]
    },
    {
        "geonameId": 2502538,
        "name": "Bou Rallel",
        "children": [
            
        ]
    },
    {
        "geonameId": 2502520,
        "name": "Bou Rdim",
        "children": [
            
        ]
    },
    {
        "geonameId": 2502347,
        "name": "Bou Selloutene",
        "children": [
            
        ]
    },
    {
        "geonameId": 2502280,
        "name": "Bou Taleb",
        "children": [
            
        ]
    },
    {
        "geonameId": 2503156,
        "name": "Bougaa",
        "children": [
            
        ]
    },
    {
        "geonameId": 2502959,
        "name": "Bouira",
        "children": [
            
        ]
    },
    {
        "geonameId": 2508220,
        "name": "Bourhzel",
        "children": [
            
        ]
    },
    {
        "geonameId": 2502086,
        "name": "Braham",
        "children": [
            
        ]
    },
    {
        "geonameId": 2501558,
        "name": "Che\u00efkh Salah",
        "children": [
            
        ]
    },
    {
        "geonameId": 2501246,
        "name": "Chouf",
        "children": [
            
        ]
    },
    {
        "geonameId": 2500866,
        "name": "Dar er Razi",
        "children": [
            
        ]
    },
    {
        "geonameId": 2500718,
        "name": "Dechera Bou Imane",
        "children": [
            
        ]
    },
    {
        "geonameId": 2500717,
        "name": "Dechera Irhil Izegouarene",
        "children": [
            
        ]
    },
    {
        "geonameId": 2500247,
        "name": "Djborni",
        "children": [
            
        ]
    },
    {
        "geonameId": 2499912,
        "name": "Djemila",
        "children": [
            
        ]
    },
    {
        "geonameId": 2499907,
        "name": "Djemmana",
        "children": [
            
        ]
    },
    {
        "geonameId": 2499819,
        "name": "Djenta",
        "children": [
            
        ]
    },
    {
        "geonameId": 2499372,
        "name": "Douar Kassandji",
        "children": [
            
        ]
    },
    {
        "geonameId": 2498959,
        "name": "Ech Chebna",
        "children": [
            
        ]
    },
    {
        "geonameId": 2498701,
        "name": "El Anasser",
        "children": [
            
        ]
    },
    {
        "geonameId": 2498553,
        "name": "El Baouch",
        "children": [
            
        ]
    },
    {
        "geonameId": 2498392,
        "name": "El Eulma",
        "children": [
            
        ]
    },
    {
        "geonameId": 2498225,
        "name": "El Guetar",
        "children": [
            
        ]
    },
    {
        "geonameId": 2498200,
        "name": "El Hachichia",
        "children": [
            
        ]
    },
    {
        "geonameId": 2498116,
        "name": "El Hamma",
        "children": [
            
        ]
    },
    {
        "geonameId": 2498106,
        "name": "El Hammam",
        "children": [
            
        ]
    },
    {
        "geonameId": 2498107,
        "name": "El Hammam",
        "children": [
            
        ]
    },
    {
        "geonameId": 2498041,
        "name": "El Hassi",
        "children": [
            
        ]
    },
    {
        "geonameId": 2497888,
        "name": "El Kheloua",
        "children": [
            
        ]
    },
    {
        "geonameId": 2497828,
        "name": "El Koudia",
        "children": [
            
        ]
    },
    {
        "geonameId": 2497381,
        "name": "El Ouricia",
        "children": [
            
        ]
    },
    {
        "geonameId": 2496735,
        "name": "Faucigny",
        "children": [
            
        ]
    },
    {
        "geonameId": 2495671,
        "name": "Guellal",
        "children": [
            
        ]
    },
    {
        "geonameId": 2495598,
        "name": "Guemchouch",
        "children": [
            
        ]
    },
    {
        "geonameId": 2565417,
        "name": "Guidjal",
        "children": [
            
        ]
    },
    {
        "geonameId": 2494545,
        "name": "Hammam Guergour",
        "children": [
            
        ]
    },
    {
        "geonameId": 2494532,
        "name": "Hammam Sokhna",
        "children": [
            
        ]
    },
    {
        "geonameId": 2493851,
        "name": "Hiltene",
        "children": [
            
        ]
    },
    {
        "geonameId": 2493112,
        "name": "Irhil el Khemis",
        "children": [
            
        ]
    },
    {
        "geonameId": 2491809,
        "name": "Kherbet Bel Medani",
        "children": [
            
        ]
    },
    {
        "geonameId": 2491477,
        "name": "Kou Klas",
        "children": [
            
        ]
    },
    {
        "geonameId": 2488904,
        "name": "Ksar et Til",
        "children": [
            
        ]
    },
    {
        "geonameId": 2490423,
        "name": "Mahouane",
        "children": [
            
        ]
    },
    {
        "geonameId": 2490171,
        "name": "Maouaklane",
        "children": [
            
        ]
    },
    {
        "geonameId": 2489825,
        "name": "Mechta Adissa",
        "children": [
            
        ]
    },
    {
        "geonameId": 2489768,
        "name": "Mechta Arras",
        "children": [
            
        ]
    },
    {
        "geonameId": 2489767,
        "name": "Mechta Asnina",
        "children": [
            
        ]
    },
    {
        "geonameId": 2489787,
        "name": "Mechta A\u00efn Ztout",
        "children": [
            
        ]
    },
    {
        "geonameId": 2489754,
        "name": "Mechta Bazzar",
        "children": [
            
        ]
    },
    {
        "geonameId": 2489747,
        "name": "Mechta Bel Ouachoun",
        "children": [
            
        ]
    },
    {
        "geonameId": 2503901,
        "name": "Mechta Bou Abdallah",
        "children": [
            
        ]
    },
    {
        "geonameId": 2489671,
        "name": "Mechta Bou Rzam",
        "children": [
            
        ]
    },
    {
        "geonameId": 2489649,
        "name": "Mechta Chabet Sekouah",
        "children": [
            
        ]
    },
    {
        "geonameId": 2489623,
        "name": "Mechta Dakhla",
        "children": [
            
        ]
    },
    {
        "geonameId": 2489577,
        "name": "Mechta Foum el \u2019A\u00efn",
        "children": [
            
        ]
    },
    {
        "geonameId": 2570668,
        "name": "Mechta Kef el Ahmar",
        "children": [
            
        ]
    },
    {
        "geonameId": 2489518,
        "name": "Mechta Kemedja",
        "children": [
            
        ]
    },
    {
        "geonameId": 2489501,
        "name": "Mechta Kherba",
        "children": [
            
        ]
    },
    {
        "geonameId": 2489502,
        "name": "Mechta Kherba",
        "children": [
            
        ]
    },
    {
        "geonameId": 2489483,
        "name": "Mechta Lakhberda",
        "children": [
            
        ]
    },
    {
        "geonameId": 2489480,
        "name": "Mechta Lamamera",
        "children": [
            
        ]
    },
    {
        "geonameId": 2489479,
        "name": "Mechta Laouaska",
        "children": [
            
        ]
    },
    {
        "geonameId": 2488898,
        "name": "Mechta Laouaska",
        "children": [
            
        ]
    },
    {
        "geonameId": 2489460,
        "name": "Mechta Marjet Ben Charia",
        "children": [
            
        ]
    },
    {
        "geonameId": 2489446,
        "name": "Mechta Mekhalfa",
        "children": [
            
        ]
    },
    {
        "geonameId": 2570686,
        "name": "Mechta Mounchar",
        "children": [
            
        ]
    },
    {
        "geonameId": 2489422,
        "name": "Mechta Nouasseur",
        "children": [
            
        ]
    },
    {
        "geonameId": 2489416,
        "name": "Mechta Oued Saada",
        "children": [
            
        ]
    },
    {
        "geonameId": 2489418,
        "name": "Mechta Oued ech Cha\u00efr",
        "children": [
            
        ]
    },
    {
        "geonameId": 2489399,
        "name": "Mechta Oulad Kassem",
        "children": [
            
        ]
    },
    {
        "geonameId": 2489396,
        "name": "Mechta Oulad Khelguia",
        "children": [
            
        ]
    },
    {
        "geonameId": 2489393,
        "name": "Mechta Oulad Mehenna",
        "children": [
            
        ]
    },
    {
        "geonameId": 2489391,
        "name": "Mechta Oulad Morhem",
        "children": [
            
        ]
    },
    {
        "geonameId": 2489387,
        "name": "Mechta Oulad Ou Ameur",
        "children": [
            
        ]
    },
    {
        "geonameId": 2488888,
        "name": "Mechta Oulad ed Doud",
        "children": [
            
        ]
    },
    {
        "geonameId": 2489366,
        "name": "Mechta Ouled Ahlal",
        "children": [
            
        ]
    },
    {
        "geonameId": 2489363,
        "name": "Mechta Ouled Ahmed Ben Amor",
        "children": [
            
        ]
    },
    {
        "geonameId": 2489348,
        "name": "Mechta Ouled Bou Aziz",
        "children": [
            
        ]
    },
    {
        "geonameId": 2489346,
        "name": "Mechta Ouled Boudil",
        "children": [
            
        ]
    },
    {
        "geonameId": 2489332,
        "name": "Mechta Ouled Hachich",
        "children": [
            
        ]
    },
    {
        "geonameId": 2489331,
        "name": "Mechta Ouled Hamdou",
        "children": [
            
        ]
    },
    {
        "geonameId": 2570683,
        "name": "Mechta Ouled Ram\u00e8s",
        "children": [
            
        ]
    },
    {
        "geonameId": 2489317,
        "name": "Mechta Ouled Reguig",
        "children": [
            
        ]
    },
    {
        "geonameId": 2489313,
        "name": "Mechta Ouled Sahib",
        "children": [
            
        ]
    },
    {
        "geonameId": 2489309,
        "name": "Mechta Ouled Sidi Ali",
        "children": [
            
        ]
    },
    {
        "geonameId": 2489305,
        "name": "Mechta Ouled Tarhioult",
        "children": [
            
        ]
    },
    {
        "geonameId": 2489334,
        "name": "Mechta Ouled es Souar",
        "children": [
            
        ]
    },
    {
        "geonameId": 2489290,
        "name": "Mechta Rebaba",
        "children": [
            
        ]
    },
    {
        "geonameId": 2488875,
        "name": "Mechta Seba A\u00efoun",
        "children": [
            
        ]
    },
    {
        "geonameId": 2489199,
        "name": "Mechta Tadrart",
        "children": [
            
        ]
    },
    {
        "geonameId": 2489198,
        "name": "Mechta Tafouda",
        "children": [
            
        ]
    },
    {
        "geonameId": 2489183,
        "name": "Mechta Tannouch",
        "children": [
            
        ]
    },
    {
        "geonameId": 2489143,
        "name": "Mechta Teksra",
        "children": [
            
        ]
    },
    {
        "geonameId": 2488870,
        "name": "Mechta Teniet el Louz",
        "children": [
            
        ]
    },
    {
        "geonameId": 2488954,
        "name": "Mechta Zadia",
        "children": [
            
        ]
    },
    {
        "geonameId": 2488868,
        "name": "Mechta Zegraga",
        "children": [
            
        ]
    },
    {
        "geonameId": 2489590,
        "name": "Mechta el Hadj Douibi",
        "children": [
            
        ]
    },
    {
        "geonameId": 2489796,
        "name": "Mechta \u2019A\u00efn Mellah",
        "children": [
            
        ]
    },
    {
        "geonameId": 2508176,
        "name": "Mechta \u2019A\u00efn el Bey",
        "children": [
            
        ]
    },
    {
        "geonameId": 2489807,
        "name": "Mechta \u2019A\u00efn el Be\u00efda",
        "children": [
            
        ]
    },
    {
        "geonameId": 2489001,
        "name": "Mechtat Kef el Hammam",
        "children": [
            
        ]
    },
    {
        "geonameId": 2488973,
        "name": "Mechtat Rema\u00efl",
        "children": [
            
        ]
    },
    {
        "geonameId": 2489123,
        "name": "Mechtat el Bebouch",
        "children": [
            
        ]
    },
    {
        "geonameId": 2489119,
        "name": "Mechtat el Bir",
        "children": [
            
        ]
    },
    {
        "geonameId": 2489118,
        "name": "Mechtat el Djahli",
        "children": [
            
        ]
    },
    {
        "geonameId": 2489092,
        "name": "Mechtat el Hamama",
        "children": [
            
        ]
    },
    {
        "geonameId": 2489076,
        "name": "Mechtat el Kerakera",
        "children": [
            
        ]
    },
    {
        "geonameId": 2489063,
        "name": "Mechtat el Ma el Abiod",
        "children": [
            
        ]
    },
    {
        "geonameId": 2496934,
        "name": "Mechtat ez Zaou\u00efa",
        "children": [
            
        ]
    },
    {
        "geonameId": 2488927,
        "name": "Mechtet Ben Hamidech",
        "children": [
            
        ]
    },
    {
        "geonameId": 2488926,
        "name": "Mechtet Bir el Djedid",
        "children": [
            
        ]
    },
    {
        "geonameId": 2570665,
        "name": "Mechtet Bou Medjou",
        "children": [
            
        ]
    },
    {
        "geonameId": 2488919,
        "name": "Mechtet Chebl\u00ee",
        "children": [
            
        ]
    },
    {
        "geonameId": 2488918,
        "name": "Mechtet Dra\u2019 el Oust",
        "children": [
            
        ]
    },
    {
        "geonameId": 2488903,
        "name": "Mechtet Hadar",
        "children": [
            
        ]
    },
    {
        "geonameId": 2488902,
        "name": "Mechtet Kahal el Kro\u00fbch",
        "children": [
            
        ]
    },
    {
        "geonameId": 2488899,
        "name": "Mechtet Lablalit",
        "children": [
            
        ]
    },
    {
        "geonameId": 2488897,
        "name": "Mechtet Medani",
        "children": [
            
        ]
    },
    {
        "geonameId": 2488896,
        "name": "Mechtet Meguercha",
        "children": [
            
        ]
    },
    {
        "geonameId": 2488895,
        "name": "Mechtet Mello\u00fbl",
        "children": [
            
        ]
    },
    {
        "geonameId": 2488887,
        "name": "Mechtet Ouled Hamida",
        "children": [
            
        ]
    },
    {
        "geonameId": 2488886,
        "name": "Mechtet Ouled Rabah",
        "children": [
            
        ]
    },
    {
        "geonameId": 2488885,
        "name": "Mechtet Ouled Sayah",
        "children": [
            
        ]
    },
    {
        "geonameId": 2488884,
        "name": "Mechtet Ouled Setta",
        "children": [
            
        ]
    },
    {
        "geonameId": 2488883,
        "name": "Mechtet Ouled Si Ahmed",
        "children": [
            
        ]
    },
    {
        "geonameId": 2488882,
        "name": "Mechtet Ouled Sidi Mhammed",
        "children": [
            
        ]
    },
    {
        "geonameId": 2488881,
        "name": "Mechtet Ouled Zdira",
        "children": [
            
        ]
    },
    {
        "geonameId": 2488871,
        "name": "Mechtet Tellef",
        "children": [
            
        ]
    },
    {
        "geonameId": 2488867,
        "name": "Mechtet Zo\u00fbatna",
        "children": [
            
        ]
    },
    {
        "geonameId": 2488911,
        "name": "Mechtet el Kouana",
        "children": [
            
        ]
    },
    {
        "geonameId": 2488001,
        "name": "Merdj Moumene",
        "children": [
            
        ]
    },
    {
        "geonameId": 2487838,
        "name": "Merzeglal",
        "children": [
            
        ]
    },
    {
        "geonameId": 2487668,
        "name": "Mestham",
        "children": [
            
        ]
    },
    {
        "geonameId": 2487538,
        "name": "Mezloug",
        "children": [
            
        ]
    },
    {
        "geonameId": 2487493,
        "name": "Mguerba",
        "children": [
            
        ]
    },
    {
        "geonameId": 2485645,
        "name": "Oued Deheb",
        "children": [
            
        ]
    },
    {
        "geonameId": 2485498,
        "name": "Ougrina",
        "children": [
            
        ]
    },
    {
        "geonameId": 2485394,
        "name": "Oulad Ali",
        "children": [
            
        ]
    },
    {
        "geonameId": 2485389,
        "name": "Oulad Ali Ben Athmane",
        "children": [
            
        ]
    },
    {
        "geonameId": 2485368,
        "name": "Oulad Amor",
        "children": [
            
        ]
    },
    {
        "geonameId": 2485238,
        "name": "Oulad Khoufach",
        "children": [
            
        ]
    },
    {
        "geonameId": 2485154,
        "name": "Oulad Salem",
        "children": [
            
        ]
    },
    {
        "geonameId": 2485126,
        "name": "Oulad Sidi Kassem",
        "children": [
            
        ]
    },
    {
        "geonameId": 2485110,
        "name": "Oulad Tabet",
        "children": [
            
        ]
    },
    {
        "geonameId": 2484957,
        "name": "Ouled Bouzid",
        "children": [
            
        ]
    },
    {
        "geonameId": 2570664,
        "name": "Ouled Ferdi",
        "children": [
            
        ]
    },
    {
        "geonameId": 2484800,
        "name": "Ouled Sellem",
        "children": [
            
        ]
    },
    {
        "geonameId": 2570684,
        "name": "Ouled Sirkam",
        "children": [
            
        ]
    },
    {
        "geonameId": 2484520,
        "name": "Oum Ladjoul",
        "children": [
            
        ]
    },
    {
        "geonameId": 2495241,
        "name": "Ras el Ma",
        "children": [
            
        ]
    },
    {
        "geonameId": 2483901,
        "name": "Rayet",
        "children": [
            
        ]
    },
    {
        "geonameId": 2483918,
        "name": "R\u00e2s Isly",
        "children": [
            
        ]
    },
    {
        "geonameId": 2483958,
        "name": "R\u00e2s el Fedh",
        "children": [
            
        ]
    },
    {
        "geonameId": 2483951,
        "name": "R\u00e2s el Ma",
        "children": [
            
        ]
    },
    {
        "geonameId": 2482447,
        "name": "Salah Bey",
        "children": [
            
        ]
    },
    {
        "geonameId": 2481700,
        "name": "S\u00e9tif",
        "children": [
            
        ]
    },
    {
        "geonameId": 2478884,
        "name": "Tadjel",
        "children": [
            
        ]
    },
    {
        "geonameId": 2478311,
        "name": "Tala Yfassene",
        "children": [
            
        ]
    },
    {
        "geonameId": 2477902,
        "name": "Taourirt Arassiene",
        "children": [
            
        ]
    },
    {
        "geonameId": 2477436,
        "name": "Teboula",
        "children": [
            
        ]
    },
    {
        "geonameId": 2474685,
        "name": "Zekora",
        "children": [
            
        ]
    },
    {
        "geonameId": 2508311,
        "name": "\u2019A\u00efn Abessa",
        "children": [
            
        ]
    },
    {
        "geonameId": 2508295,
        "name": "\u2019A\u00efn Azel",
        "children": [
            
        ]
    },
    {
        "geonameId": 2508044,
        "name": "\u2019A\u00efn Khalfoun",
        "children": [
            
        ]
    },
    {
        "geonameId": 2508018,
        "name": "\u2019A\u00efn Malah",
        "children": [
            
        ]
    },
    {
        "geonameId": 2508008,
        "name": "\u2019A\u00efn Mergoum",
        "children": [
            
        ]
    },
    {
        "geonameId": 2507954,
        "name": "\u2019A\u00efn Roua",
        "children": [
            
        ]
    },
    {
        "geonameId": 2507932,
        "name": "\u2019A\u00efn Sfia",
        "children": [
            
        ]
    },
    {
        "geonameId": 2507909,
        "name": "\u2019A\u00efn Tebinet",
        "children": [
            
        ]
    },
    {
        "geonameId": 2507872,
        "name": "\u2019A\u00efn Trick",
        "children": [
            
        ]
    },
    {
        "geonameId": 2508206,
        "name": "\u2019A\u00efn el Ahdjar",
        "children": [
            
        ]
    },
    {
        "geonameId": 2508144,
        "name": "\u2019A\u00efn el Kebira",
        "children": [
            
        ]
    },
    {
        "geonameId": 2508133,
        "name": "\u2019A\u00efn el Ksar",
        "children": [
            
        ]
    }
]