[
    {
        "geonameId": 2508961,
        "name": "Ada\u00efdia",
        "children": [
            
        ]
    },
    {
        "geonameId": 2505675,
        "name": "Balloul",
        "children": [
            
        ]
    },
    {
        "geonameId": 7468796,
        "name": "Dir el Ma\u00e2za",
        "children": [
            
        ]
    },
    {
        "geonameId": 2499561,
        "name": "Douaha",
        "children": [
            
        ]
    },
    {
        "geonameId": 2576542,
        "name": "Douar el Batarna",
        "children": [
            
        ]
    },
    {
        "geonameId": 7468756,
        "name": "El Amourette",
        "children": [
            
        ]
    },
    {
        "geonameId": 7468762,
        "name": "El Amourette",
        "children": [
            
        ]
    },
    {
        "geonameId": 7468754,
        "name": "El Fouassi",
        "children": [
            
        ]
    },
    {
        "geonameId": 2498002,
        "name": "El Houmria",
        "children": [
            
        ]
    },
    {
        "geonameId": 7468875,
        "name": "El Klabra",
        "children": [
            
        ]
    },
    {
        "geonameId": 2497775,
        "name": "El Louza",
        "children": [
            
        ]
    },
    {
        "geonameId": 7468770,
        "name": "Es Sennansia",
        "children": [
            
        ]
    },
    {
        "geonameId": 2494536,
        "name": "Hammam Rabbi",
        "children": [
            
        ]
    },
    {
        "geonameId": 2492173,
        "name": "Khalfallah",
        "children": [
            
        ]
    },
    {
        "geonameId": 7468830,
        "name": "Kherichfa",
        "children": [
            
        ]
    },
    {
        "geonameId": 2490032,
        "name": "Matmoura ech Choual",
        "children": [
            
        ]
    },
    {
        "geonameId": 2488992,
        "name": "Mechtat Oulad Gada",
        "children": [
            
        ]
    },
    {
        "geonameId": 2487760,
        "name": "Messafta",
        "children": [
            
        ]
    },
    {
        "geonameId": 7468141,
        "name": "Meta\u00efmar",
        "children": [
            
        ]
    },
    {
        "geonameId": 2487140,
        "name": "Mosbah",
        "children": [
            
        ]
    },
    {
        "geonameId": 2486942,
        "name": "Moulay Larbi",
        "children": [
            
        ]
    },
    {
        "geonameId": 7468768,
        "name": "M\u2019Za\u00efn\u00efa",
        "children": [
            
        ]
    },
    {
        "geonameId": 7468815,
        "name": "Ouled Djelloul",
        "children": [
            
        ]
    },
    {
        "geonameId": 2484874,
        "name": "Ouled Khaled",
        "children": [
            
        ]
    },
    {
        "geonameId": 2484816,
        "name": "Ouled Sahrahoui",
        "children": [
            
        ]
    },
    {
        "geonameId": 7468866,
        "name": "Ouled Sidi Makhlouf",
        "children": [
            
        ]
    },
    {
        "geonameId": 2484692,
        "name": "Oum Djerane",
        "children": [
            
        ]
    },
    {
        "geonameId": 2483871,
        "name": "Rebahia",
        "children": [
            
        ]
    },
    {
        "geonameId": 2482699,
        "name": "Safene",
        "children": [
            
        ]
    },
    {
        "geonameId": 2482572,
        "name": "Sa\u00efda",
        "children": [
            
        ]
    },
    {
        "geonameId": 2481097,
        "name": "Sidi Amar",
        "children": [
            
        ]
    },
    {
        "geonameId": 2480852,
        "name": "Sidi Bou Bekeur",
        "children": [
            
        ]
    },
    {
        "geonameId": 2479544,
        "name": "Skhouna",
        "children": [
            
        ]
    },
    {
        "geonameId": 2479522,
        "name": "Slamna",
        "children": [
            
        ]
    },
    {
        "geonameId": 2478751,
        "name": "Tafraoua",
        "children": [
            
        ]
    },
    {
        "geonameId": 2478100,
        "name": "Tametit",
        "children": [
            
        ]
    },
    {
        "geonameId": 2477100,
        "name": "Tenira",
        "children": [
            
        ]
    },
    {
        "geonameId": 2576966,
        "name": "Tirdjine",
        "children": [
            
        ]
    },
    {
        "geonameId": 2475251,
        "name": "Touta",
        "children": [
            
        ]
    },
    {
        "geonameId": 2475006,
        "name": "Youb",
        "children": [
            
        ]
    },
    {
        "geonameId": 2474886,
        "name": "Zaouia",
        "children": [
            
        ]
    },
    {
        "geonameId": 7468743,
        "name": "Zoubia",
        "children": [
            
        ]
    },
    {
        "geonameId": 2508162,
        "name": "\u2019A\u00efn el Hadjar",
        "children": [
            
        ]
    }
]