[
    {
        "geonameId": 2579949,
        "name": "Adja\u00eflia",
        "children": [
            
        ]
    },
    {
        "geonameId": 7393244,
        "name": "Ain Rahma",
        "children": [
            
        ]
    },
    {
        "geonameId": 2507551,
        "name": "Ala\u00eflia",
        "children": [
            
        ]
    },
    {
        "geonameId": 2507155,
        "name": "Ammi Moussa",
        "children": [
            
        ]
    },
    {
        "geonameId": 2505259,
        "name": "Balaroui",
        "children": [
            
        ]
    },
    {
        "geonameId": 2505185,
        "name": "Belaassel Bouzagza",
        "children": [
            
        ]
    },
    {
        "geonameId": 2499519,
        "name": "Ben Daoud",
        "children": [
            
        ]
    },
    {
        "geonameId": 2579962,
        "name": "Beni Dergoun",
        "children": [
            
        ]
    },
    {
        "geonameId": 2500913,
        "name": "Beni Hachem",
        "children": [
            
        ]
    },
    {
        "geonameId": 2578138,
        "name": "Beni Yahi",
        "children": [
            
        ]
    },
    {
        "geonameId": 2503522,
        "name": "Bou Aker",
        "children": [
            
        ]
    },
    {
        "geonameId": 2503498,
        "name": "Bou Alloufa",
        "children": [
            
        ]
    },
    {
        "geonameId": 2489151,
        "name": "Bouchkour",
        "children": [
            
        ]
    },
    {
        "geonameId": 2499470,
        "name": "Brinis Jouahria",
        "children": [
            
        ]
    },
    {
        "geonameId": 2501447,
        "name": "Cherarka",
        "children": [
            
        ]
    },
    {
        "geonameId": 2579784,
        "name": "Chraitia",
        "children": [
            
        ]
    },
    {
        "geonameId": 2499348,
        "name": "Dahamenia",
        "children": [
            
        ]
    },
    {
        "geonameId": 2578821,
        "name": "Dar Ben Abdellah",
        "children": [
            
        ]
    },
    {
        "geonameId": 2492920,
        "name": "Djidiouia",
        "children": [
            
        ]
    },
    {
        "geonameId": 2499692,
        "name": "Djilali Ben Amar",
        "children": [
            
        ]
    },
    {
        "geonameId": 2581045,
        "name": "Douar Abaidia",
        "children": [
            
        ]
    },
    {
        "geonameId": 2499544,
        "name": "Douar Agoun Messaadia",
        "children": [
            
        ]
    },
    {
        "geonameId": 2498681,
        "name": "Douar Aoumria",
        "children": [
            
        ]
    },
    {
        "geonameId": 2580447,
        "name": "Douar Ayad",
        "children": [
            
        ]
    },
    {
        "geonameId": 2504941,
        "name": "Douar Ben Bel Alia",
        "children": [
            
        ]
    },
    {
        "geonameId": 2579445,
        "name": "Douar Berouague Djilali",
        "children": [
            
        ]
    },
    {
        "geonameId": 2580511,
        "name": "Douar Bouziane",
        "children": [
            
        ]
    },
    {
        "geonameId": 2579822,
        "name": "Douar Bou\u00e2azid",
        "children": [
            
        ]
    },
    {
        "geonameId": 2579490,
        "name": "Douar Chenenta",
        "children": [
            
        ]
    },
    {
        "geonameId": 2501183,
        "name": "Douar Chetounia",
        "children": [
            
        ]
    },
    {
        "geonameId": 2489638,
        "name": "Douar Chka\u00efria",
        "children": [
            
        ]
    },
    {
        "geonameId": 2501293,
        "name": "Douar Chlott",
        "children": [
            
        ]
    },
    {
        "geonameId": 2579902,
        "name": "Douar Djla\u00eflia",
        "children": [
            
        ]
    },
    {
        "geonameId": 2489145,
        "name": "Douar Douadia",
        "children": [
            
        ]
    },
    {
        "geonameId": 2580473,
        "name": "Douar Guerouan",
        "children": [
            
        ]
    },
    {
        "geonameId": 2497946,
        "name": "Douar Kenenda",
        "children": [
            
        ]
    },
    {
        "geonameId": 2490987,
        "name": "Douar Laza\u00eflia",
        "children": [
            
        ]
    },
    {
        "geonameId": 2579491,
        "name": "Douar La\u00e2rahba",
        "children": [
            
        ]
    },
    {
        "geonameId": 2580231,
        "name": "Douar Mesrati",
        "children": [
            
        ]
    },
    {
        "geonameId": 2499343,
        "name": "Douar Messa\u00e2dia",
        "children": [
            
        ]
    },
    {
        "geonameId": 2580091,
        "name": "Douar Mfathia",
        "children": [
            
        ]
    },
    {
        "geonameId": 2485136,
        "name": "Douar Mrabtine",
        "children": [
            
        ]
    },
    {
        "geonameId": 2579276,
        "name": "Douar M\u2019tateha",
        "children": [
            
        ]
    },
    {
        "geonameId": 2579503,
        "name": "Douar Ouled Abd el Kader",
        "children": [
            
        ]
    },
    {
        "geonameId": 2579973,
        "name": "Douar Ouled Abed",
        "children": [
            
        ]
    },
    {
        "geonameId": 2579040,
        "name": "Douar Ouled Adda",
        "children": [
            
        ]
    },
    {
        "geonameId": 2579380,
        "name": "Douar Ouled Ahmed",
        "children": [
            
        ]
    },
    {
        "geonameId": 2485398,
        "name": "Douar Ouled Ali",
        "children": [
            
        ]
    },
    {
        "geonameId": 2485385,
        "name": "Douar Ouled Allel",
        "children": [
            
        ]
    },
    {
        "geonameId": 2580018,
        "name": "Douar Ouled Ben Chahrour",
        "children": [
            
        ]
    },
    {
        "geonameId": 2499282,
        "name": "Douar Ouled Bouazza",
        "children": [
            
        ]
    },
    {
        "geonameId": 2579941,
        "name": "Douar Ouled Chena",
        "children": [
            
        ]
    },
    {
        "geonameId": 2580568,
        "name": "Douar Ouled Kaddour",
        "children": [
            
        ]
    },
    {
        "geonameId": 2580440,
        "name": "Douar Ouled Ouiss",
        "children": [
            
        ]
    },
    {
        "geonameId": 2485320,
        "name": "Douar Ouled Rahal",
        "children": [
            
        ]
    },
    {
        "geonameId": 2579401,
        "name": "Douar Ouled Sidi Adda",
        "children": [
            
        ]
    },
    {
        "geonameId": 2579449,
        "name": "Douar Ouled Sidi Ahmed",
        "children": [
            
        ]
    },
    {
        "geonameId": 2485124,
        "name": "Douar Ouled Sidi Mahieddine",
        "children": [
            
        ]
    },
    {
        "geonameId": 2499304,
        "name": "Douar Ouled S\u00e2ada",
        "children": [
            
        ]
    },
    {
        "geonameId": 2499311,
        "name": "Douar Ouled Tazi",
        "children": [
            
        ]
    },
    {
        "geonameId": 2579360,
        "name": "Douar Ouled el Boudali",
        "children": [
            
        ]
    },
    {
        "geonameId": 2485293,
        "name": "Douar Ouled el Djilalli",
        "children": [
            
        ]
    },
    {
        "geonameId": 2579818,
        "name": "Douar Ouled el Hadj",
        "children": [
            
        ]
    },
    {
        "geonameId": 2577217,
        "name": "Douar R\u2019Ha\u00eflia",
        "children": [
            
        ]
    },
    {
        "geonameId": 2580499,
        "name": "Douar Sahar",
        "children": [
            
        ]
    },
    {
        "geonameId": 2485161,
        "name": "Douar Saidia",
        "children": [
            
        ]
    },
    {
        "geonameId": 2580449,
        "name": "Douar Seba\u00efa",
        "children": [
            
        ]
    },
    {
        "geonameId": 2499234,
        "name": "Douar Sedjrara",
        "children": [
            
        ]
    },
    {
        "geonameId": 2580167,
        "name": "Douar Sidi Ahmed Beldjouzi",
        "children": [
            
        ]
    },
    {
        "geonameId": 2499223,
        "name": "Douar Sidi Tayeb",
        "children": [
            
        ]
    },
    {
        "geonameId": 2580564,
        "name": "Douar Slaetia",
        "children": [
            
        ]
    },
    {
        "geonameId": 2479226,
        "name": "Douar Soualmia",
        "children": [
            
        ]
    },
    {
        "geonameId": 2580257,
        "name": "Douar Teboudai",
        "children": [
            
        ]
    },
    {
        "geonameId": 2476941,
        "name": "Douar Tizarkounet",
        "children": [
            
        ]
    },
    {
        "geonameId": 2580427,
        "name": "Douar Tramil",
        "children": [
            
        ]
    },
    {
        "geonameId": 2580063,
        "name": "Douar Zaouia",
        "children": [
            
        ]
    },
    {
        "geonameId": 2578399,
        "name": "Douar el Aba\u00efdia",
        "children": [
            
        ]
    },
    {
        "geonameId": 2499460,
        "name": "Douar el Amour",
        "children": [
            
        ]
    },
    {
        "geonameId": 2579951,
        "name": "Douar el Aouchria",
        "children": [
            
        ]
    },
    {
        "geonameId": 2580189,
        "name": "Douar el Atbi",
        "children": [
            
        ]
    },
    {
        "geonameId": 2580435,
        "name": "Douar el Azza",
        "children": [
            
        ]
    },
    {
        "geonameId": 2484863,
        "name": "Douar el Dja\u00efria",
        "children": [
            
        ]
    },
    {
        "geonameId": 2579045,
        "name": "Douar el Ghouaoula",
        "children": [
            
        ]
    },
    {
        "geonameId": 2498245,
        "name": "Douar el Guradib",
        "children": [
            
        ]
    },
    {
        "geonameId": 2580438,
        "name": "Douar el Haouara",
        "children": [
            
        ]
    },
    {
        "geonameId": 2580429,
        "name": "Douar el Hessasna",
        "children": [
            
        ]
    },
    {
        "geonameId": 2579878,
        "name": "Douar el Homr",
        "children": [
            
        ]
    },
    {
        "geonameId": 2580422,
        "name": "Douar el Htaimia",
        "children": [
            
        ]
    },
    {
        "geonameId": 2580421,
        "name": "Douar el Htatba",
        "children": [
            
        ]
    },
    {
        "geonameId": 2499440,
        "name": "Douar el H\u2019djaidjia",
        "children": [
            
        ]
    },
    {
        "geonameId": 2499371,
        "name": "Douar el Kedadra",
        "children": [
            
        ]
    },
    {
        "geonameId": 2499430,
        "name": "Douar el Keha\u00eflia",
        "children": [
            
        ]
    },
    {
        "geonameId": 2579273,
        "name": "Douar el Khadem",
        "children": [
            
        ]
    },
    {
        "geonameId": 2499428,
        "name": "Douar el Khecha",
        "children": [
            
        ]
    },
    {
        "geonameId": 2489506,
        "name": "Douar el Khla\u00effia",
        "children": [
            
        ]
    },
    {
        "geonameId": 2580089,
        "name": "Douar el Khouaouna",
        "children": [
            
        ]
    },
    {
        "geonameId": 2489514,
        "name": "Douar el Kra\u00efch",
        "children": [
            
        ]
    },
    {
        "geonameId": 2580104,
        "name": "Douar el Manaicha",
        "children": [
            
        ]
    },
    {
        "geonameId": 2489056,
        "name": "Douar el Mdada",
        "children": [
            
        ]
    },
    {
        "geonameId": 2579956,
        "name": "Douar el Mdadha",
        "children": [
            
        ]
    },
    {
        "geonameId": 2499395,
        "name": "Douar ez Zerraoula",
        "children": [
            
        ]
    },
    {
        "geonameId": 2498663,
        "name": "El Aouisset",
        "children": [
            
        ]
    },
    {
        "geonameId": 2498653,
        "name": "El Ara\u00efssia",
        "children": [
            
        ]
    },
    {
        "geonameId": 2579272,
        "name": "El Aza\u00efzia",
        "children": [
            
        ]
    },
    {
        "geonameId": 2579261,
        "name": "El Beta\u00efnia",
        "children": [
            
        ]
    },
    {
        "geonameId": 2580179,
        "name": "El Ghebaria",
        "children": [
            
        ]
    },
    {
        "geonameId": 2489586,
        "name": "El Gouassem",
        "children": [
            
        ]
    },
    {
        "geonameId": 2495989,
        "name": "El Gouassem",
        "children": [
            
        ]
    },
    {
        "geonameId": 2580482,
        "name": "El Gouassem",
        "children": [
            
        ]
    },
    {
        "geonameId": 2580075,
        "name": "El Gouma\u00efzia",
        "children": [
            
        ]
    },
    {
        "geonameId": 2580540,
        "name": "El Gra\u00efnia",
        "children": [
            
        ]
    },
    {
        "geonameId": 2498092,
        "name": "El Hamri",
        "children": [
            
        ]
    },
    {
        "geonameId": 2506099,
        "name": "El Hatatba",
        "children": [
            
        ]
    },
    {
        "geonameId": 2498018,
        "name": "El Hmadena",
        "children": [
            
        ]
    },
    {
        "geonameId": 2580188,
        "name": "El Houar",
        "children": [
            
        ]
    },
    {
        "geonameId": 2579945,
        "name": "El Khda\u00efdia",
        "children": [
            
        ]
    },
    {
        "geonameId": 2497693,
        "name": "El Matmar",
        "children": [
            
        ]
    },
    {
        "geonameId": 2579715,
        "name": "Er Rmassa",
        "children": [
            
        ]
    },
    {
        "geonameId": 2580480,
        "name": "Ez Zela\u00eftia",
        "children": [
            
        ]
    },
    {
        "geonameId": 2580560,
        "name": "Ha\u00ef Kermach",
        "children": [
            
        ]
    },
    {
        "geonameId": 2499471,
        "name": "Joimsia",
        "children": [
            
        ]
    },
    {
        "geonameId": 2492800,
        "name": "Kalaa",
        "children": [
            
        ]
    },
    {
        "geonameId": 2492421,
        "name": "Kenenda",
        "children": [
            
        ]
    },
    {
        "geonameId": 2579969,
        "name": "Kheda\u00efdia",
        "children": [
            
        ]
    },
    {
        "geonameId": 2579946,
        "name": "Khoualed",
        "children": [
            
        ]
    },
    {
        "geonameId": 2580489,
        "name": "Laamamria",
        "children": [
            
        ]
    },
    {
        "geonameId": 2491172,
        "name": "Lahlef",
        "children": [
            
        ]
    },
    {
        "geonameId": 2580524,
        "name": "Lahmar",
        "children": [
            
        ]
    },
    {
        "geonameId": 2578413,
        "name": "Lebbaker",
        "children": [
            
        ]
    },
    {
        "geonameId": 2489073,
        "name": "Leghra\u00efb",
        "children": [
            
        ]
    },
    {
        "geonameId": 2580395,
        "name": "Louhaba",
        "children": [
            
        ]
    },
    {
        "geonameId": 2579781,
        "name": "Maziz",
        "children": [
            
        ]
    },
    {
        "geonameId": 2489987,
        "name": "Mazouna",
        "children": [
            
        ]
    },
    {
        "geonameId": 2489560,
        "name": "Mechta Grouzia",
        "children": [
            
        ]
    },
    {
        "geonameId": 2489428,
        "name": "Mechta Moussa Beloufa",
        "children": [
            
        ]
    },
    {
        "geonameId": 2489415,
        "name": "Mechta Oulad Adda",
        "children": [
            
        ]
    },
    {
        "geonameId": 2580065,
        "name": "Mechtat Kedadra",
        "children": [
            
        ]
    },
    {
        "geonameId": 2580541,
        "name": "Mechtat Nouaria",
        "children": [
            
        ]
    },
    {
        "geonameId": 2580542,
        "name": "Mechtat Ouled Mustapha",
        "children": [
            
        ]
    },
    {
        "geonameId": 2579875,
        "name": "Mechtat Souamia",
        "children": [
            
        ]
    },
    {
        "geonameId": 2580401,
        "name": "Mechtat Touama",
        "children": [
            
        ]
    },
    {
        "geonameId": 2489139,
        "name": "Mechtat el Affanis",
        "children": [
            
        ]
    },
    {
        "geonameId": 2579880,
        "name": "Mechtat el Bouachria",
        "children": [
            
        ]
    },
    {
        "geonameId": 2489112,
        "name": "Mechtat el Dra\u00efmia",
        "children": [
            
        ]
    },
    {
        "geonameId": 2580583,
        "name": "Mechtat el Hla\u00efmia",
        "children": [
            
        ]
    },
    {
        "geonameId": 2580399,
        "name": "Mechtat el Mehedia",
        "children": [
            
        ]
    },
    {
        "geonameId": 2580402,
        "name": "Mechtat el Mzaaria",
        "children": [
            
        ]
    },
    {
        "geonameId": 2488803,
        "name": "Mediouna",
        "children": [
            
        ]
    },
    {
        "geonameId": 2488428,
        "name": "Melaab",
        "children": [
            
        ]
    },
    {
        "geonameId": 2488156,
        "name": "Mendes",
        "children": [
            {
                "geonameId": 7417418,
                "name": "Bou Ma\u00e2za",
                "children": [
                    
                ]
            }
        ]
    },
    {
        "geonameId": 2499353,
        "name": "Mgadid",
        "children": [
            
        ]
    },
    {
        "geonameId": 2578406,
        "name": "Morsli",
        "children": [
            
        ]
    },
    {
        "geonameId": 2499346,
        "name": "Msabhia",
        "children": [
            
        ]
    },
    {
        "geonameId": 2580709,
        "name": "Nekkakaa",
        "children": [
            
        ]
    },
    {
        "geonameId": 2485789,
        "name": "Ouarizane",
        "children": [
            
        ]
    },
    {
        "geonameId": 2485621,
        "name": "Oued Essalem",
        "children": [
            
        ]
    },
    {
        "geonameId": 2485582,
        "name": "Oued Rhiou",
        "children": [
            
        ]
    },
    {
        "geonameId": 2485630,
        "name": "Oued el Djemaa",
        "children": [
            
        ]
    },
    {
        "geonameId": 2485205,
        "name": "Oulad Meziane",
        "children": [
            
        ]
    },
    {
        "geonameId": 2485128,
        "name": "Oulad Sidi el Arbi",
        "children": [
            
        ]
    },
    {
        "geonameId": 2485113,
        "name": "Oulad Sma\u00efn",
        "children": [
            
        ]
    },
    {
        "geonameId": 2499306,
        "name": "Oulad ou Ali",
        "children": [
            
        ]
    },
    {
        "geonameId": 2579873,
        "name": "Ouled Abed",
        "children": [
            
        ]
    },
    {
        "geonameId": 2580516,
        "name": "Ouled Ahmed",
        "children": [
            
        ]
    },
    {
        "geonameId": 2485005,
        "name": "Ouled Aiche",
        "children": [
            
        ]
    },
    {
        "geonameId": 2580517,
        "name": "Ouled Arif",
        "children": [
            
        ]
    },
    {
        "geonameId": 2484990,
        "name": "Ouled Ben Abd er Rehim",
        "children": [
            
        ]
    },
    {
        "geonameId": 2579701,
        "name": "Ouled Bendouda",
        "children": [
            
        ]
    },
    {
        "geonameId": 2489582,
        "name": "Ouled Berrached",
        "children": [
            
        ]
    },
    {
        "geonameId": 2484936,
        "name": "Ouled Defeltene",
        "children": [
            
        ]
    },
    {
        "geonameId": 2579705,
        "name": "Ouled Mohamed",
        "children": [
            
        ]
    },
    {
        "geonameId": 2580551,
        "name": "Ouled Mohamed Ben Arbi",
        "children": [
            
        ]
    },
    {
        "geonameId": 2484843,
        "name": "Ouled Mohammed",
        "children": [
            
        ]
    },
    {
        "geonameId": 2499261,
        "name": "Ouled Mohammed",
        "children": [
            
        ]
    },
    {
        "geonameId": 2579790,
        "name": "Ouled Nhar",
        "children": [
            
        ]
    },
    {
        "geonameId": 2579845,
        "name": "Ouled Rafa\u00e2",
        "children": [
            
        ]
    },
    {
        "geonameId": 2579947,
        "name": "Ouled Snoussi",
        "children": [
            
        ]
    },
    {
        "geonameId": 2499516,
        "name": "Ouled el Habibi",
        "children": [
            
        ]
    },
    {
        "geonameId": 2484006,
        "name": "Ramka",
        "children": [
            
        ]
    },
    {
        "geonameId": 2483668,
        "name": "Relizane",
        "children": [
            {
                "geonameId": 2580215,
                "name": "Village Espagnol",
                "children": [
                    
                ]
            },
            {
                "geonameId": 2580216,
                "name": "Village Negre",
                "children": [
                    
                ]
            }
        ]
    },
    {
        "geonameId": 2579787,
        "name": "R\u2019Ka\u00efkia",
        "children": [
            
        ]
    },
    {
        "geonameId": 2571296,
        "name": "Semmar",
        "children": [
            
        ]
    },
    {
        "geonameId": 2481831,
        "name": "Senhadja",
        "children": [
            
        ]
    },
    {
        "geonameId": 2481627,
        "name": "Siafa",
        "children": [
            
        ]
    },
    {
        "geonameId": 2480338,
        "name": "Sidi Khetab",
        "children": [
            
        ]
    },
    {
        "geonameId": 7417368,
        "name": "Sidi Lazreg",
        "children": [
            
        ]
    },
    {
        "geonameId": 2480164,
        "name": "Sidi Mohamed Benaouda",
        "children": [
            
        ]
    },
    {
        "geonameId": 2480166,
        "name": "Sidi M\u2019Hamed Ben Ali",
        "children": [
            
        ]
    },
    {
        "geonameId": 2478440,
        "name": "Takhemaret",
        "children": [
            
        ]
    },
    {
        "geonameId": 2578154,
        "name": "Tnafir",
        "children": [
            
        ]
    },
    {
        "geonameId": 2578130,
        "name": "Touaitia",
        "children": [
            
        ]
    },
    {
        "geonameId": 2475084,
        "name": "Village des Oulad Lakhedar",
        "children": [
            
        ]
    },
    {
        "geonameId": 2490822,
        "name": "Yellel",
        "children": [
            
        ]
    },
    {
        "geonameId": 2579938,
        "name": "Zagoug",
        "children": [
            
        ]
    },
    {
        "geonameId": 2474638,
        "name": "Zemoura",
        "children": [
            
        ]
    },
    {
        "geonameId": 2580559,
        "name": "Zena\u00efnia",
        "children": [
            
        ]
    },
    {
        "geonameId": 2580362,
        "name": "Zga\u00efr",
        "children": [
            
        ]
    },
    {
        "geonameId": 2579251,
        "name": "Zia\u00efnia",
        "children": [
            
        ]
    },
    {
        "geonameId": 2508010,
        "name": "\u2019A\u00efn Merane",
        "children": [
            
        ]
    },
    {
        "geonameId": 2508153,
        "name": "\u2019A\u00efn el Hammam",
        "children": [
            
        ]
    }
]