[
    {
        "geonameId": 2508287,
        "name": "A\u00efn Be\u00efda",
        "children": [
            
        ]
    },
    {
        "geonameId": 2573244,
        "name": "A\u00efn Djasser",
        "children": [
            
        ]
    },
    {
        "geonameId": 2508102,
        "name": "A\u00efn Fakroun",
        "children": [
            
        ]
    },
    {
        "geonameId": 2508059,
        "name": "A\u00efn Kercha",
        "children": [
            
        ]
    },
    {
        "geonameId": 2508057,
        "name": "A\u00efn Kerma",
        "children": [
            
        ]
    },
    {
        "geonameId": 2508002,
        "name": "A\u00efn M\u2019Lila",
        "children": [
            
        ]
    },
    {
        "geonameId": 2504107,
        "name": "Berriche",
        "children": [
            
        ]
    },
    {
        "geonameId": 2503890,
        "name": "Bir Cheham",
        "children": [
            
        ]
    },
    {
        "geonameId": 2503889,
        "name": "Bir Chouhada",
        "children": [
            
        ]
    },
    {
        "geonameId": 2570502,
        "name": "Bir Draaes Souk",
        "children": [
            
        ]
    },
    {
        "geonameId": 2503864,
        "name": "Bir er Ra\u00efane",
        "children": [
            
        ]
    },
    {
        "geonameId": 2503679,
        "name": "Bordj du Ca\u00efd",
        "children": [
            
        ]
    },
    {
        "geonameId": 2502665,
        "name": "Boumaza",
        "children": [
            
        ]
    },
    {
        "geonameId": 2501886,
        "name": "Chabane",
        "children": [
            
        ]
    },
    {
        "geonameId": 2500919,
        "name": "Dar Belkhir Salah",
        "children": [
            
        ]
    },
    {
        "geonameId": 2500853,
        "name": "Dar Mohammed Salah",
        "children": [
            
        ]
    },
    {
        "geonameId": 2500406,
        "name": "Dib Mohammed Tahar",
        "children": [
            
        ]
    },
    {
        "geonameId": 2498667,
        "name": "El Aouinet",
        "children": [
            
        ]
    },
    {
        "geonameId": 2496401,
        "name": "F\u2019Kirina",
        "children": [
            
        ]
    },
    {
        "geonameId": 9212660,
        "name": "Henchir Zirara",
        "children": [
            
        ]
    },
    {
        "geonameId": 2492679,
        "name": "Kasba Ben Guelouh",
        "children": [
            
        ]
    },
    {
        "geonameId": 2491338,
        "name": "Ksar Bagha\u00ef",
        "children": [
            
        ]
    },
    {
        "geonameId": 2491300,
        "name": "Ksar Sbahi",
        "children": [
            
        ]
    },
    {
        "geonameId": 2489786,
        "name": "Mechta Ali Ben Ta\u00efb",
        "children": [
            
        ]
    },
    {
        "geonameId": 2489771,
        "name": "Mechta Argoub el Bey",
        "children": [
            
        ]
    },
    {
        "geonameId": 2489758,
        "name": "Mechta Barania",
        "children": [
            
        ]
    },
    {
        "geonameId": 2489755,
        "name": "Mechta Bazina",
        "children": [
            
        ]
    },
    {
        "geonameId": 2489726,
        "name": "Mechta Ben Midouna",
        "children": [
            
        ]
    },
    {
        "geonameId": 2489716,
        "name": "Mechta Bh\u00eer ech Chergu\u00ee",
        "children": [
            
        ]
    },
    {
        "geonameId": 2489704,
        "name": "Mechta Bir Ra\u00efane",
        "children": [
            
        ]
    },
    {
        "geonameId": 2489709,
        "name": "Mechta Bir el Askria",
        "children": [
            
        ]
    },
    {
        "geonameId": 2489707,
        "name": "Mechta Bir el Menntene",
        "children": [
            
        ]
    },
    {
        "geonameId": 2489653,
        "name": "Mechta Chabet ez Zaouch",
        "children": [
            
        ]
    },
    {
        "geonameId": 2489639,
        "name": "Mechta Che\u00efkh Raba",
        "children": [
            
        ]
    },
    {
        "geonameId": 2489626,
        "name": "Mechta Daas",
        "children": [
            
        ]
    },
    {
        "geonameId": 2489625,
        "name": "Mechta Dahrat el Attab",
        "children": [
            
        ]
    },
    {
        "geonameId": 2489619,
        "name": "Mechta Darhar",
        "children": [
            
        ]
    },
    {
        "geonameId": 2489617,
        "name": "Mechta Dekhla",
        "children": [
            
        ]
    },
    {
        "geonameId": 2489609,
        "name": "Mechta Djebabirah",
        "children": [
            
        ]
    },
    {
        "geonameId": 2489571,
        "name": "Mechta Gabel Sembra",
        "children": [
            
        ]
    },
    {
        "geonameId": 2489570,
        "name": "Mechta Gabel Tarbennt",
        "children": [
            
        ]
    },
    {
        "geonameId": 2489573,
        "name": "Mechta Gabel el Attab",
        "children": [
            
        ]
    },
    {
        "geonameId": 2489558,
        "name": "Mechta Guebel Zebar",
        "children": [
            
        ]
    },
    {
        "geonameId": 2489559,
        "name": "Mechta Guebel el Aks",
        "children": [
            
        ]
    },
    {
        "geonameId": 2489556,
        "name": "Mechta Gueltet Moura",
        "children": [
            
        ]
    },
    {
        "geonameId": 2489554,
        "name": "Mechta Guern Ahmar",
        "children": [
            
        ]
    },
    {
        "geonameId": 2489546,
        "name": "Mechta Hadjar Tellal",
        "children": [
            
        ]
    },
    {
        "geonameId": 2489537,
        "name": "Mechta Hennchir Chabout",
        "children": [
            
        ]
    },
    {
        "geonameId": 2489536,
        "name": "Mechta Hennchir Rettat",
        "children": [
            
        ]
    },
    {
        "geonameId": 2489531,
        "name": "Mechta Kabouch",
        "children": [
            
        ]
    },
    {
        "geonameId": 2570506,
        "name": "Mechta Kef el Hassi",
        "children": [
            
        ]
    },
    {
        "geonameId": 2589454,
        "name": "Mechta Lemr\u00e2ouna",
        "children": [
            
        ]
    },
    {
        "geonameId": 2489455,
        "name": "Mechta Mazoula",
        "children": [
            
        ]
    },
    {
        "geonameId": 2489456,
        "name": "Mechta Mazoula",
        "children": [
            
        ]
    },
    {
        "geonameId": 2489453,
        "name": "Mechta Mdareg Narou",
        "children": [
            
        ]
    },
    {
        "geonameId": 2489454,
        "name": "Mechta Mdareg Narou",
        "children": [
            
        ]
    },
    {
        "geonameId": 2489439,
        "name": "Mechta Messa\u00efef",
        "children": [
            
        ]
    },
    {
        "geonameId": 2489420,
        "name": "Mechta Ouebel Draa el Mekhazene",
        "children": [
            
        ]
    },
    {
        "geonameId": 2489417,
        "name": "Mechta Oued el Klab",
        "children": [
            
        ]
    },
    {
        "geonameId": 2489403,
        "name": "Mechta Oulad Djelila",
        "children": [
            
        ]
    },
    {
        "geonameId": 2489400,
        "name": "Mechta Oulad Hazem",
        "children": [
            
        ]
    },
    {
        "geonameId": 2489390,
        "name": "Mechta Oulad Nasseur",
        "children": [
            
        ]
    },
    {
        "geonameId": 2593181,
        "name": "Mechta Oulad Nou\u00ef",
        "children": [
            
        ]
    },
    {
        "geonameId": 2589498,
        "name": "Mechta Ouled Chehamer",
        "children": [
            
        ]
    },
    {
        "geonameId": 2489310,
        "name": "Mechta Ouled Sellem",
        "children": [
            
        ]
    },
    {
        "geonameId": 2489300,
        "name": "Mechta Ragouba",
        "children": [
            
        ]
    },
    {
        "geonameId": 2489298,
        "name": "Mechta Ramadia",
        "children": [
            
        ]
    },
    {
        "geonameId": 2489278,
        "name": "Mechta Rharbi Aklia",
        "children": [
            
        ]
    },
    {
        "geonameId": 2489276,
        "name": "Mechta Rharbi el Merra",
        "children": [
            
        ]
    },
    {
        "geonameId": 2593177,
        "name": "Mechta Rm\u00eela",
        "children": [
            
        ]
    },
    {
        "geonameId": 2489296,
        "name": "Mechta R\u00e2s Beridj",
        "children": [
            
        ]
    },
    {
        "geonameId": 2489292,
        "name": "Mechta R\u00e2s Oulmene",
        "children": [
            
        ]
    },
    {
        "geonameId": 2489295,
        "name": "Mechta R\u00e2s el Hassi",
        "children": [
            
        ]
    },
    {
        "geonameId": 2489252,
        "name": "Mechta Safel Metirchou el Foukani",
        "children": [
            
        ]
    },
    {
        "geonameId": 2489250,
        "name": "Mechta Safel Touzelt",
        "children": [
            
        ]
    },
    {
        "geonameId": 2489256,
        "name": "Mechta Safel el Be\u00efda",
        "children": [
            
        ]
    },
    {
        "geonameId": 2489255,
        "name": "Mechta Safel el Bir",
        "children": [
            
        ]
    },
    {
        "geonameId": 2489254,
        "name": "Mechta Safel el Hassi",
        "children": [
            
        ]
    },
    {
        "geonameId": 2489253,
        "name": "Mechta Safel el Malah",
        "children": [
            
        ]
    },
    {
        "geonameId": 2489231,
        "name": "Mechta Sfar Srhir",
        "children": [
            
        ]
    },
    {
        "geonameId": 2488944,
        "name": "Mechta Zerdaba",
        "children": [
            
        ]
    },
    {
        "geonameId": 2488942,
        "name": "Mechta Zitouna",
        "children": [
            
        ]
    },
    {
        "geonameId": 2489811,
        "name": "Mechta \u2019A\u00efn Diss",
        "children": [
            
        ]
    },
    {
        "geonameId": 2489802,
        "name": "Mechta \u2019A\u00efn Guemel",
        "children": [
            
        ]
    },
    {
        "geonameId": 2489799,
        "name": "Mechta \u2019A\u00efn Kesk\u00eas",
        "children": [
            
        ]
    },
    {
        "geonameId": 2489794,
        "name": "Mechta \u2019A\u00efn M\u2019Khalfa",
        "children": [
            
        ]
    },
    {
        "geonameId": 2489810,
        "name": "Mechta \u2019A\u00efn ed Dis",
        "children": [
            
        ]
    },
    {
        "geonameId": 2489809,
        "name": "Mechta \u2019A\u00efn el Barani",
        "children": [
            
        ]
    },
    {
        "geonameId": 2489191,
        "name": "Mechtat A\u00efoun el Be\u00efd",
        "children": [
            
        ]
    },
    {
        "geonameId": 2489174,
        "name": "Mechtat Bekakhia",
        "children": [
            
        ]
    },
    {
        "geonameId": 2489167,
        "name": "Mechtat Bir el Arbi",
        "children": [
            
        ]
    },
    {
        "geonameId": 2489160,
        "name": "Mechtat Djenane Ahmed",
        "children": [
            
        ]
    },
    {
        "geonameId": 2489158,
        "name": "Mechtat Draa Snouber",
        "children": [
            
        ]
    },
    {
        "geonameId": 2489159,
        "name": "Mechtat Draa el Akhbal",
        "children": [
            
        ]
    },
    {
        "geonameId": 2489014,
        "name": "Mechtat Guebel el Fedjidjet",
        "children": [
            
        ]
    },
    {
        "geonameId": 2489000,
        "name": "Mechtat Khatala",
        "children": [
            
        ]
    },
    {
        "geonameId": 2488998,
        "name": "Mechtat Maklouf",
        "children": [
            
        ]
    },
    {
        "geonameId": 2488996,
        "name": "Mechtat Merah et Tarfa",
        "children": [
            
        ]
    },
    {
        "geonameId": 2488987,
        "name": "Mechtat Ouled Atmane",
        "children": [
            
        ]
    },
    {
        "geonameId": 2489347,
        "name": "Mechtat Ouled Bou Denn",
        "children": [
            
        ]
    },
    {
        "geonameId": 2488986,
        "name": "Mechtat Ouled Brik",
        "children": [
            
        ]
    },
    {
        "geonameId": 2488982,
        "name": "Mechtat Ouled Rharbi",
        "children": [
            
        ]
    },
    {
        "geonameId": 2488980,
        "name": "Mechtat Ouled Yahia",
        "children": [
            
        ]
    },
    {
        "geonameId": 2488969,
        "name": "Mechtat Safel Metirchou el Outani",
        "children": [
            
        ]
    },
    {
        "geonameId": 2489117,
        "name": "Mechtat el Djama",
        "children": [
            
        ]
    },
    {
        "geonameId": 2489105,
        "name": "Mechtat el Gouissa",
        "children": [
            
        ]
    },
    {
        "geonameId": 2489075,
        "name": "Mechtat el Kerma",
        "children": [
            
        ]
    },
    {
        "geonameId": 2489072,
        "name": "Mechtat el Khannfoussa",
        "children": [
            
        ]
    },
    {
        "geonameId": 2489069,
        "name": "Mechtat el Ksar",
        "children": [
            
        ]
    },
    {
        "geonameId": 2489055,
        "name": "Mechtat el Mechtab",
        "children": [
            
        ]
    },
    {
        "geonameId": 2489054,
        "name": "Mechtat el Medjerah",
        "children": [
            
        ]
    },
    {
        "geonameId": 2489046,
        "name": "Mechtat el Merabtine",
        "children": [
            
        ]
    },
    {
        "geonameId": 2489045,
        "name": "Mechtat el Merouani",
        "children": [
            
        ]
    },
    {
        "geonameId": 2489031,
        "name": "Mechtat er Raf Raf",
        "children": [
            
        ]
    },
    {
        "geonameId": 2489028,
        "name": "Mechtat er Reguida",
        "children": [
            
        ]
    },
    {
        "geonameId": 2489021,
        "name": "Mechtat es Saharis",
        "children": [
            
        ]
    },
    {
        "geonameId": 2489017,
        "name": "Mechtat ez Zaaroura",
        "children": [
            
        ]
    },
    {
        "geonameId": 2488906,
        "name": "Mechtet Garet el Baghla",
        "children": [
            
        ]
    },
    {
        "geonameId": 2488877,
        "name": "Mechtet Remadiat el Metirchou",
        "children": [
            
        ]
    },
    {
        "geonameId": 2593183,
        "name": "Mechtet el Fedj",
        "children": [
            
        ]
    },
    {
        "geonameId": 2593182,
        "name": "Mechtet el Harmelia",
        "children": [
            
        ]
    },
    {
        "geonameId": 2487805,
        "name": "Meskiana",
        "children": [
            
        ]
    },
    {
        "geonameId": 2487791,
        "name": "Meslo\u00fbla",
        "children": [
            
        ]
    },
    {
        "geonameId": 2487549,
        "name": "Meziani",
        "children": [
            
        ]
    },
    {
        "geonameId": 2589497,
        "name": "Mzouzia",
        "children": [
            
        ]
    },
    {
        "geonameId": 2489942,
        "name": "M\u2019Chira",
        "children": [
            
        ]
    },
    {
        "geonameId": 2484620,
        "name": "Oum el Bouaghi",
        "children": [
            
        ]
    },
    {
        "geonameId": 2484095,
        "name": "Rahia",
        "children": [
            
        ]
    },
    {
        "geonameId": 2483052,
        "name": "Remada",
        "children": [
            
        ]
    },
    {
        "geonameId": 2479596,
        "name": "Sigus",
        "children": [
            
        ]
    },
    {
        "geonameId": 2508293,
        "name": "\u2019A\u00efn Babouche",
        "children": [
            
        ]
    },
    {
        "geonameId": 2508172,
        "name": "\u2019A\u00efn el Bordj",
        "children": [
            
        ]
    }
]