[
    {
        "geonameId": 2506582,
        "name": "Areg Gamra",
        "children": [
            
        ]
    },
    {
        "geonameId": 2506074,
        "name": "Ayata",
        "children": [
            
        ]
    },
    {
        "geonameId": 2504455,
        "name": "Ben Nasseur",
        "children": [
            
        ]
    },
    {
        "geonameId": 2504659,
        "name": "Beni Isouid",
        "children": [
            
        ]
    },
    {
        "geonameId": 2504552,
        "name": "Beni Thour",
        "children": [
            
        ]
    },
    {
        "geonameId": 2504001,
        "name": "Betteka",
        "children": [
            
        ]
    },
    {
        "geonameId": 2503763,
        "name": "Blidet Amor",
        "children": [
            
        ]
    },
    {
        "geonameId": 2502495,
        "name": "Bour el A\u00efcha",
        "children": [
            
        ]
    },
    {
        "geonameId": 2502063,
        "name": "Bram",
        "children": [
            
        ]
    },
    {
        "geonameId": 2501620,
        "name": "Chegguet el Fta\u00efet",
        "children": [
            
        ]
    },
    {
        "geonameId": 2501497,
        "name": "Chemoura",
        "children": [
            
        ]
    },
    {
        "geonameId": 2501284,
        "name": "Chott",
        "children": [
            
        ]
    },
    {
        "geonameId": 2501107,
        "name": "Daglet Lagrouba",
        "children": [
            
        ]
    },
    {
        "geonameId": 2500282,
        "name": "Djamaa",
        "children": [
            
        ]
    },
    {
        "geonameId": 2498899,
        "name": "Ed Dlilia",
        "children": [
            
        ]
    },
    {
        "geonameId": 2498722,
        "name": "El Alia",
        "children": [
            
        ]
    },
    {
        "geonameId": 2498457,
        "name": "El Bour",
        "children": [
            
        ]
    },
    {
        "geonameId": 2498289,
        "name": "El Goug",
        "children": [
            
        ]
    },
    {
        "geonameId": 2498172,
        "name": "El Hadjira",
        "children": [
            
        ]
    },
    {
        "geonameId": 2498057,
        "name": "El Harihira",
        "children": [
            
        ]
    },
    {
        "geonameId": 2497864,
        "name": "El Khobna",
        "children": [
            
        ]
    },
    {
        "geonameId": 2497791,
        "name": "El Ksour",
        "children": [
            
        ]
    },
    {
        "geonameId": 2497397,
        "name": "El Ouibed",
        "children": [
            
        ]
    },
    {
        "geonameId": 2496991,
        "name": "Et Tine",
        "children": [
            
        ]
    },
    {
        "geonameId": 2494278,
        "name": "Haoud el Hamra",
        "children": [
            
        ]
    },
    {
        "geonameId": 2494029,
        "name": "Hassi Messaoud",
        "children": [
            
        ]
    },
    {
        "geonameId": 2492548,
        "name": "Kedima",
        "children": [
            
        ]
    },
    {
        "geonameId": 2490357,
        "name": "Maison Verte",
        "children": [
            
        ]
    },
    {
        "geonameId": 2488716,
        "name": "Megarine",
        "children": [
            
        ]
    },
    {
        "geonameId": 2487311,
        "name": "Mnagueur",
        "children": [
            
        ]
    },
    {
        "geonameId": 2487299,
        "name": "Moggar",
        "children": [
            
        ]
    },
    {
        "geonameId": 2486174,
        "name": "N\u2019Goussa",
        "children": [
            
        ]
    },
    {
        "geonameId": 2485801,
        "name": "Ouargla",
        "children": [
            {
                "geonameId": 2503689,
                "name": "Bordj Chandez",
                "children": [
                    
                ]
            }
        ]
    },
    {
        "geonameId": 2484533,
        "name": "Oum ez Zebed",
        "children": [
            
        ]
    },
    {
        "geonameId": 2484372,
        "name": "Ourhlana",
        "children": [
            
        ]
    },
    {
        "geonameId": 2482886,
        "name": "Rouissat",
        "children": [
            {
                "geonameId": 2503644,
                "name": "Bordj Lutaud",
                "children": [
                    
                ]
            }
        ]
    },
    {
        "geonameId": 2481058,
        "name": "Sidi Amrane",
        "children": [
            
        ]
    },
    {
        "geonameId": 2479890,
        "name": "Sidi Rached",
        "children": [
            
        ]
    },
    {
        "geonameId": 2479799,
        "name": "Sidi Slimane",
        "children": [
            
        ]
    },
    {
        "geonameId": 2479721,
        "name": "Sidi Yahia",
        "children": [
            
        ]
    },
    {
        "geonameId": 2478374,
        "name": "Tala",
        "children": [
            
        ]
    },
    {
        "geonameId": 2478160,
        "name": "Tamellaht",
        "children": [
            
        ]
    },
    {
        "geonameId": 2478131,
        "name": "Tamerna Djedida",
        "children": [
            
        ]
    },
    {
        "geonameId": 2478130,
        "name": "Tamerna Kedima",
        "children": [
            
        ]
    },
    {
        "geonameId": 2478509,
        "name": "Ta\u00efbet",
        "children": [
            
        ]
    },
    {
        "geonameId": 2478507,
        "name": "Ta\u00efbine",
        "children": [
            
        ]
    },
    {
        "geonameId": 2477462,
        "name": "Tebesbest",
        "children": [
            
        ]
    },
    {
        "geonameId": 2477215,
        "name": "Temacine",
        "children": [
            
        ]
    },
    {
        "geonameId": 2476686,
        "name": "Tiguedidine",
        "children": [
            
        ]
    },
    {
        "geonameId": 2475475,
        "name": "Touggourt",
        "children": [
            
        ]
    },
    {
        "geonameId": 2474887,
        "name": "Zaouia",
        "children": [
            
        ]
    },
    {
        "geonameId": 2508186,
        "name": "\u2019A\u00efn el Be\u00efda",
        "children": [
            
        ]
    }
]