[
    {
        "geonameId": 2506321,
        "name": "Asla",
        "children": [
            
        ]
    },
    {
        "geonameId": 2507943,
        "name": "A\u00efn Sefra",
        "children": [
            
        ]
    },
    {
        "geonameId": 2482727,
        "name": "Chegga Sadana",
        "children": [
            
        ]
    },
    {
        "geonameId": 2499837,
        "name": "Djeniene Bou Rezg",
        "children": [
            
        ]
    },
    {
        "geonameId": 2498489,
        "name": "El Biod",
        "children": [
            
        ]
    },
    {
        "geonameId": 2498026,
        "name": "El Hendjir",
        "children": [
            
        ]
    },
    {
        "geonameId": 2497965,
        "name": "El Kasdir",
        "children": [
            
        ]
    },
    {
        "geonameId": 2496355,
        "name": "Forthassa Rharbia",
        "children": [
            
        ]
    },
    {
        "geonameId": 2489865,
        "name": "Mecheria",
        "children": [
            
        ]
    },
    {
        "geonameId": 2488573,
        "name": "Mekalis",
        "children": [
            
        ]
    },
    {
        "geonameId": 2488487,
        "name": "Mekmene Ben Amar",
        "children": [
            
        ]
    },
    {
        "geonameId": 2487297,
        "name": "Moghrar",
        "children": [
            
        ]
    },
    {
        "geonameId": 2487179,
        "name": "Moghtar Tahtani",
        "children": [
            
        ]
    },
    {
        "geonameId": 2486523,
        "name": "Naama",
        "children": [
            
        ]
    },
    {
        "geonameId": 2481645,
        "name": "Sfissifa",
        "children": [
            
        ]
    },
    {
        "geonameId": 2476032,
        "name": "Tiout",
        "children": [
            
        ]
    },
    {
        "geonameId": 2475570,
        "name": "Touadjeur",
        "children": [
            
        ]
    },
    {
        "geonameId": 2508272,
        "name": "\u2019A\u00efn Ben Khelil",
        "children": [
            
        ]
    }
]