[
    {
        "geonameId": 2508157,
        "name": "Ain el Hadjel",
        "children": [
            
        ]
    },
    {
        "geonameId": 2507649,
        "name": "Akba Safra",
        "children": [
            
        ]
    },
    {
        "geonameId": 2508349,
        "name": "A\u00efchouch",
        "children": [
            
        ]
    },
    {
        "geonameId": 2507844,
        "name": "A\u00efoun Allah",
        "children": [
            
        ]
    },
    {
        "geonameId": 2507845,
        "name": "A\u00efoun A\u00efcha",
        "children": [
            
        ]
    },
    {
        "geonameId": 2507742,
        "name": "A\u00eft Ikhlef",
        "children": [
            
        ]
    },
    {
        "geonameId": 2507701,
        "name": "A\u00eft Sidi Ahmed Ou Ali",
        "children": [
            
        ]
    },
    {
        "geonameId": 2505661,
        "name": "Baniou",
        "children": [
            
        ]
    },
    {
        "geonameId": 2505519,
        "name": "Bechilga",
        "children": [
            
        ]
    },
    {
        "geonameId": 2505255,
        "name": "Bel Aroug",
        "children": [
            
        ]
    },
    {
        "geonameId": 2505278,
        "name": "Bel A\u00efba",
        "children": [
            
        ]
    },
    {
        "geonameId": 2504392,
        "name": "Ben Saoucha",
        "children": [
            
        ]
    },
    {
        "geonameId": 2504359,
        "name": "Ben S\u2019Rour",
        "children": [
            
        ]
    },
    {
        "geonameId": 2504257,
        "name": "Benzouh",
        "children": [
            
        ]
    },
    {
        "geonameId": 2504175,
        "name": "Berhoum",
        "children": [
            
        ]
    },
    {
        "geonameId": 2503949,
        "name": "Bichara",
        "children": [
            
        ]
    },
    {
        "geonameId": 2503862,
        "name": "Bir Fodda",
        "children": [
            
        ]
    },
    {
        "geonameId": 2503859,
        "name": "Bir Ghellalia",
        "children": [
            
        ]
    },
    {
        "geonameId": 2503855,
        "name": "Bir Hanate",
        "children": [
            
        ]
    },
    {
        "geonameId": 2503854,
        "name": "Bir Heni",
        "children": [
            
        ]
    },
    {
        "geonameId": 2503837,
        "name": "Bir Roube\u00ef",
        "children": [
            
        ]
    },
    {
        "geonameId": 2503832,
        "name": "Bir Souid",
        "children": [
            
        ]
    },
    {
        "geonameId": 2503881,
        "name": "Bir el Arbi",
        "children": [
            
        ]
    },
    {
        "geonameId": 2503871,
        "name": "Bir el Hamia",
        "children": [
            
        ]
    },
    {
        "geonameId": 2503870,
        "name": "Bir el Keraa",
        "children": [
            
        ]
    },
    {
        "geonameId": 2503869,
        "name": "Bir el Khoubbana",
        "children": [
            
        ]
    },
    {
        "geonameId": 2503638,
        "name": "Bordj Mezarzou",
        "children": [
            
        ]
    },
    {
        "geonameId": 2503631,
        "name": "Bordj Oultem",
        "children": [
            
        ]
    },
    {
        "geonameId": 2503668,
        "name": "Bordj el Ca\u00efd",
        "children": [
            
        ]
    },
    {
        "geonameId": 2503489,
        "name": "Bou Amoud",
        "children": [
            
        ]
    },
    {
        "geonameId": 2503169,
        "name": "Bou Ferdjoun",
        "children": [
            
        ]
    },
    {
        "geonameId": 2503053,
        "name": "Bou Hamadou",
        "children": [
            
        ]
    },
    {
        "geonameId": 2502784,
        "name": "Bou Kremissa",
        "children": [
            
        ]
    },
    {
        "geonameId": 2502649,
        "name": "Bou Mellal",
        "children": [
            
        ]
    },
    {
        "geonameId": 2502512,
        "name": "Bou Rebza",
        "children": [
            
        ]
    },
    {
        "geonameId": 2502385,
        "name": "Bou Sa\u00e2da",
        "children": [
            
        ]
    },
    {
        "geonameId": 2502291,
        "name": "Boustila",
        "children": [
            
        ]
    },
    {
        "geonameId": 2583198,
        "name": "Chabet Zaou\u00efa",
        "children": [
            
        ]
    },
    {
        "geonameId": 2501529,
        "name": "Chellal",
        "children": [
            
        ]
    },
    {
        "geonameId": 2501187,
        "name": "Chria",
        "children": [
            
        ]
    },
    {
        "geonameId": 2500927,
        "name": "Dar A\u00efssa",
        "children": [
            
        ]
    },
    {
        "geonameId": 2500838,
        "name": "Dar Roumi",
        "children": [
            
        ]
    },
    {
        "geonameId": 2500884,
        "name": "Dar el Bey",
        "children": [
            
        ]
    },
    {
        "geonameId": 2500876,
        "name": "Dar el Hamada",
        "children": [
            
        ]
    },
    {
        "geonameId": 2500518,
        "name": "Dermel",
        "children": [
            
        ]
    },
    {
        "geonameId": 2500454,
        "name": "Diar Cheraga",
        "children": [
            
        ]
    },
    {
        "geonameId": 2500450,
        "name": "Diar Lemdjadat",
        "children": [
            
        ]
    },
    {
        "geonameId": 2500453,
        "name": "Diar el Anga",
        "children": [
            
        ]
    },
    {
        "geonameId": 2500452,
        "name": "Diar el Be\u00efdat",
        "children": [
            
        ]
    },
    {
        "geonameId": 2500206,
        "name": "Djebbanet Slib",
        "children": [
            
        ]
    },
    {
        "geonameId": 2499580,
        "name": "Dokkara",
        "children": [
            
        ]
    },
    {
        "geonameId": 2499455,
        "name": "Douar el Are\u00efb",
        "children": [
            
        ]
    },
    {
        "geonameId": 2498902,
        "name": "Eddis",
        "children": [
            
        ]
    },
    {
        "geonameId": 2498717,
        "name": "El Alleg",
        "children": [
            
        ]
    },
    {
        "geonameId": 2498668,
        "name": "El Aouinat",
        "children": [
            
        ]
    },
    {
        "geonameId": 2498493,
        "name": "El Biada",
        "children": [
            
        ]
    },
    {
        "geonameId": 2498421,
        "name": "El Djen\u00e2ne",
        "children": [
            
        ]
    },
    {
        "geonameId": 2498125,
        "name": "El Hamel",
        "children": [
            
        ]
    },
    {
        "geonameId": 2498105,
        "name": "El Hammam",
        "children": [
            
        ]
    },
    {
        "geonameId": 2498075,
        "name": "El Haouch",
        "children": [
            
        ]
    },
    {
        "geonameId": 2498007,
        "name": "El Houachi",
        "children": [
            
        ]
    },
    {
        "geonameId": 2497832,
        "name": "El Koucha",
        "children": [
            
        ]
    },
    {
        "geonameId": 2497430,
        "name": "El Otsmane",
        "children": [
            
        ]
    },
    {
        "geonameId": 2497330,
        "name": "El Rhezala",
        "children": [
            
        ]
    },
    {
        "geonameId": 2497279,
        "name": "En Nakhla",
        "children": [
            
        ]
    },
    {
        "geonameId": 2497133,
        "name": "Er Rouabah",
        "children": [
            
        ]
    },
    {
        "geonameId": 2497076,
        "name": "Es Sebt R\u00e2s ed Deba",
        "children": [
            
        ]
    },
    {
        "geonameId": 2496989,
        "name": "Et Tleta",
        "children": [
            
        ]
    },
    {
        "geonameId": 2496985,
        "name": "Et Tolba",
        "children": [
            
        ]
    },
    {
        "geonameId": 2496982,
        "name": "Et Touablia",
        "children": [
            
        ]
    },
    {
        "geonameId": 2583185,
        "name": "Ez Zloua",
        "children": [
            
        ]
    },
    {
        "geonameId": 2496560,
        "name": "Fercha",
        "children": [
            
        ]
    },
    {
        "geonameId": 2494551,
        "name": "Hammam Dalaa",
        "children": [
            
        ]
    },
    {
        "geonameId": 2494070,
        "name": "Hassi Ben Madjeb",
        "children": [
            
        ]
    },
    {
        "geonameId": 2491682,
        "name": "Khoualfia",
        "children": [
            
        ]
    },
    {
        "geonameId": 2491253,
        "name": "Ksour",
        "children": [
            
        ]
    },
    {
        "geonameId": 2486690,
        "name": "M'Sila",
        "children": [
            
        ]
    },
    {
        "geonameId": 2490572,
        "name": "Magra",
        "children": [
            
        ]
    },
    {
        "geonameId": 2489848,
        "name": "Mechra el Brikate",
        "children": [
            
        ]
    },
    {
        "geonameId": 2489830,
        "name": "Mechta Aadik",
        "children": [
            
        ]
    },
    {
        "geonameId": 2489774,
        "name": "Mechta Aouich",
        "children": [
            
        ]
    },
    {
        "geonameId": 2489728,
        "name": "Mechta Ben Mehdi",
        "children": [
            
        ]
    },
    {
        "geonameId": 2489717,
        "name": "Mechta Bezeria",
        "children": [
            
        ]
    },
    {
        "geonameId": 2489682,
        "name": "Mechta Bouira",
        "children": [
            
        ]
    },
    {
        "geonameId": 2489678,
        "name": "Mechta Boulila",
        "children": [
            
        ]
    },
    {
        "geonameId": 2489663,
        "name": "Mechta Brabra",
        "children": [
            
        ]
    },
    {
        "geonameId": 2489659,
        "name": "Mechta Braktias",
        "children": [
            
        ]
    },
    {
        "geonameId": 2489658,
        "name": "Mechta Bribri",
        "children": [
            
        ]
    },
    {
        "geonameId": 2489637,
        "name": "Mechta Cheki",
        "children": [
            
        ]
    },
    {
        "geonameId": 2489630,
        "name": "Mechta Chir",
        "children": [
            
        ]
    },
    {
        "geonameId": 2489629,
        "name": "Mechta Chorfa",
        "children": [
            
        ]
    },
    {
        "geonameId": 2489620,
        "name": "Mechta Dar el Be\u00efda",
        "children": [
            
        ]
    },
    {
        "geonameId": 2489618,
        "name": "Mechta Debil",
        "children": [
            
        ]
    },
    {
        "geonameId": 2489611,
        "name": "Mechta Dialem",
        "children": [
            
        ]
    },
    {
        "geonameId": 2489601,
        "name": "Mechta Djessassia",
        "children": [
            
        ]
    },
    {
        "geonameId": 2489557,
        "name": "Mechta Gueberdella",
        "children": [
            
        ]
    },
    {
        "geonameId": 2489548,
        "name": "Mechta Hacham",
        "children": [
            
        ]
    },
    {
        "geonameId": 2489541,
        "name": "Mechta Hamani",
        "children": [
            
        ]
    },
    {
        "geonameId": 2489522,
        "name": "Mechta Kassari",
        "children": [
            
        ]
    },
    {
        "geonameId": 2489492,
        "name": "Mechta Laafia",
        "children": [
            
        ]
    },
    {
        "geonameId": 2489491,
        "name": "Mechta Laalatma",
        "children": [
            
        ]
    },
    {
        "geonameId": 2489488,
        "name": "Mechta Lachouaf",
        "children": [
            
        ]
    },
    {
        "geonameId": 2489485,
        "name": "Mechta Lahouabib",
        "children": [
            
        ]
    },
    {
        "geonameId": 2489484,
        "name": "Mechta Lakakla",
        "children": [
            
        ]
    },
    {
        "geonameId": 2489472,
        "name": "Mechta Loudani",
        "children": [
            
        ]
    },
    {
        "geonameId": 2489471,
        "name": "Mechta Louzazna",
        "children": [
            
        ]
    },
    {
        "geonameId": 2489470,
        "name": "Mechta Maadit",
        "children": [
            
        ]
    },
    {
        "geonameId": 2489469,
        "name": "Mechta Maatit",
        "children": [
            
        ]
    },
    {
        "geonameId": 2489468,
        "name": "Mechta Maaza",
        "children": [
            
        ]
    },
    {
        "geonameId": 2489443,
        "name": "Mechta Merabaa",
        "children": [
            
        ]
    },
    {
        "geonameId": 2489442,
        "name": "Mechta Merabtine",
        "children": [
            
        ]
    },
    {
        "geonameId": 2489441,
        "name": "Mechta Merachda",
        "children": [
            
        ]
    },
    {
        "geonameId": 2489429,
        "name": "Mechta Monis",
        "children": [
            
        ]
    },
    {
        "geonameId": 2489421,
        "name": "Mechta Nouidrat",
        "children": [
            
        ]
    },
    {
        "geonameId": 2489419,
        "name": "Mechta Oued Aouicha",
        "children": [
            
        ]
    },
    {
        "geonameId": 2489405,
        "name": "Mechta Oulad Daoud",
        "children": [
            
        ]
    },
    {
        "geonameId": 2488988,
        "name": "Mechta Ouled Ali Ben Zid",
        "children": [
            
        ]
    },
    {
        "geonameId": 2489355,
        "name": "Mechta Ouled Atia",
        "children": [
            
        ]
    },
    {
        "geonameId": 2489354,
        "name": "Mechta Ouled Attia",
        "children": [
            
        ]
    },
    {
        "geonameId": 2489341,
        "name": "Mechta Ouled Brahim",
        "children": [
            
        ]
    },
    {
        "geonameId": 2489328,
        "name": "Mechta Ouled Mbarek",
        "children": [
            
        ]
    },
    {
        "geonameId": 2489325,
        "name": "Mechta Ouled Meha\u00efa",
        "children": [
            
        ]
    },
    {
        "geonameId": 2489318,
        "name": "Mechta Ouled Nouioua",
        "children": [
            
        ]
    },
    {
        "geonameId": 2485052,
        "name": "Mechta Ouled Oulha",
        "children": [
            
        ]
    },
    {
        "geonameId": 2489312,
        "name": "Mechta Ouled Salem",
        "children": [
            
        ]
    },
    {
        "geonameId": 2489281,
        "name": "Mechta Remadnia",
        "children": [
            
        ]
    },
    {
        "geonameId": 2489266,
        "name": "Mechta Roubia",
        "children": [
            
        ]
    },
    {
        "geonameId": 2489264,
        "name": "Mechta Rouissa",
        "children": [
            
        ]
    },
    {
        "geonameId": 2489243,
        "name": "Mechta Sa\u00efda",
        "children": [
            
        ]
    },
    {
        "geonameId": 2489235,
        "name": "Mechta Sekkoumia",
        "children": [
            
        ]
    },
    {
        "geonameId": 2489227,
        "name": "Mechta Sidi Bel Kassem",
        "children": [
            
        ]
    },
    {
        "geonameId": 2489592,
        "name": "Mechta el Aouassa",
        "children": [
            
        ]
    },
    {
        "geonameId": 2489171,
        "name": "Mechtat Ben el Rharbi",
        "children": [
            
        ]
    },
    {
        "geonameId": 2489164,
        "name": "Mechtat Dahmane el A\u00efd",
        "children": [
            
        ]
    },
    {
        "geonameId": 2488991,
        "name": "Mechtat Oulad Gana Ben Sa\u00efeh",
        "children": [
            
        ]
    },
    {
        "geonameId": 2488989,
        "name": "Mechtat Ouled Ali",
        "children": [
            
        ]
    },
    {
        "geonameId": 2488970,
        "name": "Mechtat Rokbet es Salem",
        "children": [
            
        ]
    },
    {
        "geonameId": 2488975,
        "name": "Mechtat R\u00e2s el KiFane",
        "children": [
            
        ]
    },
    {
        "geonameId": 2489146,
        "name": "Mechtat ed Dir",
        "children": [
            
        ]
    },
    {
        "geonameId": 2489135,
        "name": "Mechtat el Aoua\u00efez",
        "children": [
            
        ]
    },
    {
        "geonameId": 2489132,
        "name": "Mechtat el Aradia",
        "children": [
            
        ]
    },
    {
        "geonameId": 2489103,
        "name": "Mechtat el Gourene",
        "children": [
            
        ]
    },
    {
        "geonameId": 2489095,
        "name": "Mechtat el Hadjeres",
        "children": [
            
        ]
    },
    {
        "geonameId": 2489071,
        "name": "Mechtat el Kill",
        "children": [
            
        ]
    },
    {
        "geonameId": 2489038,
        "name": "Mechtat el Ousfane",
        "children": [
            
        ]
    },
    {
        "geonameId": 2489037,
        "name": "Mechtat el Rhil",
        "children": [
            
        ]
    },
    {
        "geonameId": 2489029,
        "name": "Mechtat er Regata",
        "children": [
            
        ]
    },
    {
        "geonameId": 2564808,
        "name": "Mechtet Dialem",
        "children": [
            
        ]
    },
    {
        "geonameId": 2564809,
        "name": "Mechtet el Krerba",
        "children": [
            
        ]
    },
    {
        "geonameId": 2564810,
        "name": "Mechtet et Tiffrent",
        "children": [
            
        ]
    },
    {
        "geonameId": 2488780,
        "name": "Medjedel",
        "children": [
            
        ]
    },
    {
        "geonameId": 2488267,
        "name": "Meliane",
        "children": [
            
        ]
    },
    {
        "geonameId": 2488179,
        "name": "Mena\u00effa",
        "children": [
            
        ]
    },
    {
        "geonameId": 2486572,
        "name": "Mzaret el Radja\u00ef",
        "children": [
            
        ]
    },
    {
        "geonameId": 2486541,
        "name": "Mzouria",
        "children": [
            
        ]
    },
    {
        "geonameId": 2486500,
        "name": "Nadja",
        "children": [
            
        ]
    },
    {
        "geonameId": 2485803,
        "name": "Ouarassene",
        "children": [
            
        ]
    },
    {
        "geonameId": 2485529,
        "name": "Ouerta\u00efa",
        "children": [
            
        ]
    },
    {
        "geonameId": 2485061,
        "name": "Ouled Abari",
        "children": [
            
        ]
    },
    {
        "geonameId": 2485050,
        "name": "Ouled Adi Lagballa",
        "children": [
            
        ]
    },
    {
        "geonameId": 2485008,
        "name": "Ouled Atfaya",
        "children": [
            
        ]
    },
    {
        "geonameId": 2485000,
        "name": "Ouled Barik",
        "children": [
            
        ]
    },
    {
        "geonameId": 2485002,
        "name": "Ouled Ba\u00efa",
        "children": [
            
        ]
    },
    {
        "geonameId": 2484999,
        "name": "Ouled Bedira",
        "children": [
            
        ]
    },
    {
        "geonameId": 2484998,
        "name": "Ouled Be\u00efa",
        "children": [
            
        ]
    },
    {
        "geonameId": 2484967,
        "name": "Ouled Bou Akeur",
        "children": [
            
        ]
    },
    {
        "geonameId": 2484955,
        "name": "Ouled Brahim",
        "children": [
            
        ]
    },
    {
        "geonameId": 2484956,
        "name": "Ouled Brahim",
        "children": [
            
        ]
    },
    {
        "geonameId": 2484948,
        "name": "Ouled Brebeb",
        "children": [
            
        ]
    },
    {
        "geonameId": 2484939,
        "name": "Ouled Cherifa",
        "children": [
            
        ]
    },
    {
        "geonameId": 2484878,
        "name": "Ouled Helf",
        "children": [
            
        ]
    },
    {
        "geonameId": 2484857,
        "name": "Ouled Mannsour",
        "children": [
            
        ]
    },
    {
        "geonameId": 2484810,
        "name": "Ouled Salah",
        "children": [
            
        ]
    },
    {
        "geonameId": 2484788,
        "name": "Ouled Sidi Makhlouf",
        "children": [
            
        ]
    },
    {
        "geonameId": 2484758,
        "name": "Ouled Zlehala",
        "children": [
            
        ]
    },
    {
        "geonameId": 2484740,
        "name": "Oultem Ouled Salah",
        "children": [
            
        ]
    },
    {
        "geonameId": 2484085,
        "name": "Rahmane",
        "children": [
            
        ]
    },
    {
        "geonameId": 2484935,
        "name": "Selmane",
        "children": [
            
        ]
    },
    {
        "geonameId": 2481246,
        "name": "Sidi A\u00efssa",
        "children": [
            
        ]
    },
    {
        "geonameId": 2481213,
        "name": "Sidi A\u00efssa Ben Moulahoum",
        "children": [
            
        ]
    },
    {
        "geonameId": 2480429,
        "name": "Sidi Hadjres",
        "children": [
            
        ]
    },
    {
        "geonameId": 2479511,
        "name": "Slim",
        "children": [
            
        ]
    },
    {
        "geonameId": 2477715,
        "name": "Tarmount",
        "children": [
            
        ]
    },
    {
        "geonameId": 2476650,
        "name": "Tihamamine",
        "children": [
            
        ]
    },
    {
        "geonameId": 2475057,
        "name": "Yahia Lehouas",
        "children": [
            
        ]
    },
    {
        "geonameId": 2508060,
        "name": "\u2019A\u00efn Kelba",
        "children": [
            
        ]
    },
    {
        "geonameId": 2508046,
        "name": "\u2019A\u00efn Khadra",
        "children": [
            
        ]
    },
    {
        "geonameId": 2508041,
        "name": "\u2019A\u00efn Khermane",
        "children": [
            
        ]
    },
    {
        "geonameId": 2508038,
        "name": "\u2019A\u00efn Khoumies",
        "children": [
            
        ]
    },
    {
        "geonameId": 2507988,
        "name": "\u2019A\u00efn Nakhar",
        "children": [
            
        ]
    },
    {
        "geonameId": 2507977,
        "name": "\u2019A\u00efn Oum Chemel",
        "children": [
            
        ]
    },
    {
        "geonameId": 2507961,
        "name": "\u2019A\u00efn Rhezal",
        "children": [
            
        ]
    },
    {
        "geonameId": 2507908,
        "name": "\u2019A\u00efn Teboucha",
        "children": [
            
        ]
    },
    {
        "geonameId": 2507898,
        "name": "\u2019A\u00efn Temsa",
        "children": [
            
        ]
    },
    {
        "geonameId": 2507858,
        "name": "\u2019A\u00efn Zia",
        "children": [
            
        ]
    },
    {
        "geonameId": 2508149,
        "name": "\u2019A\u00efn el Hanech",
        "children": [
            
        ]
    },
    {
        "geonameId": 2508136,
        "name": "\u2019A\u00efn el Khachba",
        "children": [
            
        ]
    },
    {
        "geonameId": 2508130,
        "name": "\u2019A\u00efn el Melh",
        "children": [
            
        ]
    },
    {
        "geonameId": 2508109,
        "name": "\u2019A\u00efn es Smara",
        "children": [
            
        ]
    },
    {
        "geonameId": 2508106,
        "name": "\u2019A\u00efn et Teboucha",
        "children": [
            
        ]
    }
]