[
    {
        "geonameId": 2508431,
        "name": "Ahmed Rachedi",
        "children": [
            
        ]
    },
    {
        "geonameId": 2506038,
        "name": "Azeba",
        "children": [
            
        ]
    },
    {
        "geonameId": 2508335,
        "name": "A\u00efdem",
        "children": [
            
        ]
    },
    {
        "geonameId": 2507892,
        "name": "A\u00efn Tinn",
        "children": [
            
        ]
    },
    {
        "geonameId": 2505871,
        "name": "Baba Ali",
        "children": [
            
        ]
    },
    {
        "geonameId": 2504690,
        "name": "Beni Guecha",
        "children": [
            
        ]
    },
    {
        "geonameId": 2504295,
        "name": "Benyahia Abderrahmane",
        "children": [
            
        ]
    },
    {
        "geonameId": 2503772,
        "name": "Bled Youssef",
        "children": [
            
        ]
    },
    {
        "geonameId": 2503703,
        "name": "Bordj Ben Zeggouta",
        "children": [
            
        ]
    },
    {
        "geonameId": 2503702,
        "name": "Bordj Bou Akkaz",
        "children": [
            
        ]
    },
    {
        "geonameId": 2503696,
        "name": "Bordj Bou Lakkhas Ben Gannah",
        "children": [
            
        ]
    },
    {
        "geonameId": 2503649,
        "name": "Bordj Kara\u00efa",
        "children": [
            
        ]
    },
    {
        "geonameId": 2503624,
        "name": "Bordj Sidi Hassein",
        "children": [
            
        ]
    },
    {
        "geonameId": 2503622,
        "name": "Bordj Tiaoumine",
        "children": [
            
        ]
    },
    {
        "geonameId": 2503158,
        "name": "Bou Fourh",
        "children": [
            
        ]
    },
    {
        "geonameId": 2502679,
        "name": "Bou Malek",
        "children": [
            
        ]
    },
    {
        "geonameId": 2590669,
        "name": "Caf\u00e9 Maure",
        "children": [
            
        ]
    },
    {
        "geonameId": 2501541,
        "name": "Chelghoum el A\u00efd",
        "children": [
            
        ]
    },
    {
        "geonameId": 2501135,
        "name": "Coulmiers",
        "children": [
            
        ]
    },
    {
        "geonameId": 2500778,
        "name": "Debbache el Hadj Douadi",
        "children": [
            
        ]
    },
    {
        "geonameId": 2497718,
        "name": "El Mala",
        "children": [
            
        ]
    },
    {
        "geonameId": 2496681,
        "name": "Fedj M\u2019Zala",
        "children": [
            
        ]
    },
    {
        "geonameId": 2496531,
        "name": "Ferdoua",
        "children": [
            
        ]
    },
    {
        "geonameId": 2495846,
        "name": "Grarem",
        "children": [
            
        ]
    },
    {
        "geonameId": 2495842,
        "name": "Gravelotte",
        "children": [
            
        ]
    },
    {
        "geonameId": 2494732,
        "name": "Hamala",
        "children": [
            
        ]
    },
    {
        "geonameId": 2492512,
        "name": "Kef Ha\u00efed",
        "children": [
            
        ]
    },
    {
        "geonameId": 2508263,
        "name": "Mechta A\u00efn Bouchdirah",
        "children": [
            
        ]
    },
    {
        "geonameId": 2489761,
        "name": "Mechta Babaraba",
        "children": [
            
        ]
    },
    {
        "geonameId": 2489712,
        "name": "Mechta Bir Berkach",
        "children": [
            
        ]
    },
    {
        "geonameId": 2489691,
        "name": "Mechta Bou Charef",
        "children": [
            
        ]
    },
    {
        "geonameId": 2489690,
        "name": "Mechta Bou Chokouf",
        "children": [
            
        ]
    },
    {
        "geonameId": 2489689,
        "name": "Mechta Bou Djerar",
        "children": [
            
        ]
    },
    {
        "geonameId": 2489676,
        "name": "Mechta Bou Maaraf",
        "children": [
            
        ]
    },
    {
        "geonameId": 2489644,
        "name": "Mechta Charef",
        "children": [
            
        ]
    },
    {
        "geonameId": 2489627,
        "name": "Mechta Chouf",
        "children": [
            
        ]
    },
    {
        "geonameId": 2489615,
        "name": "Mechta Derfoul",
        "children": [
            
        ]
    },
    {
        "geonameId": 2489551,
        "name": "Mechta Guettara",
        "children": [
            
        ]
    },
    {
        "geonameId": 2489539,
        "name": "Mechta Hassi Feroudj",
        "children": [
            
        ]
    },
    {
        "geonameId": 2489521,
        "name": "Mechta Kebira",
        "children": [
            
        ]
    },
    {
        "geonameId": 2489517,
        "name": "Mechta Kermouda",
        "children": [
            
        ]
    },
    {
        "geonameId": 2489512,
        "name": "Mechta Khallouta",
        "children": [
            
        ]
    },
    {
        "geonameId": 2489500,
        "name": "Mechta Khibsa",
        "children": [
            
        ]
    },
    {
        "geonameId": 2489452,
        "name": "Mechta Mebdouar",
        "children": [
            
        ]
    },
    {
        "geonameId": 2489434,
        "name": "Mechta Mirah",
        "children": [
            
        ]
    },
    {
        "geonameId": 2489413,
        "name": "Mechta Oulad A\u00efssa",
        "children": [
            
        ]
    },
    {
        "geonameId": 2489380,
        "name": "Mechta Oulad Salah",
        "children": [
            
        ]
    },
    {
        "geonameId": 2489301,
        "name": "Mechta Oum el Hadjel",
        "children": [
            
        ]
    },
    {
        "geonameId": 2489297,
        "name": "Mechta Ramdane",
        "children": [
            
        ]
    },
    {
        "geonameId": 2489288,
        "name": "Mechta Redjas",
        "children": [
            
        ]
    },
    {
        "geonameId": 2489262,
        "name": "Mechta Saada",
        "children": [
            
        ]
    },
    {
        "geonameId": 2489249,
        "name": "Mechta Safsafa",
        "children": [
            
        ]
    },
    {
        "geonameId": 2489228,
        "name": "Mechta Sidi Bel A\u00efd",
        "children": [
            
        ]
    },
    {
        "geonameId": 2489210,
        "name": "Mechta Smara",
        "children": [
            
        ]
    },
    {
        "geonameId": 2489201,
        "name": "Mechta Tabesbast",
        "children": [
            
        ]
    },
    {
        "geonameId": 2489011,
        "name": "Mechta Tiberguent",
        "children": [
            
        ]
    },
    {
        "geonameId": 2489003,
        "name": "Mechta Tissouil",
        "children": [
            
        ]
    },
    {
        "geonameId": 2488946,
        "name": "Mechta Zera\u00efa",
        "children": [
            
        ]
    },
    {
        "geonameId": 2570481,
        "name": "Mechta el Fessiki",
        "children": [
            
        ]
    },
    {
        "geonameId": 2489818,
        "name": "Mechta \u2019A\u00efn Ammar",
        "children": [
            
        ]
    },
    {
        "geonameId": 2489800,
        "name": "Mechta \u2019A\u00efn Keda\u00efne",
        "children": [
            
        ]
    },
    {
        "geonameId": 2489797,
        "name": "Mechta \u2019A\u00efn Mehboub",
        "children": [
            
        ]
    },
    {
        "geonameId": 2508127,
        "name": "Mechta \u2019A\u00efn el Msad",
        "children": [
            
        ]
    },
    {
        "geonameId": 2573837,
        "name": "Mechtat Beni Hameidane",
        "children": [
            
        ]
    },
    {
        "geonameId": 2489162,
        "name": "Mechtat Darsoun",
        "children": [
            
        ]
    },
    {
        "geonameId": 2489395,
        "name": "Mechtat Oulad Iala",
        "children": [
            
        ]
    },
    {
        "geonameId": 2489154,
        "name": "Mechtat ech Charf",
        "children": [
            
        ]
    },
    {
        "geonameId": 2489148,
        "name": "Mechtat ed Da\u00efa",
        "children": [
            
        ]
    },
    {
        "geonameId": 2489141,
        "name": "Mechtat el Abiat",
        "children": [
            
        ]
    },
    {
        "geonameId": 2489129,
        "name": "Mechtat el Arsa",
        "children": [
            
        ]
    },
    {
        "geonameId": 2489121,
        "name": "Mechtat el Biar",
        "children": [
            
        ]
    },
    {
        "geonameId": 2489108,
        "name": "Mechtat el Gabel",
        "children": [
            
        ]
    },
    {
        "geonameId": 2489107,
        "name": "Mechtat el Ganntara",
        "children": [
            
        ]
    },
    {
        "geonameId": 2573906,
        "name": "Mechtat el Hamma",
        "children": [
            
        ]
    },
    {
        "geonameId": 2489090,
        "name": "Mechtat el Hammam",
        "children": [
            
        ]
    },
    {
        "geonameId": 2573843,
        "name": "Mechtat el Haouima",
        "children": [
            
        ]
    },
    {
        "geonameId": 2489084,
        "name": "Mechtat el Heubal",
        "children": [
            
        ]
    },
    {
        "geonameId": 2489080,
        "name": "Mechtat el Kef",
        "children": [
            
        ]
    },
    {
        "geonameId": 2489049,
        "name": "Mechtat el Melah",
        "children": [
            
        ]
    },
    {
        "geonameId": 2489044,
        "name": "Mechtat el Meroudj",
        "children": [
            
        ]
    },
    {
        "geonameId": 2489030,
        "name": "Mechtat er Rasfa",
        "children": [
            
        ]
    },
    {
        "geonameId": 2487452,
        "name": "Mila",
        "children": [
            
        ]
    },
    {
        "geonameId": 2487231,
        "name": "Mokhtar",
        "children": [
            
        ]
    },
    {
        "geonameId": 2485661,
        "name": "Oued Athmenia",
        "children": [
            
        ]
    },
    {
        "geonameId": 2484802,
        "name": "Oued Seguin",
        "children": [
            
        ]
    },
    {
        "geonameId": 2484887,
        "name": "Ouled Hamla",
        "children": [
            
        ]
    },
    {
        "geonameId": 2484823,
        "name": "Ouled Rahmoun",
        "children": [
            
        ]
    },
    {
        "geonameId": 2576285,
        "name": "Platri\u00e8re",
        "children": [
            
        ]
    },
    {
        "geonameId": 2483806,
        "name": "Redjas",
        "children": [
            
        ]
    },
    {
        "geonameId": 2483401,
        "name": "Rhebala",
        "children": [
            
        ]
    },
    {
        "geonameId": 2482939,
        "name": "Rouached",
        "children": [
            
        ]
    },
    {
        "geonameId": 2481787,
        "name": "Seragna",
        "children": [
            
        ]
    },
    {
        "geonameId": 2481567,
        "name": "Sidi Abd el \u2019Az\u00eez",
        "children": [
            
        ]
    },
    {
        "geonameId": 2480356,
        "name": "Sidi Khalifa",
        "children": [
            
        ]
    },
    {
        "geonameId": 2480198,
        "name": "Sidi M\u00e9rouane",
        "children": [
            
        ]
    },
    {
        "geonameId": 2479827,
        "name": "Sidi Salah",
        "children": [
            
        ]
    },
    {
        "geonameId": 2479582,
        "name": "Siliana",
        "children": [
            
        ]
    },
    {
        "geonameId": 2478876,
        "name": "Tadjenanet",
        "children": [
            
        ]
    },
    {
        "geonameId": 2478785,
        "name": "Taferast",
        "children": [
            
        ]
    },
    {
        "geonameId": 2477391,
        "name": "Tedrart",
        "children": [
            
        ]
    },
    {
        "geonameId": 2477255,
        "name": "Telerghma",
        "children": [
            
        ]
    },
    {
        "geonameId": 2476878,
        "name": "Tiberguent",
        "children": [
            
        ]
    },
    {
        "geonameId": 2474586,
        "name": "Zera\u00efa",
        "children": [
            
        ]
    },
    {
        "geonameId": 2508145,
        "name": "\u2019A\u00efn el Kebch",
        "children": [
            
        ]
    }
]