[
    {
        "geonameId": 2509180,
        "name": "Abd el Malek Ramdane",
        "children": [
            
        ]
    },
    {
        "geonameId": 2573771,
        "name": "Achasta",
        "children": [
            
        ]
    },
    {
        "geonameId": 2580363,
        "name": "Ahmed Bel Hadj",
        "children": [
            
        ]
    },
    {
        "geonameId": 2581069,
        "name": "Amamia",
        "children": [
            
        ]
    },
    {
        "geonameId": 2508260,
        "name": "A\u00efn Boudinar",
        "children": [
            
        ]
    },
    {
        "geonameId": 2507986,
        "name": "A\u00efn Nouissy",
        "children": [
            
        ]
    },
    {
        "geonameId": 2507928,
        "name": "A\u00efn Sidi Ch\u00e9lif",
        "children": [
            {
                "geonameId": 7392091,
                "name": "Ha\u00ef el Djebel",
                "children": [
                    
                ]
            }
        ]
    },
    {
        "geonameId": 2507907,
        "name": "A\u00efn Tedeles",
        "children": [
            
        ]
    },
    {
        "geonameId": 2499511,
        "name": "Beni Yahi",
        "children": [
            
        ]
    },
    {
        "geonameId": 2499505,
        "name": "Bilouma",
        "children": [
            
        ]
    },
    {
        "geonameId": 2503088,
        "name": "Bouguirat",
        "children": [
            
        ]
    },
    {
        "geonameId": 2501534,
        "name": "Chelif Plage",
        "children": [
            
        ]
    },
    {
        "geonameId": 2499486,
        "name": "Chnegliah",
        "children": [
            
        ]
    },
    {
        "geonameId": 2499483,
        "name": "Chouiria",
        "children": [
            
        ]
    },
    {
        "geonameId": 2501111,
        "name": "Dadas",
        "children": [
            
        ]
    },
    {
        "geonameId": 2578650,
        "name": "Dar Amar Ben Aoua",
        "children": [
            
        ]
    },
    {
        "geonameId": 2573880,
        "name": "Djebabra",
        "children": [
            
        ]
    },
    {
        "geonameId": 2581054,
        "name": "Dnednia",
        "children": [
            
        ]
    },
    {
        "geonameId": 2579636,
        "name": "Douar Beka\u00efria",
        "children": [
            
        ]
    },
    {
        "geonameId": 2578667,
        "name": "Douar Bekhedda",
        "children": [
            
        ]
    },
    {
        "geonameId": 2573809,
        "name": "Douar Bel Ghoul",
        "children": [
            
        ]
    },
    {
        "geonameId": 2499522,
        "name": "Douar Bel Khe\u00efr",
        "children": [
            
        ]
    },
    {
        "geonameId": 2581160,
        "name": "Douar Beldjema\u00e2",
        "children": [
            
        ]
    },
    {
        "geonameId": 2505177,
        "name": "Douar Belhadri",
        "children": [
            
        ]
    },
    {
        "geonameId": 2581038,
        "name": "Douar Belkayous",
        "children": [
            
        ]
    },
    {
        "geonameId": 2499521,
        "name": "Douar Bellevue",
        "children": [
            
        ]
    },
    {
        "geonameId": 2580319,
        "name": "Douar Ben Agga",
        "children": [
            
        ]
    },
    {
        "geonameId": 2580630,
        "name": "Douar Ben Mokhtar",
        "children": [
            
        ]
    },
    {
        "geonameId": 2499520,
        "name": "Douar Benatia",
        "children": [
            
        ]
    },
    {
        "geonameId": 2580731,
        "name": "Douar Biod",
        "children": [
            
        ]
    },
    {
        "geonameId": 2573883,
        "name": "Douar Bou Katchane",
        "children": [
            
        ]
    },
    {
        "geonameId": 2580313,
        "name": "Douar Bouazza",
        "children": [
            
        ]
    },
    {
        "geonameId": 2580711,
        "name": "Douar Bouia\u00efchia",
        "children": [
            
        ]
    },
    {
        "geonameId": 2580678,
        "name": "Douar Brarcha",
        "children": [
            
        ]
    },
    {
        "geonameId": 2580621,
        "name": "Douar B\u00e9chaouich",
        "children": [
            
        ]
    },
    {
        "geonameId": 2573696,
        "name": "Douar Chachea",
        "children": [
            
        ]
    },
    {
        "geonameId": 2573735,
        "name": "Douar Cha\u00efbia",
        "children": [
            
        ]
    },
    {
        "geonameId": 2573879,
        "name": "Douar Chehaba",
        "children": [
            
        ]
    },
    {
        "geonameId": 2580615,
        "name": "Douar Cheragua",
        "children": [
            
        ]
    },
    {
        "geonameId": 2580379,
        "name": "Douar Ch\u00efbia",
        "children": [
            
        ]
    },
    {
        "geonameId": 2580611,
        "name": "Douar Djera\u00efdjia",
        "children": [
            
        ]
    },
    {
        "geonameId": 2580627,
        "name": "Douar Douaidia",
        "children": [
            
        ]
    },
    {
        "geonameId": 2580311,
        "name": "Douar Drabgia",
        "children": [
            
        ]
    },
    {
        "geonameId": 2573909,
        "name": "Douar D\u2019hamria",
        "children": [
            
        ]
    },
    {
        "geonameId": 2580321,
        "name": "Douar Fetatcha",
        "children": [
            
        ]
    },
    {
        "geonameId": 2573765,
        "name": "Douar Garouamsa",
        "children": [
            
        ]
    },
    {
        "geonameId": 2483504,
        "name": "Douar Ghamra",
        "children": [
            
        ]
    },
    {
        "geonameId": 2573699,
        "name": "Douar Ghamra",
        "children": [
            
        ]
    },
    {
        "geonameId": 2573777,
        "name": "Douar Ghouzilate",
        "children": [
            
        ]
    },
    {
        "geonameId": 2580312,
        "name": "Douar Ghozilet",
        "children": [
            
        ]
    },
    {
        "geonameId": 2573856,
        "name": "Douar Goura",
        "children": [
            
        ]
    },
    {
        "geonameId": 2580617,
        "name": "Douar Hadj Djeraba",
        "children": [
            
        ]
    },
    {
        "geonameId": 2580628,
        "name": "Douar Hadj Snoussi",
        "children": [
            
        ]
    },
    {
        "geonameId": 2507329,
        "name": "Douar Hamma\u00efchia",
        "children": [
            
        ]
    },
    {
        "geonameId": 2580612,
        "name": "Douar Hda\u00efdia",
        "children": [
            
        ]
    },
    {
        "geonameId": 2573708,
        "name": "Douar H\u2019gagna",
        "children": [
            
        ]
    },
    {
        "geonameId": 2573836,
        "name": "Douar Idoua",
        "children": [
            
        ]
    },
    {
        "geonameId": 2573804,
        "name": "Douar Khetataa",
        "children": [
            
        ]
    },
    {
        "geonameId": 2580326,
        "name": "Douar Khoua\u00efria",
        "children": [
            
        ]
    },
    {
        "geonameId": 2573780,
        "name": "Douar Khoussa",
        "children": [
            
        ]
    },
    {
        "geonameId": 2579659,
        "name": "Douar Krachla",
        "children": [
            
        ]
    },
    {
        "geonameId": 2573759,
        "name": "Douar Kra\u00efaia",
        "children": [
            
        ]
    },
    {
        "geonameId": 2581061,
        "name": "Douar Kra\u00efmia",
        "children": [
            
        ]
    },
    {
        "geonameId": 2499359,
        "name": "Douar Louza",
        "children": [
            
        ]
    },
    {
        "geonameId": 2581067,
        "name": "Douar Ma\u00e2mria",
        "children": [
            
        ]
    },
    {
        "geonameId": 2573782,
        "name": "Douar Megharouia",
        "children": [
            
        ]
    },
    {
        "geonameId": 2573733,
        "name": "Douar M\u2019hamid",
        "children": [
            
        ]
    },
    {
        "geonameId": 2580605,
        "name": "Douar M\u2019khatria",
        "children": [
            
        ]
    },
    {
        "geonameId": 2580631,
        "name": "Douar M\u2019khatria",
        "children": [
            
        ]
    },
    {
        "geonameId": 2573744,
        "name": "Douar M\u2019sa\u00efdja",
        "children": [
            
        ]
    },
    {
        "geonameId": 2573862,
        "name": "Douar M\u2019zara",
        "children": [
            
        ]
    },
    {
        "geonameId": 2573810,
        "name": "Douar Nedjadjra",
        "children": [
            
        ]
    },
    {
        "geonameId": 2573786,
        "name": "Douar Nia\u00efmia",
        "children": [
            
        ]
    },
    {
        "geonameId": 2499331,
        "name": "Douar N\u2019djajra",
        "children": [
            
        ]
    },
    {
        "geonameId": 2573875,
        "name": "Douar Ouillis",
        "children": [
            
        ]
    },
    {
        "geonameId": 2580730,
        "name": "Douar Oulad Kaddour",
        "children": [
            
        ]
    },
    {
        "geonameId": 2580732,
        "name": "Douar Oulad Mahidi",
        "children": [
            
        ]
    },
    {
        "geonameId": 2580604,
        "name": "Douar Oulad Sidi Dahmane",
        "children": [
            
        ]
    },
    {
        "geonameId": 2573718,
        "name": "Douar Ouled Abdallah",
        "children": [
            
        ]
    },
    {
        "geonameId": 2578655,
        "name": "Douar Ouled Abdellah",
        "children": [
            
        ]
    },
    {
        "geonameId": 2580306,
        "name": "Douar Ouled Ahmed",
        "children": [
            
        ]
    },
    {
        "geonameId": 2578675,
        "name": "Douar Ouled Ahmid",
        "children": [
            
        ]
    },
    {
        "geonameId": 2573716,
        "name": "Douar Ouled Amara",
        "children": [
            
        ]
    },
    {
        "geonameId": 2489412,
        "name": "Douar Ouled Attia",
        "children": [
            
        ]
    },
    {
        "geonameId": 2499319,
        "name": "Douar Ouled Ben Denya",
        "children": [
            
        ]
    },
    {
        "geonameId": 2573840,
        "name": "Douar Ouled Ben Tahar",
        "children": [
            
        ]
    },
    {
        "geonameId": 2579862,
        "name": "Douar Ouled Benizid",
        "children": [
            
        ]
    },
    {
        "geonameId": 2573741,
        "name": "Douar Ouled Bou Ali",
        "children": [
            
        ]
    },
    {
        "geonameId": 2579861,
        "name": "Douar Ouled Chadli",
        "children": [
            
        ]
    },
    {
        "geonameId": 2580614,
        "name": "Douar Ouled Dadi",
        "children": [
            
        ]
    },
    {
        "geonameId": 2573874,
        "name": "Douar Ouled Kaddour",
        "children": [
            
        ]
    },
    {
        "geonameId": 2579645,
        "name": "Douar Ouled Medjahri",
        "children": [
            
        ]
    },
    {
        "geonameId": 2485190,
        "name": "Douar Ouled Moussa",
        "children": [
            
        ]
    },
    {
        "geonameId": 2499236,
        "name": "Douar Ouled Riahi",
        "children": [
            
        ]
    },
    {
        "geonameId": 2573813,
        "name": "Douar Ouled Sidi Youcef",
        "children": [
            
        ]
    },
    {
        "geonameId": 2573742,
        "name": "Douar Ouled Tahar",
        "children": [
            
        ]
    },
    {
        "geonameId": 2573761,
        "name": "Douar Ouled Tayeb",
        "children": [
            
        ]
    },
    {
        "geonameId": 2573697,
        "name": "Douar Ouled Tlemcani",
        "children": [
            
        ]
    },
    {
        "geonameId": 2580740,
        "name": "Douar Ouled el Arbi",
        "children": [
            
        ]
    },
    {
        "geonameId": 2580729,
        "name": "Douar Ouled el Hadj",
        "children": [
            
        ]
    },
    {
        "geonameId": 2580512,
        "name": "Douar Ouled el Hadj Brahim",
        "children": [
            
        ]
    },
    {
        "geonameId": 2579638,
        "name": "Douar Ouled el Mokhtar",
        "children": [
            
        ]
    },
    {
        "geonameId": 2573730,
        "name": "Douar Reta\u00efhia",
        "children": [
            
        ]
    },
    {
        "geonameId": 2573802,
        "name": "Douar Rhamlia",
        "children": [
            
        ]
    },
    {
        "geonameId": 2573868,
        "name": "Douar Rouaouna",
        "children": [
            
        ]
    },
    {
        "geonameId": 2573706,
        "name": "Douar Sa\u00efdia",
        "children": [
            
        ]
    },
    {
        "geonameId": 2580514,
        "name": "Douar Seddar",
        "children": [
            
        ]
    },
    {
        "geonameId": 2580310,
        "name": "Douar Selehbia",
        "children": [
            
        ]
    },
    {
        "geonameId": 2573908,
        "name": "Douar Sidi Afif",
        "children": [
            
        ]
    },
    {
        "geonameId": 2499231,
        "name": "Douar Sidi Charef",
        "children": [
            
        ]
    },
    {
        "geonameId": 2499230,
        "name": "Douar Sidi Fellag",
        "children": [
            
        ]
    },
    {
        "geonameId": 2488542,
        "name": "Douar Sidi Habib",
        "children": [
            
        ]
    },
    {
        "geonameId": 2580581,
        "name": "Douar Sidi el Habib",
        "children": [
            
        ]
    },
    {
        "geonameId": 2573762,
        "name": "Douar Slatna",
        "children": [
            
        ]
    },
    {
        "geonameId": 2573790,
        "name": "Douar Smara",
        "children": [
            
        ]
    },
    {
        "geonameId": 2499219,
        "name": "Douar Snoussi",
        "children": [
            
        ]
    },
    {
        "geonameId": 2573726,
        "name": "Douar Sraabia",
        "children": [
            
        ]
    },
    {
        "geonameId": 2573692,
        "name": "Douar Titinguel",
        "children": [
            
        ]
    },
    {
        "geonameId": 2577733,
        "name": "Douar Touaydjia",
        "children": [
            
        ]
    },
    {
        "geonameId": 2573756,
        "name": "Douar Trebah Djebel",
        "children": [
            
        ]
    },
    {
        "geonameId": 2580710,
        "name": "Douar Tromlia",
        "children": [
            
        ]
    },
    {
        "geonameId": 2580580,
        "name": "Douar Zga\u00efer",
        "children": [
            
        ]
    },
    {
        "geonameId": 2580625,
        "name": "Douar Zouatine",
        "children": [
            
        ]
    },
    {
        "geonameId": 2573700,
        "name": "Douar Z\u2019kakra",
        "children": [
            
        ]
    },
    {
        "geonameId": 2573707,
        "name": "Douar Z\u2019maa\u00efche",
        "children": [
            
        ]
    },
    {
        "geonameId": 2495126,
        "name": "Douar ech Chaif",
        "children": [
            
        ]
    },
    {
        "geonameId": 2578674,
        "name": "Douar el Aouadj",
        "children": [
            
        ]
    },
    {
        "geonameId": 2580360,
        "name": "Douar el Dja\u00e2dnia",
        "children": [
            
        ]
    },
    {
        "geonameId": 2499475,
        "name": "Douar el Djeaounia",
        "children": [
            
        ]
    },
    {
        "geonameId": 2573727,
        "name": "Douar el Foukani",
        "children": [
            
        ]
    },
    {
        "geonameId": 2580322,
        "name": "Douar el Gor\u00e2",
        "children": [
            
        ]
    },
    {
        "geonameId": 2573847,
        "name": "Douar el Gueraa",
        "children": [
            
        ]
    },
    {
        "geonameId": 2573876,
        "name": "Douar el Guetta",
        "children": [
            
        ]
    },
    {
        "geonameId": 2581185,
        "name": "Douar el Hachem",
        "children": [
            
        ]
    },
    {
        "geonameId": 2578662,
        "name": "Douar el Hdjadjra",
        "children": [
            
        ]
    },
    {
        "geonameId": 2573747,
        "name": "Douar el Koubania",
        "children": [
            
        ]
    },
    {
        "geonameId": 2580588,
        "name": "Douar el Mou\u00efdia",
        "children": [
            
        ]
    },
    {
        "geonameId": 2578657,
        "name": "Douar el M\u00e2atlia",
        "children": [
            
        ]
    },
    {
        "geonameId": 2573694,
        "name": "Douar er Gagna",
        "children": [
            
        ]
    },
    {
        "geonameId": 2499462,
        "name": "El Aba\u00efdia",
        "children": [
            
        ]
    },
    {
        "geonameId": 2498535,
        "name": "El Behara",
        "children": [
            
        ]
    },
    {
        "geonameId": 2581146,
        "name": "El Bka\u00efria",
        "children": [
            
        ]
    },
    {
        "geonameId": 2498314,
        "name": "El Ghomri",
        "children": [
            
        ]
    },
    {
        "geonameId": 2499457,
        "name": "El Houissatte",
        "children": [
            
        ]
    },
    {
        "geonameId": 2489068,
        "name": "El Kessara",
        "children": [
            
        ]
    },
    {
        "geonameId": 2484919,
        "name": "El Kheda\u00efedj",
        "children": [
            
        ]
    },
    {
        "geonameId": 2496368,
        "name": "Fornaka",
        "children": [
            
        ]
    },
    {
        "geonameId": 2580742,
        "name": "Fra\u00efhia",
        "children": [
            
        ]
    },
    {
        "geonameId": 2499441,
        "name": "Hadj Hadjera",
        "children": [
            
        ]
    },
    {
        "geonameId": 2580172,
        "name": "Hadj Mohammed Meda",
        "children": [
            
        ]
    },
    {
        "geonameId": 2495099,
        "name": "Hadjadj",
        "children": [
            
        ]
    },
    {
        "geonameId": 2484199,
        "name": "Hadjadj Plage",
        "children": [
            
        ]
    },
    {
        "geonameId": 2494037,
        "name": "Hassi Maameche",
        "children": [
            
        ]
    },
    {
        "geonameId": 2494677,
        "name": "Hassi Redhouane",
        "children": [
            
        ]
    },
    {
        "geonameId": 2492205,
        "name": "Khadra",
        "children": [
            
        ]
    },
    {
        "geonameId": 2492059,
        "name": "Kharouba",
        "children": [
            
        ]
    },
    {
        "geonameId": 2491967,
        "name": "Khe\u00efredine",
        "children": [
            
        ]
    },
    {
        "geonameId": 2490998,
        "name": "La Stidia Plage",
        "children": [
            
        ]
    },
    {
        "geonameId": 2580368,
        "name": "Lekhal Ben Abed",
        "children": [
            
        ]
    },
    {
        "geonameId": 2490842,
        "name": "Les Sablettes",
        "children": [
            {
                "geonameId": 2501184,
                "name": "Christel",
                "children": [
                    
                ]
            }
        ]
    },
    {
        "geonameId": 7391924,
        "name": "Mansourah",
        "children": [
            
        ]
    },
    {
        "geonameId": 2488657,
        "name": "Mehalif",
        "children": [
            
        ]
    },
    {
        "geonameId": 2499419,
        "name": "Mekhatria",
        "children": [
            
        ]
    },
    {
        "geonameId": 2487786,
        "name": "Mesra",
        "children": [
            
        ]
    },
    {
        "geonameId": 2489260,
        "name": "Messaadia",
        "children": [
            
        ]
    },
    {
        "geonameId": 2487134,
        "name": "Mostaganem",
        "children": [
            {
                "geonameId": 7392191,
                "name": "Abane Ramdane",
                "children": [
                    
                ]
            },
            {
                "geonameId": 2503979,
                "name": "Beymouth",
                "children": [
                    
                ]
            },
            {
                "geonameId": 7392179,
                "name": "Bordj Amar",
                "children": [
                    
                ]
            },
            {
                "geonameId": 7392181,
                "name": "Cit\u00e9 Cinq Juillet",
                "children": [
                    
                ]
            },
            {
                "geonameId": 7392180,
                "name": "Cit\u00e9 Vingt Ao\u00fbt",
                "children": [
                    
                ]
            },
            {
                "geonameId": 7392195,
                "name": "Cit\u00e9 de Arm\u00e9e de Lib\u00e9ration Nationale",
                "children": [
                    
                ]
            },
            {
                "geonameId": 2484062,
                "name": "Colonel Lotfi",
                "children": [
                    
                ]
            },
            {
                "geonameId": 7392193,
                "name": "Djebli Mohamed",
                "children": [
                    
                ]
            },
            {
                "geonameId": 7392187,
                "name": "El Mokrani",
                "children": [
                    
                ]
            },
            {
                "geonameId": 7392190,
                "name": "Hamou Boutlelis",
                "children": [
                    
                ]
            },
            {
                "geonameId": 2491077,
                "name": "La Marine",
                "children": [
                    
                ]
            },
            {
                "geonameId": 2490056,
                "name": "Matemore",
                "children": [
                    
                ]
            },
            {
                "geonameId": 2482499,
                "name": "Saint-Jules",
                "children": [
                    
                ]
            },
            {
                "geonameId": 2476810,
                "name": "Tijditt",
                "children": [
                    
                ]
            },
            {
                "geonameId": 7392192,
                "name": "Zahana Ahmed",
                "children": [
                    
                ]
            }
        ]
    },
    {
        "geonameId": 2581132,
        "name": "Moualdia",
        "children": [
            
        ]
    },
    {
        "geonameId": 2485626,
        "name": "Oued el Khe\u00efr",
        "children": [
            
        ]
    },
    {
        "geonameId": 2499293,
        "name": "Oulad Abdallah",
        "children": [
            
        ]
    },
    {
        "geonameId": 2499458,
        "name": "Oulad Amar",
        "children": [
            
        ]
    },
    {
        "geonameId": 2485306,
        "name": "Oulad Cha\u00efb",
        "children": [
            
        ]
    },
    {
        "geonameId": 2485139,
        "name": "Oulad Sidi Ahmed Cheikh",
        "children": [
            
        ]
    },
    {
        "geonameId": 2485023,
        "name": "Ouled Allou",
        "children": [
            
        ]
    },
    {
        "geonameId": 2573767,
        "name": "Ouled Barkhat",
        "children": [
            
        ]
    },
    {
        "geonameId": 2484792,
        "name": "Ouled Sidi F\u00e1r\u00e8s",
        "children": [
            
        ]
    },
    {
        "geonameId": 2573703,
        "name": "Ouled Sidi Larbi",
        "children": [
            
        ]
    },
    {
        "geonameId": 2573801,
        "name": "Ouled Tahar",
        "children": [
            
        ]
    },
    {
        "geonameId": 2573864,
        "name": "Ouled Younes",
        "children": [
            
        ]
    },
    {
        "geonameId": 2484385,
        "name": "Oureah",
        "children": [
            
        ]
    },
    {
        "geonameId": 2484209,
        "name": "Petit Port",
        "children": [
            
        ]
    },
    {
        "geonameId": 2484197,
        "name": "Plage Abd el Malek Ramdane",
        "children": [
            
        ]
    },
    {
        "geonameId": 2573757,
        "name": "Saf Saf",
        "children": [
            
        ]
    },
    {
        "geonameId": 2491002,
        "name": "Salamandre",
        "children": [
            
        ]
    },
    {
        "geonameId": 2482347,
        "name": "Sayada",
        "children": [
            
        ]
    },
    {
        "geonameId": 2573870,
        "name": "Sekhaimia",
        "children": [
            
        ]
    },
    {
        "geonameId": 2481196,
        "name": "Sidi Ali",
        "children": [
            
        ]
    },
    {
        "geonameId": 2480998,
        "name": "Sidi Bel Atar",
        "children": [
            
        ]
    },
    {
        "geonameId": 2499232,
        "name": "Sidi Bouzid",
        "children": [
            
        ]
    },
    {
        "geonameId": 2480310,
        "name": "Sidi Lakhdar",
        "children": [
            
        ]
    },
    {
        "geonameId": 2571449,
        "name": "Sidi Medjdoud",
        "children": [
            
        ]
    },
    {
        "geonameId": 2479565,
        "name": "Sirat",
        "children": [
            
        ]
    },
    {
        "geonameId": 7415459,
        "name": "Souaflia",
        "children": [
            
        ]
    },
    {
        "geonameId": 2479168,
        "name": "Sour",
        "children": [
            
        ]
    },
    {
        "geonameId": 2479092,
        "name": "Stidia",
        "children": [
            
        ]
    },
    {
        "geonameId": 2475590,
        "name": "Torch",
        "children": [
            
        ]
    },
    {
        "geonameId": 2503794,
        "name": "Touahria",
        "children": [
            
        ]
    },
    {
        "geonameId": 2499209,
        "name": "Toua\u00efdjia",
        "children": [
            
        ]
    },
    {
        "geonameId": 2490986,
        "name": "Zaouia",
        "children": [
            
        ]
    },
    {
        "geonameId": 2499202,
        "name": "Zeria",
        "children": [
            
        ]
    },
    {
        "geonameId": 2573878,
        "name": "Zerrifa",
        "children": [
            
        ]
    }
]