[
    {
        "geonameId": 2575724,
        "name": "Aaroun",
        "children": [
            
        ]
    },
    {
        "geonameId": 2509194,
        "name": "Abd el Kader Ben el Mokhtar",
        "children": [
            
        ]
    },
    {
        "geonameId": 2509206,
        "name": "Abdelaziz",
        "children": [
            
        ]
    },
    {
        "geonameId": 2508458,
        "name": "Ahmed Abd el Kader",
        "children": [
            
        ]
    },
    {
        "geonameId": 2508453,
        "name": "Ahmed Ben Abdallah",
        "children": [
            
        ]
    },
    {
        "geonameId": 2583233,
        "name": "Assila",
        "children": [
            
        ]
    },
    {
        "geonameId": 2575720,
        "name": "Azati",
        "children": [
            
        ]
    },
    {
        "geonameId": 2506000,
        "name": "Azerou",
        "children": [
            
        ]
    },
    {
        "geonameId": 2575800,
        "name": "Aziza",
        "children": [
            
        ]
    },
    {
        "geonameId": 2508221,
        "name": "A\u00efn Dhab",
        "children": [
            
        ]
    },
    {
        "geonameId": 2507980,
        "name": "A\u00efn Ouled el Mahil",
        "children": [
            
        ]
    },
    {
        "geonameId": 2505755,
        "name": "Bahata",
        "children": [
            
        ]
    },
    {
        "geonameId": 2574775,
        "name": "Bellia",
        "children": [
            
        ]
    },
    {
        "geonameId": 2504960,
        "name": "Ben Attali",
        "children": [
            
        ]
    },
    {
        "geonameId": 2504915,
        "name": "Ben Chicao",
        "children": [
            
        ]
    },
    {
        "geonameId": 2583029,
        "name": "Ben Zemlane",
        "children": [
            
        ]
    },
    {
        "geonameId": 2504721,
        "name": "Beni Belaaz",
        "children": [
            
        ]
    },
    {
        "geonameId": 2575887,
        "name": "Beni Bou Bekh",
        "children": [
            
        ]
    },
    {
        "geonameId": 2504655,
        "name": "Beni Khalifa",
        "children": [
            
        ]
    },
    {
        "geonameId": 2575786,
        "name": "Beni Kheddi",
        "children": [
            
        ]
    },
    {
        "geonameId": 2504638,
        "name": "Beni Maloum",
        "children": [
            
        ]
    },
    {
        "geonameId": 2504565,
        "name": "Beni Slimane",
        "children": [
            
        ]
    },
    {
        "geonameId": 2504099,
        "name": "Berrouaghia",
        "children": [
            
        ]
    },
    {
        "geonameId": 2505334,
        "name": "Be\u00eft A\u00efssia",
        "children": [
            
        ]
    },
    {
        "geonameId": 8281418,
        "name": "Bir Ben Laabed",
        "children": [
            
        ]
    },
    {
        "geonameId": 2503861,
        "name": "Bir Ghbalou",
        "children": [
            
        ]
    },
    {
        "geonameId": 2503809,
        "name": "Bit el Khe\u00efr",
        "children": [
            
        ]
    },
    {
        "geonameId": 2503756,
        "name": "Boghar",
        "children": [
            
        ]
    },
    {
        "geonameId": 2503647,
        "name": "Bordj Khemkam",
        "children": [
            
        ]
    },
    {
        "geonameId": 2503138,
        "name": "Bou Gdourene",
        "children": [
            
        ]
    },
    {
        "geonameId": 2502740,
        "name": "Bou Lerbag",
        "children": [
            
        ]
    },
    {
        "geonameId": 2502653,
        "name": "Bou Megrane",
        "children": [
            
        ]
    },
    {
        "geonameId": 2502499,
        "name": "Bou Regaa",
        "children": [
            
        ]
    },
    {
        "geonameId": 2503086,
        "name": "Bougzoul",
        "children": [
            
        ]
    },
    {
        "geonameId": 2502317,
        "name": "Bouskene",
        "children": [
            
        ]
    },
    {
        "geonameId": 2501828,
        "name": "Chahbounia",
        "children": [
            
        ]
    },
    {
        "geonameId": 2574801,
        "name": "Cheikr Ta\u00efeb",
        "children": [
            
        ]
    },
    {
        "geonameId": 2501525,
        "name": "Chellalat el Adhaouara",
        "children": [
            
        ]
    },
    {
        "geonameId": 2575053,
        "name": "Dechra",
        "children": [
            
        ]
    },
    {
        "geonameId": 2500704,
        "name": "Dechret ech Chaab",
        "children": [
            
        ]
    },
    {
        "geonameId": 2486508,
        "name": "Djouab",
        "children": [
            
        ]
    },
    {
        "geonameId": 2575270,
        "name": "Doaur Reha\u00efnia",
        "children": [
            
        ]
    },
    {
        "geonameId": 2574743,
        "name": "Douar Alalma",
        "children": [
            
        ]
    },
    {
        "geonameId": 2505587,
        "name": "Douar Bassour",
        "children": [
            
        ]
    },
    {
        "geonameId": 2574745,
        "name": "Douar Ben Adja",
        "children": [
            
        ]
    },
    {
        "geonameId": 2505002,
        "name": "Douar Ben Alouache",
        "children": [
            
        ]
    },
    {
        "geonameId": 2502300,
        "name": "Douar Boussahoua",
        "children": [
            
        ]
    },
    {
        "geonameId": 2501448,
        "name": "Douar Cheraria",
        "children": [
            
        ]
    },
    {
        "geonameId": 2574863,
        "name": "Douar Chouanaa",
        "children": [
            
        ]
    },
    {
        "geonameId": 2574776,
        "name": "Douar Ouled Aziz",
        "children": [
            
        ]
    },
    {
        "geonameId": 2500509,
        "name": "Douar Ouled H\u2019Da\u00efm",
        "children": [
            
        ]
    },
    {
        "geonameId": 2507284,
        "name": "Douar Ouled Moussa",
        "children": [
            
        ]
    },
    {
        "geonameId": 2485148,
        "name": "Douar Ouled Selim",
        "children": [
            
        ]
    },
    {
        "geonameId": 2482470,
        "name": "Douar Sakhri",
        "children": [
            
        ]
    },
    {
        "geonameId": 2474962,
        "name": "Douar Zagmouta",
        "children": [
            
        ]
    },
    {
        "geonameId": 2498080,
        "name": "Douar Zeungour",
        "children": [
            
        ]
    },
    {
        "geonameId": 2575023,
        "name": "Douar el Mehadjbia",
        "children": [
            
        ]
    },
    {
        "geonameId": 2499095,
        "name": "Dra\u00e2 Esmar",
        "children": [
            
        ]
    },
    {
        "geonameId": 2583118,
        "name": "Ed Dakhla",
        "children": [
            
        ]
    },
    {
        "geonameId": 2583157,
        "name": "El Ababdia",
        "children": [
            
        ]
    },
    {
        "geonameId": 2498650,
        "name": "El Arba",
        "children": [
            
        ]
    },
    {
        "geonameId": 2490859,
        "name": "El Azizia",
        "children": [
            
        ]
    },
    {
        "geonameId": 2498578,
        "name": "El Bethom",
        "children": [
            
        ]
    },
    {
        "geonameId": 2575819,
        "name": "El Gol\u00e9a",
        "children": [
            
        ]
    },
    {
        "geonameId": 2497887,
        "name": "El Kheloua",
        "children": [
            
        ]
    },
    {
        "geonameId": 2491886,
        "name": "El Kheneg",
        "children": [
            
        ]
    },
    {
        "geonameId": 2497598,
        "name": "El Melouane",
        "children": [
            
        ]
    },
    {
        "geonameId": 2488024,
        "name": "El Merdja",
        "children": [
            
        ]
    },
    {
        "geonameId": 2497433,
        "name": "El Omaria",
        "children": [
            
        ]
    },
    {
        "geonameId": 2575879,
        "name": "Er Rmila",
        "children": [
            
        ]
    },
    {
        "geonameId": 2494849,
        "name": "Hakimia",
        "children": [
            
        ]
    },
    {
        "geonameId": 2492234,
        "name": "Khabbouzia",
        "children": [
            
        ]
    },
    {
        "geonameId": 2491831,
        "name": "Kherba",
        "children": [
            
        ]
    },
    {
        "geonameId": 2491323,
        "name": "Ksar el Boukhari",
        "children": [
            
        ]
    },
    {
        "geonameId": 2575271,
        "name": "Maouch el Bastana",
        "children": [
            
        ]
    },
    {
        "geonameId": 2490075,
        "name": "Massiline",
        "children": [
            
        ]
    },
    {
        "geonameId": 2489780,
        "name": "Mechta Ameur Ben Amier",
        "children": [
            
        ]
    },
    {
        "geonameId": 2489437,
        "name": "Mechta Mezahim",
        "children": [
            
        ]
    },
    {
        "geonameId": 2484797,
        "name": "Mechta Ouled Sidi Ameur",
        "children": [
            
        ]
    },
    {
        "geonameId": 2575797,
        "name": "Mekhatich",
        "children": [
            
        ]
    },
    {
        "geonameId": 2488835,
        "name": "M\u00e9d\u00e9a",
        "children": [
            
        ]
    },
    {
        "geonameId": 7441618,
        "name": "Oued Harbil",
        "children": [
            
        ]
    },
    {
        "geonameId": 2485421,
        "name": "Oulad Adim",
        "children": [
            
        ]
    },
    {
        "geonameId": 2485397,
        "name": "Oulad Ali",
        "children": [
            
        ]
    },
    {
        "geonameId": 2485369,
        "name": "Oulad Amor",
        "children": [
            
        ]
    },
    {
        "geonameId": 2485370,
        "name": "Oulad Amor",
        "children": [
            
        ]
    },
    {
        "geonameId": 2575710,
        "name": "Oulad Aouelli",
        "children": [
            
        ]
    },
    {
        "geonameId": 2485363,
        "name": "Oulad Arioua",
        "children": [
            
        ]
    },
    {
        "geonameId": 2485357,
        "name": "Oulad Azane",
        "children": [
            
        ]
    },
    {
        "geonameId": 2485406,
        "name": "Oulad A\u00efssa",
        "children": [
            
        ]
    },
    {
        "geonameId": 2575713,
        "name": "Oulad Barket",
        "children": [
            
        ]
    },
    {
        "geonameId": 2485331,
        "name": "Oulad Bou A\u00efcha",
        "children": [
            
        ]
    },
    {
        "geonameId": 2485328,
        "name": "Oulad Bou Chelba",
        "children": [
            
        ]
    },
    {
        "geonameId": 2485308,
        "name": "Oulad Ca\u00efd Khemies",
        "children": [
            
        ]
    },
    {
        "geonameId": 2485307,
        "name": "Oulad Chadi",
        "children": [
            
        ]
    },
    {
        "geonameId": 2485303,
        "name": "Oulad Chenaf",
        "children": [
            
        ]
    },
    {
        "geonameId": 2485300,
        "name": "Oulad Dahmane",
        "children": [
            
        ]
    },
    {
        "geonameId": 2583170,
        "name": "Oulad Djaffal",
        "children": [
            
        ]
    },
    {
        "geonameId": 2485292,
        "name": "Oulad Dram",
        "children": [
            
        ]
    },
    {
        "geonameId": 2485263,
        "name": "Oulad Hadjouha",
        "children": [
            
        ]
    },
    {
        "geonameId": 2485258,
        "name": "Oulad Hammadi",
        "children": [
            
        ]
    },
    {
        "geonameId": 2485256,
        "name": "Oulad Hamouda",
        "children": [
            
        ]
    },
    {
        "geonameId": 2575489,
        "name": "Oulad Kheir",
        "children": [
            
        ]
    },
    {
        "geonameId": 2485237,
        "name": "Oulad Ktsir",
        "children": [
            
        ]
    },
    {
        "geonameId": 2583263,
        "name": "Oulad Louma\u00efsset",
        "children": [
            
        ]
    },
    {
        "geonameId": 2485222,
        "name": "Oulad Mamora",
        "children": [
            
        ]
    },
    {
        "geonameId": 2485221,
        "name": "Oulad Mamora Mechta et Tenia",
        "children": [
            
        ]
    },
    {
        "geonameId": 2583060,
        "name": "Oulad Manadi",
        "children": [
            
        ]
    },
    {
        "geonameId": 2485214,
        "name": "Oulad Megatel",
        "children": [
            
        ]
    },
    {
        "geonameId": 2583269,
        "name": "Oulad Mekalla",
        "children": [
            
        ]
    },
    {
        "geonameId": 2485210,
        "name": "Oulad Mennif",
        "children": [
            
        ]
    },
    {
        "geonameId": 2583163,
        "name": "Oulad Merzoug",
        "children": [
            
        ]
    },
    {
        "geonameId": 2485208,
        "name": "Oulad Messaoud",
        "children": [
            
        ]
    },
    {
        "geonameId": 2485203,
        "name": "Oulad Mimoun",
        "children": [
            
        ]
    },
    {
        "geonameId": 2583057,
        "name": "Oulad Nehar",
        "children": [
            
        ]
    },
    {
        "geonameId": 2485165,
        "name": "Oulad Rhenam",
        "children": [
            
        ]
    },
    {
        "geonameId": 2485159,
        "name": "Oulad Sa\u00efd",
        "children": [
            
        ]
    },
    {
        "geonameId": 2485160,
        "name": "Oulad Sa\u00efd",
        "children": [
            
        ]
    },
    {
        "geonameId": 2485135,
        "name": "Oulad Sidi Amar",
        "children": [
            
        ]
    },
    {
        "geonameId": 2485137,
        "name": "Oulad Sidi A\u00efssa",
        "children": [
            
        ]
    },
    {
        "geonameId": 2485133,
        "name": "Oulad Sidi Ben Saad",
        "children": [
            
        ]
    },
    {
        "geonameId": 2485125,
        "name": "Oulad Sidi Khaled",
        "children": [
            
        ]
    },
    {
        "geonameId": 2485121,
        "name": "Oulad Sidi Mohammed",
        "children": [
            
        ]
    },
    {
        "geonameId": 2485118,
        "name": "Oulad Sidi Yahia",
        "children": [
            
        ]
    },
    {
        "geonameId": 2485111,
        "name": "Oulad Srhir",
        "children": [
            
        ]
    },
    {
        "geonameId": 2485093,
        "name": "Oulad Youssef",
        "children": [
            
        ]
    },
    {
        "geonameId": 2574761,
        "name": "Oulad Zeguia",
        "children": [
            
        ]
    },
    {
        "geonameId": 2485091,
        "name": "Oulad Zerara",
        "children": [
            
        ]
    },
    {
        "geonameId": 2485080,
        "name": "Oulad Zidane",
        "children": [
            
        ]
    },
    {
        "geonameId": 2485274,
        "name": "Oulad en Naga",
        "children": [
            
        ]
    },
    {
        "geonameId": 2575229,
        "name": "Ouled Ahmed",
        "children": [
            
        ]
    },
    {
        "geonameId": 2574842,
        "name": "Ouled Ali",
        "children": [
            
        ]
    },
    {
        "geonameId": 2485036,
        "name": "Ouled Ali",
        "children": [
            
        ]
    },
    {
        "geonameId": 2485026,
        "name": "Ouled Allal",
        "children": [
            
        ]
    },
    {
        "geonameId": 2485003,
        "name": "Ouled Aziez",
        "children": [
            
        ]
    },
    {
        "geonameId": 2485041,
        "name": "Ouled A\u00efssa",
        "children": [
            
        ]
    },
    {
        "geonameId": 7442758,
        "name": "Ouled Bouachra",
        "children": [
            
        ]
    },
    {
        "geonameId": 2484954,
        "name": "Ouled Brahim",
        "children": [
            
        ]
    },
    {
        "geonameId": 2484937,
        "name": "Ouled Daoud",
        "children": [
            
        ]
    },
    {
        "geonameId": 2484925,
        "name": "Ouled Douaba",
        "children": [
            
        ]
    },
    {
        "geonameId": 2484890,
        "name": "Ouled Hadria",
        "children": [
            
        ]
    },
    {
        "geonameId": 2484885,
        "name": "Ouled Hammou",
        "children": [
            
        ]
    },
    {
        "geonameId": 2484881,
        "name": "Ouled Haoua",
        "children": [
            
        ]
    },
    {
        "geonameId": 2484869,
        "name": "Ouled Koulla",
        "children": [
            
        ]
    },
    {
        "geonameId": 2484867,
        "name": "Ouled La\u00efd",
        "children": [
            
        ]
    },
    {
        "geonameId": 2484852,
        "name": "Ouled Mehenni",
        "children": [
            
        ]
    },
    {
        "geonameId": 2484836,
        "name": "Ouled Moussa",
        "children": [
            
        ]
    },
    {
        "geonameId": 2484832,
        "name": "Ouled Msellem",
        "children": [
            
        ]
    },
    {
        "geonameId": 2484830,
        "name": "Ouled Neoual",
        "children": [
            
        ]
    },
    {
        "geonameId": 2484827,
        "name": "Ouled Rabah",
        "children": [
            
        ]
    },
    {
        "geonameId": 2484817,
        "name": "Ouled Sahari",
        "children": [
            
        ]
    },
    {
        "geonameId": 2574799,
        "name": "Ouled Salah",
        "children": [
            
        ]
    },
    {
        "geonameId": 2484809,
        "name": "Ouled Salah",
        "children": [
            
        ]
    },
    {
        "geonameId": 2575284,
        "name": "Ouled Salem",
        "children": [
            
        ]
    },
    {
        "geonameId": 2484814,
        "name": "Ouled Sa\u00efd",
        "children": [
            
        ]
    },
    {
        "geonameId": 2484799,
        "name": "Ouled Sidi Ahmar",
        "children": [
            
        ]
    },
    {
        "geonameId": 2484798,
        "name": "Ouled Sidi Ahmed",
        "children": [
            
        ]
    },
    {
        "geonameId": 2484787,
        "name": "Ouled Sidi Mohammed",
        "children": [
            
        ]
    },
    {
        "geonameId": 2575306,
        "name": "Ouled Sidi Yahia",
        "children": [
            
        ]
    },
    {
        "geonameId": 2484903,
        "name": "Ouled el Hami",
        "children": [
            
        ]
    },
    {
        "geonameId": 2484899,
        "name": "Ouled er Rouabia",
        "children": [
            
        ]
    },
    {
        "geonameId": 2484322,
        "name": "Ousseria",
        "children": [
            
        ]
    },
    {
        "geonameId": 2484242,
        "name": "Ouzera",
        "children": [
            
        ]
    },
    {
        "geonameId": 2484026,
        "name": "Ramahma",
        "children": [
            
        ]
    },
    {
        "geonameId": 2483869,
        "name": "Reba\u00efa",
        "children": [
            
        ]
    },
    {
        "geonameId": 8281877,
        "name": "Ridane",
        "children": [
            
        ]
    },
    {
        "geonameId": 2479377,
        "name": "Sadokia",
        "children": [
            
        ]
    },
    {
        "geonameId": 2482399,
        "name": "Saneg",
        "children": [
            
        ]
    },
    {
        "geonameId": 2482183,
        "name": "Sebt Aziz",
        "children": [
            
        ]
    },
    {
        "geonameId": 2475670,
        "name": "Seghouane",
        "children": [
            
        ]
    },
    {
        "geonameId": 7428892,
        "name": "Sidi Baizid",
        "children": [
            
        ]
    },
    {
        "geonameId": 2575193,
        "name": "Sidi Makrfi",
        "children": [
            
        ]
    },
    {
        "geonameId": 2575794,
        "name": "Sidi Moussa",
        "children": [
            
        ]
    },
    {
        "geonameId": 8280691,
        "name": "Sidi Zahar",
        "children": [
            
        ]
    },
    {
        "geonameId": 2479320,
        "name": "Souagui",
        "children": [
            
        ]
    },
    {
        "geonameId": 2479208,
        "name": "Souk el Arba",
        "children": [
            
        ]
    },
    {
        "geonameId": 2479202,
        "name": "Souk el Had",
        "children": [
            
        ]
    },
    {
        "geonameId": 2479198,
        "name": "Souk el Khemis",
        "children": [
            
        ]
    },
    {
        "geonameId": 2478974,
        "name": "Tablat",
        "children": [
            
        ]
    },
    {
        "geonameId": 2575477,
        "name": "Tabouzza",
        "children": [
            
        ]
    },
    {
        "geonameId": 2575796,
        "name": "Tala Oufla",
        "children": [
            
        ]
    },
    {
        "geonameId": 2574858,
        "name": "Tchacht",
        "children": [
            
        ]
    },
    {
        "geonameId": 2475707,
        "name": "Tegagra",
        "children": [
            
        ]
    },
    {
        "geonameId": 2476899,
        "name": "Tialet",
        "children": [
            
        ]
    },
    {
        "geonameId": 2476816,
        "name": "Tidja\u00ef",
        "children": [
            
        ]
    },
    {
        "geonameId": 2475671,
        "name": "Tletat ed Doua\u00efr",
        "children": [
            
        ]
    },
    {
        "geonameId": 2475589,
        "name": "Torch",
        "children": [
            
        ]
    },
    {
        "geonameId": 2475587,
        "name": "Torchi",
        "children": [
            
        ]
    },
    {
        "geonameId": 2474596,
        "name": "Zennzela",
        "children": [
            
        ]
    },
    {
        "geonameId": 2474262,
        "name": "Zouaoudja",
        "children": [
            
        ]
    },
    {
        "geonameId": 2474233,
        "name": "Zoubiria",
        "children": [
            
        ]
    },
    {
        "geonameId": 2575812,
        "name": "Zounda\u00ef",
        "children": [
            
        ]
    },
    {
        "geonameId": 2508262,
        "name": "\u2019A\u00efn Boucif",
        "children": [
            
        ]
    },
    {
        "geonameId": 2508236,
        "name": "\u2019A\u00efn Dalia",
        "children": [
            
        ]
    },
    {
        "geonameId": 2508092,
        "name": "\u2019A\u00efn Fekirine",
        "children": [
            
        ]
    },
    {
        "geonameId": 2508083,
        "name": "\u2019A\u00efn Guelieb et Tsour",
        "children": [
            
        ]
    },
    {
        "geonameId": 2508071,
        "name": "\u2019A\u00efn Houinia",
        "children": [
            
        ]
    },
    {
        "geonameId": 2507876,
        "name": "\u2019A\u00efn Touta",
        "children": [
            
        ]
    },
    {
        "geonameId": 2508138,
        "name": "\u2019A\u00efn el Kerma",
        "children": [
            
        ]
    },
    {
        "geonameId": 2508122,
        "name": "\u2019A\u00efn el Rharbia",
        "children": [
            
        ]
    }
]