[
    {
        "geonameId": 2499546,
        "name": "Abd el Kader Ouled Barhdad",
        "children": [
            
        ]
    },
    {
        "geonameId": 2499541,
        "name": "Ahl el A\u00efd",
        "children": [
            
        ]
    },
    {
        "geonameId": 2508099,
        "name": "Ain Fares",
        "children": [
            
        ]
    },
    {
        "geonameId": 2578990,
        "name": "Ain Ferrah",
        "children": [
            
        ]
    },
    {
        "geonameId": 2499533,
        "name": "Ali Bou Ameur",
        "children": [
            
        ]
    },
    {
        "geonameId": 2506856,
        "name": "Aouf",
        "children": [
            
        ]
    },
    {
        "geonameId": 2579052,
        "name": "Azimat Mahiedine",
        "children": [
            
        ]
    },
    {
        "geonameId": 2504728,
        "name": "Beni Attah",
        "children": [
            
        ]
    },
    {
        "geonameId": 2504735,
        "name": "Beniane",
        "children": [
            
        ]
    },
    {
        "geonameId": 2503033,
        "name": "Bou Hanifia el Hamamat",
        "children": [
            
        ]
    },
    {
        "geonameId": 2499449,
        "name": "Ca\u00efd Amar",
        "children": [
            
        ]
    },
    {
        "geonameId": 2499482,
        "name": "Chra\u00efta",
        "children": [
            
        ]
    },
    {
        "geonameId": 2500910,
        "name": "Dar Bou Hariz",
        "children": [
            
        ]
    },
    {
        "geonameId": 2499870,
        "name": "Djenane el Hou\u00e2ouna",
        "children": [
            
        ]
    },
    {
        "geonameId": 2499891,
        "name": "Djen\u00e2\u00efne Mes\u00e2k\u00eene",
        "children": [
            
        ]
    },
    {
        "geonameId": 2581455,
        "name": "Douar Abd el Kader el Bachir",
        "children": [
            
        ]
    },
    {
        "geonameId": 2580112,
        "name": "Douar Ain el Guedra",
        "children": [
            
        ]
    },
    {
        "geonameId": 2581521,
        "name": "Douar Amairia",
        "children": [
            
        ]
    },
    {
        "geonameId": 2485012,
        "name": "Douar Aouf",
        "children": [
            
        ]
    },
    {
        "geonameId": 2506928,
        "name": "Douar A\u00efn el Khede",
        "children": [
            
        ]
    },
    {
        "geonameId": 2499526,
        "name": "Douar Baghdad",
        "children": [
            
        ]
    },
    {
        "geonameId": 2499525,
        "name": "Douar Bekha\u00eftia",
        "children": [
            
        ]
    },
    {
        "geonameId": 2499513,
        "name": "Douar Beni Timi",
        "children": [
            
        ]
    },
    {
        "geonameId": 2499504,
        "name": "Douar Bla\u00efhia",
        "children": [
            
        ]
    },
    {
        "geonameId": 2499490,
        "name": "Douar Ch\u00e2reb er R\u00eeh",
        "children": [
            
        ]
    },
    {
        "geonameId": 2499480,
        "name": "Douar Da\u00e2cha",
        "children": [
            
        ]
    },
    {
        "geonameId": 2579850,
        "name": "Douar Djfafla",
        "children": [
            
        ]
    },
    {
        "geonameId": 2499446,
        "name": "Douar Dla\u00eflia",
        "children": [
            
        ]
    },
    {
        "geonameId": 2508115,
        "name": "Douar Esafsaf",
        "children": [
            
        ]
    },
    {
        "geonameId": 2496984,
        "name": "Douar Ettorche",
        "children": [
            
        ]
    },
    {
        "geonameId": 2578983,
        "name": "Douar Fornane",
        "children": [
            
        ]
    },
    {
        "geonameId": 2499391,
        "name": "Douar Fras Kbar",
        "children": [
            
        ]
    },
    {
        "geonameId": 2499379,
        "name": "Douar Hamiane",
        "children": [
            
        ]
    },
    {
        "geonameId": 2579028,
        "name": "Douar Hawouia",
        "children": [
            
        ]
    },
    {
        "geonameId": 2578962,
        "name": "Douar Houalaa",
        "children": [
            
        ]
    },
    {
        "geonameId": 2499262,
        "name": "Douar Houaoura",
        "children": [
            
        ]
    },
    {
        "geonameId": 2579538,
        "name": "Douar Houaoura",
        "children": [
            
        ]
    },
    {
        "geonameId": 2579228,
        "name": "Douar Kada",
        "children": [
            
        ]
    },
    {
        "geonameId": 2499375,
        "name": "Douar Kaddour Bou Alem",
        "children": [
            
        ]
    },
    {
        "geonameId": 2499373,
        "name": "Douar Karaouat",
        "children": [
            
        ]
    },
    {
        "geonameId": 2578935,
        "name": "Douar Kenancha",
        "children": [
            
        ]
    },
    {
        "geonameId": 2580441,
        "name": "Douar Kfa\u00effia",
        "children": [
            
        ]
    },
    {
        "geonameId": 2483529,
        "name": "Douar Khadaid",
        "children": [
            
        ]
    },
    {
        "geonameId": 2579588,
        "name": "Douar Khalouia",
        "children": [
            
        ]
    },
    {
        "geonameId": 2499370,
        "name": "Douar Kha\u00efria",
        "children": [
            
        ]
    },
    {
        "geonameId": 2499357,
        "name": "Douar Klailia",
        "children": [
            
        ]
    },
    {
        "geonameId": 2579624,
        "name": "Douar Kouidria",
        "children": [
            
        ]
    },
    {
        "geonameId": 2579173,
        "name": "Douar Lalalma",
        "children": [
            
        ]
    },
    {
        "geonameId": 2499356,
        "name": "Douar Medjahed",
        "children": [
            
        ]
    },
    {
        "geonameId": 2499340,
        "name": "Douar Mohammed Ben Rahhal",
        "children": [
            
        ]
    },
    {
        "geonameId": 2580922,
        "name": "Douar Moussaoui",
        "children": [
            
        ]
    },
    {
        "geonameId": 2578947,
        "name": "Douar Ms\u00e2dia",
        "children": [
            
        ]
    },
    {
        "geonameId": 2499417,
        "name": "Douar M\u2019ra\u00efnia",
        "children": [
            
        ]
    },
    {
        "geonameId": 2486123,
        "name": "Douar Nouaflia",
        "children": [
            
        ]
    },
    {
        "geonameId": 2486150,
        "name": "Douar N\u2019karif",
        "children": [
            
        ]
    },
    {
        "geonameId": 2579036,
        "name": "Douar Oulad Amar Ben A\u00efssa",
        "children": [
            
        ]
    },
    {
        "geonameId": 2499321,
        "name": "Douar Oulad Bahria",
        "children": [
            
        ]
    },
    {
        "geonameId": 2499299,
        "name": "Douar Oulad Sidi Sa\u00efd",
        "children": [
            
        ]
    },
    {
        "geonameId": 2499295,
        "name": "Douar Ouled Ababou",
        "children": [
            
        ]
    },
    {
        "geonameId": 2499339,
        "name": "Douar Ouled Abbas",
        "children": [
            
        ]
    },
    {
        "geonameId": 2485422,
        "name": "Douar Ouled Achour",
        "children": [
            
        ]
    },
    {
        "geonameId": 2499532,
        "name": "Douar Ouled Ali",
        "children": [
            
        ]
    },
    {
        "geonameId": 2579219,
        "name": "Douar Ouled Ali",
        "children": [
            
        ]
    },
    {
        "geonameId": 2499292,
        "name": "Douar Ouled Ali",
        "children": [
            
        ]
    },
    {
        "geonameId": 2499291,
        "name": "Douar Ouled Ali Ben \u2019O\u00fbmer",
        "children": [
            
        ]
    },
    {
        "geonameId": 2485379,
        "name": "Douar Ouled Amar",
        "children": [
            
        ]
    },
    {
        "geonameId": 2499288,
        "name": "Douar Ouled Attou",
        "children": [
            
        ]
    },
    {
        "geonameId": 2580128,
        "name": "Douar Ouled Baghdad",
        "children": [
            
        ]
    },
    {
        "geonameId": 2581529,
        "name": "Douar Ouled Belkacem",
        "children": [
            
        ]
    },
    {
        "geonameId": 2579347,
        "name": "Douar Ouled Ben Saad",
        "children": [
            
        ]
    },
    {
        "geonameId": 2581306,
        "name": "Douar Ouled Ben Yarou",
        "children": [
            
        ]
    },
    {
        "geonameId": 2580149,
        "name": "Douar Ouled Ben Yettou",
        "children": [
            
        ]
    },
    {
        "geonameId": 2504297,
        "name": "Douar Ouled Benyahia",
        "children": [
            
        ]
    },
    {
        "geonameId": 2499254,
        "name": "Douar Ouled Boualem",
        "children": [
            
        ]
    },
    {
        "geonameId": 2485187,
        "name": "Douar Ouled Bouamar",
        "children": [
            
        ]
    },
    {
        "geonameId": 2581450,
        "name": "Douar Ouled Bouazza",
        "children": [
            
        ]
    },
    {
        "geonameId": 2580277,
        "name": "Douar Ouled Bouzaida",
        "children": [
            
        ]
    },
    {
        "geonameId": 2581186,
        "name": "Douar Ouled Djelloul",
        "children": [
            
        ]
    },
    {
        "geonameId": 2499277,
        "name": "Douar Ouled Dro\u00fbni",
        "children": [
            
        ]
    },
    {
        "geonameId": 2579011,
        "name": "Douar Ouled Guenoun",
        "children": [
            
        ]
    },
    {
        "geonameId": 2581168,
        "name": "Douar Ouled Guenoune",
        "children": [
            
        ]
    },
    {
        "geonameId": 2579194,
        "name": "Douar Ouled Kacem",
        "children": [
            
        ]
    },
    {
        "geonameId": 2579309,
        "name": "Douar Ouled Kada",
        "children": [
            
        ]
    },
    {
        "geonameId": 2581520,
        "name": "Douar Ouled Kallouche",
        "children": [
            
        ]
    },
    {
        "geonameId": 2579220,
        "name": "Douar Ouled Larbi",
        "children": [
            
        ]
    },
    {
        "geonameId": 2579629,
        "name": "Douar Ouled Mekki",
        "children": [
            
        ]
    },
    {
        "geonameId": 2499259,
        "name": "Douar Ouled Othmane",
        "children": [
            
        ]
    },
    {
        "geonameId": 2499269,
        "name": "Douar Ouled Seddik",
        "children": [
            
        ]
    },
    {
        "geonameId": 2579424,
        "name": "Douar Ouled Sidi Amar",
        "children": [
            
        ]
    },
    {
        "geonameId": 2499248,
        "name": "Douar Ouled Sidi Yo\u00fbssef",
        "children": [
            
        ]
    },
    {
        "geonameId": 2499290,
        "name": "Douar Ouled Youb",
        "children": [
            
        ]
    },
    {
        "geonameId": 2499274,
        "name": "Douar Ouled el H\u00e2dj el Hab\u00eeb",
        "children": [
            
        ]
    },
    {
        "geonameId": 2581479,
        "name": "Douar Rafsa",
        "children": [
            
        ]
    },
    {
        "geonameId": 2578916,
        "name": "Douar Sba\u00efhia",
        "children": [
            
        ]
    },
    {
        "geonameId": 2499255,
        "name": "Douar Sidi Alla",
        "children": [
            
        ]
    },
    {
        "geonameId": 2484783,
        "name": "Douar Sidi Saafi",
        "children": [
            
        ]
    },
    {
        "geonameId": 2499298,
        "name": "Douar Sidi Salem",
        "children": [
            
        ]
    },
    {
        "geonameId": 2499250,
        "name": "Douar Sidi Slimane",
        "children": [
            
        ]
    },
    {
        "geonameId": 2499221,
        "name": "Douar Sl\u00eem\u00e2ne",
        "children": [
            
        ]
    },
    {
        "geonameId": 2579550,
        "name": "Douar Smaichia",
        "children": [
            
        ]
    },
    {
        "geonameId": 2581526,
        "name": "Douar Smaihia",
        "children": [
            
        ]
    },
    {
        "geonameId": 2499249,
        "name": "Douar Tahar",
        "children": [
            
        ]
    },
    {
        "geonameId": 2579155,
        "name": "Douar Tema\u00efria",
        "children": [
            
        ]
    },
    {
        "geonameId": 2499205,
        "name": "Douar Zagdou",
        "children": [
            
        ]
    },
    {
        "geonameId": 2499204,
        "name": "Douar Zaguine",
        "children": [
            
        ]
    },
    {
        "geonameId": 2579128,
        "name": "Douar Zaouia",
        "children": [
            
        ]
    },
    {
        "geonameId": 2579649,
        "name": "Douar Zerama",
        "children": [
            
        ]
    },
    {
        "geonameId": 2499397,
        "name": "Douar Zmani",
        "children": [
            
        ]
    },
    {
        "geonameId": 2507314,
        "name": "Douar el Amamra",
        "children": [
            
        ]
    },
    {
        "geonameId": 2581428,
        "name": "Douar el Araissia",
        "children": [
            
        ]
    },
    {
        "geonameId": 2494186,
        "name": "Douar el Ara\u00effia",
        "children": [
            
        ]
    },
    {
        "geonameId": 2499452,
        "name": "Douar el Bhalil",
        "children": [
            
        ]
    },
    {
        "geonameId": 2580131,
        "name": "Douar el Hadj el Arbi",
        "children": [
            
        ]
    },
    {
        "geonameId": 2499424,
        "name": "Douar el Kranif",
        "children": [
            
        ]
    },
    {
        "geonameId": 2499415,
        "name": "Douar el Mkh\u00e2lif",
        "children": [
            
        ]
    },
    {
        "geonameId": 2579821,
        "name": "Douar el Mouelek",
        "children": [
            
        ]
    },
    {
        "geonameId": 2499414,
        "name": "Douar el Mou\u00e2fka",
        "children": [
            
        ]
    },
    {
        "geonameId": 2483594,
        "name": "Douar er R\u00e2ar\u00e2a",
        "children": [
            
        ]
    },
    {
        "geonameId": 2499400,
        "name": "Douar es Sah\u00eelia",
        "children": [
            
        ]
    },
    {
        "geonameId": 2499394,
        "name": "Douar ez Zm\u00eala",
        "children": [
            
        ]
    },
    {
        "geonameId": 2503465,
        "name": "Eddra\u00e2 el Barouak",
        "children": [
            
        ]
    },
    {
        "geonameId": 2499463,
        "name": "El Abadlia",
        "children": [
            
        ]
    },
    {
        "geonameId": 2498474,
        "name": "El Bordj",
        "children": [
            
        ]
    },
    {
        "geonameId": 2499448,
        "name": "El Djaadria",
        "children": [
            
        ]
    },
    {
        "geonameId": 2499407,
        "name": "El Ferfera",
        "children": [
            
        ]
    },
    {
        "geonameId": 8354448,
        "name": "El Guettana",
        "children": [
            
        ]
    },
    {
        "geonameId": 2498203,
        "name": "El Hachem",
        "children": [
            
        ]
    },
    {
        "geonameId": 2499433,
        "name": "El Hama\u00efdia",
        "children": [
            
        ]
    },
    {
        "geonameId": 2497927,
        "name": "El Keurt",
        "children": [
            
        ]
    },
    {
        "geonameId": 2490224,
        "name": "El Mamounia",
        "children": [
            
        ]
    },
    {
        "geonameId": 2490191,
        "name": "El Menaceria",
        "children": [
            
        ]
    },
    {
        "geonameId": 2499409,
        "name": "El Ouennene",
        "children": [
            
        ]
    },
    {
        "geonameId": 2499392,
        "name": "Fergo\u00fbg",
        "children": [
            
        ]
    },
    {
        "geonameId": 2577416,
        "name": "Ferraguig",
        "children": [
            
        ]
    },
    {
        "geonameId": 2496210,
        "name": "Froha",
        "children": [
            
        ]
    },
    {
        "geonameId": 2496036,
        "name": "Ghriss",
        "children": [
            
        ]
    },
    {
        "geonameId": 2499318,
        "name": "Guerdjoum",
        "children": [
            
        ]
    },
    {
        "geonameId": 2495159,
        "name": "Hacine",
        "children": [
            
        ]
    },
    {
        "geonameId": 2499380,
        "name": "Hadj Djilali",
        "children": [
            
        ]
    },
    {
        "geonameId": 2494675,
        "name": "Hameau de l\u2019H\u00e2bra",
        "children": [
            
        ]
    },
    {
        "geonameId": 2499382,
        "name": "Hdjadjra",
        "children": [
            
        ]
    },
    {
        "geonameId": 2502998,
        "name": "Jean-Mermoz",
        "children": [
            
        ]
    },
    {
        "geonameId": 2492130,
        "name": "Khalouia",
        "children": [
            
        ]
    },
    {
        "geonameId": 2499237,
        "name": "Khlalfa",
        "children": [
            
        ]
    },
    {
        "geonameId": 2491519,
        "name": "Kouassem",
        "children": [
            
        ]
    },
    {
        "geonameId": 2579240,
        "name": "Lakhsaybia",
        "children": [
            
        ]
    },
    {
        "geonameId": 2579464,
        "name": "Mabrouka",
        "children": [
            
        ]
    },
    {
        "geonameId": 2485365,
        "name": "Makhda",
        "children": [
            
        ]
    },
    {
        "geonameId": 2490167,
        "name": "Maoussa",
        "children": [
            
        ]
    },
    {
        "geonameId": 2490098,
        "name": "Mascara",
        "children": [
            {
                "geonameId": 7392768,
                "name": "Cit\u00e9 Boulilif",
                "children": [
                    
                ]
            },
            {
                "geonameId": 2505863,
                "name": "Faubourg Bab-Ali",
                "children": [
                    
                ]
            },
            {
                "geonameId": 2496746,
                "name": "Faubourg Bel Air",
                "children": [
                    
                ]
            },
            {
                "geonameId": 2496742,
                "name": "Faubourg Faidherbe",
                "children": [
                    
                ]
            },
            {
                "geonameId": 2496739,
                "name": "Faubourg Martin",
                "children": [
                    
                ]
            },
            {
                "geonameId": 2579246,
                "name": "Gare",
                "children": [
                    
                ]
            },
            {
                "geonameId": 2581280,
                "name": "Redoute",
                "children": [
                    
                ]
            },
            {
                "geonameId": 2581282,
                "name": "Sidi Lahbib",
                "children": [
                    
                ]
            }
        ]
    },
    {
        "geonameId": 2490057,
        "name": "Matemore",
        "children": [
            
        ]
    },
    {
        "geonameId": 2578997,
        "name": "Ma\u00e2rfia",
        "children": [
            
        ]
    },
    {
        "geonameId": 2488759,
        "name": "Medjouna",
        "children": [
            
        ]
    },
    {
        "geonameId": 2499355,
        "name": "Mega\u00efd\u00efa",
        "children": [
            
        ]
    },
    {
        "geonameId": 2499351,
        "name": "Mekratria",
        "children": [
            
        ]
    },
    {
        "geonameId": 2581304,
        "name": "Mlaytia",
        "children": [
            
        ]
    },
    {
        "geonameId": 2487306,
        "name": "Mocta Douz",
        "children": [
            
        ]
    },
    {
        "geonameId": 2487293,
        "name": "Mohammadia",
        "children": [
            
        ]
    },
    {
        "geonameId": 2499341,
        "name": "Mohammed Ben Djilah",
        "children": [
            
        ]
    },
    {
        "geonameId": 2579489,
        "name": "M\u2019kha\u00efchia",
        "children": [
            
        ]
    },
    {
        "geonameId": 2499332,
        "name": "M\u2019zaoura",
        "children": [
            
        ]
    },
    {
        "geonameId": 2486225,
        "name": "Nesmot",
        "children": [
            
        ]
    },
    {
        "geonameId": 2485988,
        "name": "Oggaz",
        "children": [
            
        ]
    },
    {
        "geonameId": 2485562,
        "name": "Oued Taria",
        "children": [
            
        ]
    },
    {
        "geonameId": 2485636,
        "name": "Oued el Abtal",
        "children": [
            
        ]
    },
    {
        "geonameId": 2485132,
        "name": "Oulad Sidi Ben Yassed",
        "children": [
            
        ]
    },
    {
        "geonameId": 2579230,
        "name": "Oulad el Hadj el Habib",
        "children": [
            
        ]
    },
    {
        "geonameId": 2485056,
        "name": "Ouled Abd el Ouahed",
        "children": [
            
        ]
    },
    {
        "geonameId": 2581541,
        "name": "Ouled Aissa",
        "children": [
            
        ]
    },
    {
        "geonameId": 2484993,
        "name": "Ouled Bellil",
        "children": [
            
        ]
    },
    {
        "geonameId": 2578896,
        "name": "Ouled Bene Moussa",
        "children": [
            
        ]
    },
    {
        "geonameId": 2499281,
        "name": "Ouled Brahim",
        "children": [
            
        ]
    },
    {
        "geonameId": 2499329,
        "name": "Ouled Che\u00efkh",
        "children": [
            
        ]
    },
    {
        "geonameId": 2579691,
        "name": "Ouled Dellah",
        "children": [
            
        ]
    },
    {
        "geonameId": 2499244,
        "name": "Ouled Faya",
        "children": [
            
        ]
    },
    {
        "geonameId": 2579815,
        "name": "Ouled Guenoun",
        "children": [
            
        ]
    },
    {
        "geonameId": 2499263,
        "name": "Ouled Larbi",
        "children": [
            
        ]
    },
    {
        "geonameId": 2484789,
        "name": "Ouled Sidi Khalifa",
        "children": [
            
        ]
    },
    {
        "geonameId": 2499224,
        "name": "Ouled Sidi Salem",
        "children": [
            
        ]
    },
    {
        "geonameId": 2581534,
        "name": "Ouled Sidi el Hadj",
        "children": [
            
        ]
    },
    {
        "geonameId": 2581502,
        "name": "Ouled Sidi el Mehdi",
        "children": [
            
        ]
    },
    {
        "geonameId": 2499246,
        "name": "Ouled Snoussi",
        "children": [
            
        ]
    },
    {
        "geonameId": 2499245,
        "name": "Ouled Yahia",
        "children": [
            
        ]
    },
    {
        "geonameId": 2499275,
        "name": "Ouled el Arbi",
        "children": [
            
        ]
    },
    {
        "geonameId": 2499273,
        "name": "Ouled el Hadj Habib",
        "children": [
            
        ]
    },
    {
        "geonameId": 2482592,
        "name": "Sahaouria",
        "children": [
            {
                "geonameId": 2577690,
                "name": "Douar Abd el Hadi",
                "children": [
                    
                ]
            },
            {
                "geonameId": 2577707,
                "name": "Douar Ben Della",
                "children": [
                    
                ]
            }
        ]
    },
    {
        "geonameId": 2491199,
        "name": "Sidi Abd el Moumene",
        "children": [
            
        ]
    },
    {
        "geonameId": 2480389,
        "name": "Sidi Kada",
        "children": [
            
        ]
    },
    {
        "geonameId": 2579105,
        "name": "Sidi Larbi Belmaktar",
        "children": [
            
        ]
    },
    {
        "geonameId": 2480492,
        "name": "Sidi el Mokhf",
        "children": [
            
        ]
    },
    {
        "geonameId": 2479609,
        "name": "Sig",
        "children": [
            
        ]
    },
    {
        "geonameId": 2499360,
        "name": "Slatna",
        "children": [
            
        ]
    },
    {
        "geonameId": 2499220,
        "name": "Sma\u00efchia",
        "children": [
            
        ]
    },
    {
        "geonameId": 2476700,
        "name": "Tighenif",
        "children": [
            
        ]
    },
    {
        "geonameId": 2475785,
        "name": "Tizi",
        "children": [
            
        ]
    },
    {
        "geonameId": 2474673,
        "name": "Zelamta",
        "children": [
            
        ]
    },
    {
        "geonameId": 2499203,
        "name": "Zerama",
        "children": [
            
        ]
    },
    {
        "geonameId": 2499200,
        "name": "Zlalta",
        "children": [
            
        ]
    },
    {
        "geonameId": 2508241,
        "name": "\u2019A\u00efn Cheurfa",
        "children": [
            
        ]
    },
    {
        "geonameId": 2508095,
        "name": "\u2019A\u00efn Fekan",
        "children": [
            
        ]
    }
]