[
    {
        "geonameId": 2508728,
        "name": "Afra",
        "children": [
            
        ]
    },
    {
        "geonameId": 2506641,
        "name": "Arbacha",
        "children": [
            
        ]
    },
    {
        "geonameId": 2506316,
        "name": "Aslellef",
        "children": [
            
        ]
    },
    {
        "geonameId": 2505861,
        "name": "Babar",
        "children": [
            
        ]
    },
    {
        "geonameId": 2505815,
        "name": "Bagha\u00ef",
        "children": [
            
        ]
    },
    {
        "geonameId": 2505640,
        "name": "Barekache",
        "children": [
            
        ]
    },
    {
        "geonameId": 2502204,
        "name": "Bou Yakadane",
        "children": [
            
        ]
    },
    {
        "geonameId": 2502185,
        "name": "Bou Zab\u00e8ne",
        "children": [
            
        ]
    },
    {
        "geonameId": 2503291,
        "name": "Boudella",
        "children": [
            
        ]
    },
    {
        "geonameId": 2502989,
        "name": "Bouhmama",
        "children": [
            
        ]
    },
    {
        "geonameId": 2501681,
        "name": "Chebla",
        "children": [
            
        ]
    },
    {
        "geonameId": 2500488,
        "name": "Dhalaa",
        "children": [
            
        ]
    },
    {
        "geonameId": 2500338,
        "name": "Djaarir",
        "children": [
            
        ]
    },
    {
        "geonameId": 2500269,
        "name": "Djaousses",
        "children": [
            
        ]
    },
    {
        "geonameId": 2500081,
        "name": "Djedida",
        "children": [
            
        ]
    },
    {
        "geonameId": 2499989,
        "name": "Djellal",
        "children": [
            
        ]
    },
    {
        "geonameId": 2498708,
        "name": "El Amra",
        "children": [
            
        ]
    },
    {
        "geonameId": 2498117,
        "name": "El Hamma",
        "children": [
            
        ]
    },
    {
        "geonameId": 2497792,
        "name": "El Ksour",
        "children": [
            
        ]
    },
    {
        "geonameId": 2497437,
        "name": "El Ogla",
        "children": [
            
        ]
    },
    {
        "geonameId": 2497403,
        "name": "El Ouendoura",
        "children": [
            
        ]
    },
    {
        "geonameId": 2497387,
        "name": "El Ouldja",
        "children": [
            
        ]
    },
    {
        "geonameId": 2496220,
        "name": "Fridjou",
        "children": [
            
        ]
    },
    {
        "geonameId": 2496073,
        "name": "Gasses",
        "children": [
            
        ]
    },
    {
        "geonameId": 2495542,
        "name": "Guentis",
        "children": [
            
        ]
    },
    {
        "geonameId": 2493908,
        "name": "Hennchir Ali Ben Athmane",
        "children": [
            
        ]
    },
    {
        "geonameId": 2493904,
        "name": "Hennchir Douames",
        "children": [
            
        ]
    },
    {
        "geonameId": 2492809,
        "name": "Ka\u00efs",
        "children": [
            
        ]
    },
    {
        "geonameId": 2491889,
        "name": "Khenchela",
        "children": [
            
        ]
    },
    {
        "geonameId": 2491968,
        "name": "Khe\u00efrane",
        "children": [
            
        ]
    },
    {
        "geonameId": 2491292,
        "name": "Ksar Zazia",
        "children": [
            
        ]
    },
    {
        "geonameId": 2593175,
        "name": "Machta Haltoufa",
        "children": [
            
        ]
    },
    {
        "geonameId": 2489742,
        "name": "Mechta Ben Ferch",
        "children": [
            
        ]
    },
    {
        "geonameId": 2489662,
        "name": "Mechta Bracha",
        "children": [
            
        ]
    },
    {
        "geonameId": 2489647,
        "name": "Mechta Chabet Zizi",
        "children": [
            
        ]
    },
    {
        "geonameId": 2589499,
        "name": "Mechta Dekhakhene",
        "children": [
            
        ]
    },
    {
        "geonameId": 2489608,
        "name": "Mechta Djebabra",
        "children": [
            
        ]
    },
    {
        "geonameId": 2489543,
        "name": "Mechta Halloufa",
        "children": [
            
        ]
    },
    {
        "geonameId": 2489368,
        "name": "Mechta Ouled Abd er Rahmane",
        "children": [
            
        ]
    },
    {
        "geonameId": 2489362,
        "name": "Mechta Ouled Ali Ben Embarek",
        "children": [
            
        ]
    },
    {
        "geonameId": 2489359,
        "name": "Mechta Ouled Amara",
        "children": [
            
        ]
    },
    {
        "geonameId": 2489360,
        "name": "Mechta Ouled Amara",
        "children": [
            
        ]
    },
    {
        "geonameId": 2489352,
        "name": "Mechta Ouled Belkassem Ben Soltane",
        "children": [
            
        ]
    },
    {
        "geonameId": 2489329,
        "name": "Mechta Ouled Mahnia",
        "children": [
            
        ]
    },
    {
        "geonameId": 2489258,
        "name": "Mechta Safel Bakar",
        "children": [
            
        ]
    },
    {
        "geonameId": 2489257,
        "name": "Mechta Safel Bou Djerane",
        "children": [
            
        ]
    },
    {
        "geonameId": 2489251,
        "name": "Mechta Safel M\u2019Toussa",
        "children": [
            
        ]
    },
    {
        "geonameId": 2489077,
        "name": "Mechtat el Kemine",
        "children": [
            
        ]
    },
    {
        "geonameId": 2486616,
        "name": "M\u2019Toussa",
        "children": [
            
        ]
    },
    {
        "geonameId": 2485352,
        "name": "Oulad Belkassem",
        "children": [
            
        ]
    },
    {
        "geonameId": 2485151,
        "name": "Oulad Seba",
        "children": [
            
        ]
    },
    {
        "geonameId": 2485102,
        "name": "Oulad Tsabet",
        "children": [
            
        ]
    },
    {
        "geonameId": 2484754,
        "name": "Oulhadj",
        "children": [
            
        ]
    },
    {
        "geonameId": 2484394,
        "name": "Ounrhal",
        "children": [
            
        ]
    },
    {
        "geonameId": 2481990,
        "name": "Se\u00efar",
        "children": [
            
        ]
    },
    {
        "geonameId": 2478997,
        "name": "Tabenndout",
        "children": [
            
        ]
    },
    {
        "geonameId": 2478993,
        "name": "Taberdga",
        "children": [
            
        ]
    },
    {
        "geonameId": 2478819,
        "name": "Tadount",
        "children": [
            
        ]
    },
    {
        "geonameId": 2478800,
        "name": "Tafassour",
        "children": [
            
        ]
    },
    {
        "geonameId": 2478797,
        "name": "Tafechna",
        "children": [
            
        ]
    },
    {
        "geonameId": 2478740,
        "name": "Tafrennt",
        "children": [
            
        ]
    },
    {
        "geonameId": 2478224,
        "name": "Tamama\u00eft",
        "children": [
            
        ]
    },
    {
        "geonameId": 2478049,
        "name": "Tamza",
        "children": [
            
        ]
    },
    {
        "geonameId": 2477695,
        "name": "Tarzout",
        "children": [
            
        ]
    },
    {
        "geonameId": 2477532,
        "name": "Tazougart",
        "children": [
            
        ]
    },
    {
        "geonameId": 2477489,
        "name": "Tebaga",
        "children": [
            
        ]
    },
    {
        "geonameId": 2475753,
        "name": "Tizint",
        "children": [
            
        ]
    },
    {
        "geonameId": 2474885,
        "name": "Zaouia",
        "children": [
            
        ]
    },
    {
        "geonameId": 2474222,
        "name": "Zoui",
        "children": [
            
        ]
    },
    {
        "geonameId": 2508015,
        "name": "\u2019A\u00efn Mdila",
        "children": [
            
        ]
    },
    {
        "geonameId": 2507882,
        "name": "\u2019A\u00efn Touila",
        "children": [
            
        ]
    }
]