[
    {
        "geonameId": 2508737,
        "name": "Aflou",
        "children": [
            
        ]
    },
    {
        "geonameId": 2508658,
        "name": "Agneb",
        "children": [
            
        ]
    },
    {
        "geonameId": 2502215,
        "name": "Bou Trekfine",
        "children": [
            
        ]
    },
    {
        "geonameId": 2502021,
        "name": "Brida",
        "children": [
            
        ]
    },
    {
        "geonameId": 2498604,
        "name": "El Assafia",
        "children": [
            
        ]
    },
    {
        "geonameId": 2498603,
        "name": "El Assafia el Khalia",
        "children": [
            
        ]
    },
    {
        "geonameId": 2498316,
        "name": "El Ghicha",
        "children": [
            
        ]
    },
    {
        "geonameId": 2498071,
        "name": "El Haouita",
        "children": [
            
        ]
    },
    {
        "geonameId": 2497877,
        "name": "El Kheneg",
        "children": [
            
        ]
    },
    {
        "geonameId": 2497782,
        "name": "El Laout",
        "children": [
            
        ]
    },
    {
        "geonameId": 2497247,
        "name": "Ennfouss",
        "children": [
            
        ]
    },
    {
        "geonameId": 2495629,
        "name": "Gueltat Sidi Saad",
        "children": [
            
        ]
    },
    {
        "geonameId": 2491454,
        "name": "Kourdane",
        "children": [
            
        ]
    },
    {
        "geonameId": 2491312,
        "name": "Ksar Kabeg",
        "children": [
            
        ]
    },
    {
        "geonameId": 2491305,
        "name": "Ksar Netsila",
        "children": [
            
        ]
    },
    {
        "geonameId": 2491317,
        "name": "Ksar el Hirane",
        "children": [
            
        ]
    },
    {
        "geonameId": 2491191,
        "name": "Laghouat",
        "children": [
            
        ]
    },
    {
        "geonameId": 2487628,
        "name": "Metlili",
        "children": [
            
        ]
    },
    {
        "geonameId": 2487350,
        "name": "Mkam Sidi Mabrouk",
        "children": [
            
        ]
    },
    {
        "geonameId": 2485593,
        "name": "Oued Morra",
        "children": [
            
        ]
    },
    {
        "geonameId": 2480644,
        "name": "Sidi Djelloul",
        "children": [
            
        ]
    },
    {
        "geonameId": 2480260,
        "name": "Sidi Makhlouf",
        "children": [
            
        ]
    },
    {
        "geonameId": 2478851,
        "name": "Tadjerouna",
        "children": [
            
        ]
    },
    {
        "geonameId": 2478840,
        "name": "Tadjmout",
        "children": [
            
        ]
    },
    {
        "geonameId": 2477947,
        "name": "Taouiala",
        "children": [
            
        ]
    },
    {
        "geonameId": 2508022,
        "name": "\ufffd\ufffd\ufffdA\ufffd\ufffdn Mahdi",
        "children": [
            
        ]
    }
]