[
    {
        "geonameId": 2508987,
        "name": "Achira",
        "children": [
            
        ]
    },
    {
        "geonameId": 2508772,
        "name": "Afarnou",
        "children": [
            
        ]
    },
    {
        "geonameId": 2507165,
        "name": "Amkarta",
        "children": [
            
        ]
    },
    {
        "geonameId": 2503711,
        "name": "Arago",
        "children": [
            
        ]
    },
    {
        "geonameId": 2506597,
        "name": "Ard\u00eekh",
        "children": [
            
        ]
    },
    {
        "geonameId": 2506566,
        "name": "Arezzou",
        "children": [
            
        ]
    },
    {
        "geonameId": 2506250,
        "name": "Asselbou",
        "children": [
            
        ]
    },
    {
        "geonameId": 2504623,
        "name": "Beni Meraz",
        "children": [
            
        ]
    },
    {
        "geonameId": 2503946,
        "name": "Bida",
        "children": [
            
        ]
    },
    {
        "geonameId": 2503554,
        "name": "Bou Adjem",
        "children": [
            
        ]
    },
    {
        "geonameId": 2503490,
        "name": "Bou Amara",
        "children": [
            
        ]
    },
    {
        "geonameId": 2503046,
        "name": "Bou Hamdoune",
        "children": [
            
        ]
    },
    {
        "geonameId": 2502344,
        "name": "Bou Semlel",
        "children": [
            
        ]
    },
    {
        "geonameId": 2502339,
        "name": "Bou Serfas",
        "children": [
            
        ]
    },
    {
        "geonameId": 2502178,
        "name": "Bou Zaki",
        "children": [
            
        ]
    },
    {
        "geonameId": 2503450,
        "name": "Bou \u2019Asli",
        "children": [
            
        ]
    },
    {
        "geonameId": 2503224,
        "name": "Boudoukha",
        "children": [
            
        ]
    },
    {
        "geonameId": 2502181,
        "name": "Bouzaguene",
        "children": [
            
        ]
    },
    {
        "geonameId": 2503371,
        "name": "Bo\u00fb Ch\u00e2ref",
        "children": [
            
        ]
    },
    {
        "geonameId": 2590660,
        "name": "Caf\u00e9 Maure",
        "children": [
            
        ]
    },
    {
        "geonameId": 2501832,
        "name": "Chahana",
        "children": [
            
        ]
    },
    {
        "geonameId": 2501664,
        "name": "Cheddia",
        "children": [
            
        ]
    },
    {
        "geonameId": 2501547,
        "name": "Chekfa",
        "children": [
            
        ]
    },
    {
        "geonameId": 2501221,
        "name": "Cho\u00fbf et Tn\u00eene",
        "children": [
            
        ]
    },
    {
        "geonameId": 2500836,
        "name": "Dar Salane",
        "children": [
            
        ]
    },
    {
        "geonameId": 2500708,
        "name": "Dechra Ouled Messaouda",
        "children": [
            
        ]
    },
    {
        "geonameId": 2500707,
        "name": "Dechra Takhn\u00e2k",
        "children": [
            
        ]
    },
    {
        "geonameId": 2500604,
        "name": "Dekkara",
        "children": [
            
        ]
    },
    {
        "geonameId": 2499265,
        "name": "Douar Ouled K\u00e2ssem",
        "children": [
            
        ]
    },
    {
        "geonameId": 2499289,
        "name": "Douar Ouled \u2019Arbi",
        "children": [
            
        ]
    },
    {
        "geonameId": 2500907,
        "name": "D\u00e2r Braham",
        "children": [
            
        ]
    },
    {
        "geonameId": 2500875,
        "name": "D\u00e2r el Hammoud",
        "children": [
            
        ]
    },
    {
        "geonameId": 2498928,
        "name": "Ed Damna el Kebir",
        "children": [
            
        ]
    },
    {
        "geonameId": 2498718,
        "name": "El Allaoucha",
        "children": [
            
        ]
    },
    {
        "geonameId": 2498699,
        "name": "El Ancer",
        "children": [
            
        ]
    },
    {
        "geonameId": 2498680,
        "name": "El Aouana",
        "children": [
            
        ]
    },
    {
        "geonameId": 2498733,
        "name": "El A\u00efoun",
        "children": [
            
        ]
    },
    {
        "geonameId": 2498519,
        "name": "El Bekara",
        "children": [
            
        ]
    },
    {
        "geonameId": 2498415,
        "name": "El Djerf",
        "children": [
            
        ]
    },
    {
        "geonameId": 2498236,
        "name": "El Gueroua",
        "children": [
            
        ]
    },
    {
        "geonameId": 2498212,
        "name": "El Habal",
        "children": [
            
        ]
    },
    {
        "geonameId": 2498194,
        "name": "El Haddada",
        "children": [
            
        ]
    },
    {
        "geonameId": 2498184,
        "name": "El Hadj Ameur",
        "children": [
            
        ]
    },
    {
        "geonameId": 2498163,
        "name": "El Hadoud",
        "children": [
            
        ]
    },
    {
        "geonameId": 2498008,
        "name": "El Hot",
        "children": [
            
        ]
    },
    {
        "geonameId": 2497884,
        "name": "El Khemis",
        "children": [
            
        ]
    },
    {
        "geonameId": 2497773,
        "name": "El Maad",
        "children": [
            
        ]
    },
    {
        "geonameId": 2497702,
        "name": "El Mardja",
        "children": [
            
        ]
    },
    {
        "geonameId": 2497698,
        "name": "El Marsa",
        "children": [
            
        ]
    },
    {
        "geonameId": 2497577,
        "name": "El Merassel",
        "children": [
            
        ]
    },
    {
        "geonameId": 2497548,
        "name": "El Mersa",
        "children": [
            
        ]
    },
    {
        "geonameId": 2497509,
        "name": "El Milia",
        "children": [
            
        ]
    },
    {
        "geonameId": 2497494,
        "name": "El Mo\u00efd",
        "children": [
            
        ]
    },
    {
        "geonameId": 2497444,
        "name": "El Msila",
        "children": [
            
        ]
    },
    {
        "geonameId": 2497428,
        "name": "El Ouadia",
        "children": [
            
        ]
    },
    {
        "geonameId": 2497386,
        "name": "El Ouldja",
        "children": [
            
        ]
    },
    {
        "geonameId": 2497329,
        "name": "El Rhirane",
        "children": [
            
        ]
    },
    {
        "geonameId": 2497299,
        "name": "Em\u00eer Abdelkader",
        "children": [
            
        ]
    },
    {
        "geonameId": 2497259,
        "name": "En Nemala",
        "children": [
            
        ]
    },
    {
        "geonameId": 2496978,
        "name": "Et Toubabcha",
        "children": [
            
        ]
    },
    {
        "geonameId": 2496933,
        "name": "Ez Zaouia",
        "children": [
            
        ]
    },
    {
        "geonameId": 2495986,
        "name": "Goubia",
        "children": [
            
        ]
    },
    {
        "geonameId": 2495209,
        "name": "Habassa",
        "children": [
            
        ]
    },
    {
        "geonameId": 2493929,
        "name": "Henchia",
        "children": [
            
        ]
    },
    {
        "geonameId": 2492913,
        "name": "Jijel",
        "children": [
            
        ]
    },
    {
        "geonameId": 2492738,
        "name": "Kaous",
        "children": [
            
        ]
    },
    {
        "geonameId": 2492649,
        "name": "Kebaba",
        "children": [
            
        ]
    },
    {
        "geonameId": 2491282,
        "name": "Kse\u00efr Omrane",
        "children": [
            
        ]
    },
    {
        "geonameId": 2489826,
        "name": "Mechta Abr\u00eer\u00ee",
        "children": [
            
        ]
    },
    {
        "geonameId": 2489823,
        "name": "Mechta Afouz\u00e2r",
        "children": [
            
        ]
    },
    {
        "geonameId": 2489764,
        "name": "Mechta Azaro\u00fbd",
        "children": [
            
        ]
    },
    {
        "geonameId": 2489756,
        "name": "Mechta Barcho\u00fbm",
        "children": [
            
        ]
    },
    {
        "geonameId": 2489738,
        "name": "Mechta Beni Mahbo\u00fbb",
        "children": [
            
        ]
    },
    {
        "geonameId": 2489733,
        "name": "Mechta Beni Zebb\u00e2ne",
        "children": [
            
        ]
    },
    {
        "geonameId": 2489677,
        "name": "Mechta Bo\u00fb Ma\u2019\u00e2d",
        "children": [
            
        ]
    },
    {
        "geonameId": 2489673,
        "name": "Mechta Bo\u00fb N\u00e2bel",
        "children": [
            
        ]
    },
    {
        "geonameId": 2489699,
        "name": "Mechta Bo\u00fb \u2019Afro\u00fbn",
        "children": [
            
        ]
    },
    {
        "geonameId": 2489584,
        "name": "Mechta Ench\u00eed",
        "children": [
            
        ]
    },
    {
        "geonameId": 2489535,
        "name": "Mechta I\u00e2h\u00eemo\u00fbn",
        "children": [
            
        ]
    },
    {
        "geonameId": 2489527,
        "name": "Mechta Kando\u00fbl el Akehal",
        "children": [
            
        ]
    },
    {
        "geonameId": 2489495,
        "name": "Mechta Ko\u00fbrmatane",
        "children": [
            
        ]
    },
    {
        "geonameId": 2489494,
        "name": "Mechta Krah\u00e2la",
        "children": [
            
        ]
    },
    {
        "geonameId": 2489529,
        "name": "Mechta K\u00e2kouch",
        "children": [
            
        ]
    },
    {
        "geonameId": 2489425,
        "name": "Mechta Msid el Foukania",
        "children": [
            
        ]
    },
    {
        "geonameId": 2489384,
        "name": "Mechta Oulad Rhani",
        "children": [
            
        ]
    },
    {
        "geonameId": 2489381,
        "name": "Mechta Oulad Sa\u2019\u00eed",
        "children": [
            
        ]
    },
    {
        "geonameId": 2489373,
        "name": "Mechta Oulad Ya\u2019Ko\u00fbb",
        "children": [
            
        ]
    },
    {
        "geonameId": 2489343,
        "name": "Mechta Ouled Bo\u00fb Kh\u00eena",
        "children": [
            
        ]
    },
    {
        "geonameId": 2489345,
        "name": "Mechta Ouled Bo\u00fb el Mn\u00e2ker",
        "children": [
            
        ]
    },
    {
        "geonameId": 2489353,
        "name": "Mechta Ouled B\u00e2rch",
        "children": [
            
        ]
    },
    {
        "geonameId": 2489303,
        "name": "Mechta Ouled Zekri",
        "children": [
            
        ]
    },
    {
        "geonameId": 2489193,
        "name": "Mechta Tahra ez Z\u00e2ne",
        "children": [
            
        ]
    },
    {
        "geonameId": 2489175,
        "name": "Mechta Ta\u00efrao",
        "children": [
            
        ]
    },
    {
        "geonameId": 2489179,
        "name": "Mechta T\u00e2rher\u00e2cht",
        "children": [
            
        ]
    },
    {
        "geonameId": 2489178,
        "name": "Mechta T\u00e2rzo\u00fbs",
        "children": [
            
        ]
    },
    {
        "geonameId": 2489591,
        "name": "Mechta el Fedj",
        "children": [
            
        ]
    },
    {
        "geonameId": 2489589,
        "name": "Mechta el Hadjra",
        "children": [
            
        ]
    },
    {
        "geonameId": 2570474,
        "name": "Mechtat ech Chouf",
        "children": [
            
        ]
    },
    {
        "geonameId": 2570475,
        "name": "Mechtat el Mardja",
        "children": [
            
        ]
    },
    {
        "geonameId": 2574015,
        "name": "Mechtat er Romane el Kares",
        "children": [
            
        ]
    },
    {
        "geonameId": 2488574,
        "name": "Meka\u00efl",
        "children": [
            
        ]
    },
    {
        "geonameId": 2488030,
        "name": "Merchicha",
        "children": [
            
        ]
    },
    {
        "geonameId": 2488010,
        "name": "Merdjaz Erraguene",
        "children": [
            
        ]
    },
    {
        "geonameId": 2487874,
        "name": "Meroudj",
        "children": [
            
        ]
    },
    {
        "geonameId": 2487860,
        "name": "Merrira",
        "children": [
            
        ]
    },
    {
        "geonameId": 2486859,
        "name": "Mour Rane",
        "children": [
            
        ]
    },
    {
        "geonameId": 2486769,
        "name": "Mrhaz",
        "children": [
            
        ]
    },
    {
        "geonameId": 2486700,
        "name": "Msida",
        "children": [
            
        ]
    },
    {
        "geonameId": 2486695,
        "name": "Msif",
        "children": [
            
        ]
    },
    {
        "geonameId": 2485852,
        "name": "Oualil",
        "children": [
            
        ]
    },
    {
        "geonameId": 2485359,
        "name": "Oulad Ayad",
        "children": [
            
        ]
    },
    {
        "geonameId": 2489308,
        "name": "Oulad Brahim",
        "children": [
            
        ]
    },
    {
        "geonameId": 2485241,
        "name": "Oulad Khellaf",
        "children": [
            
        ]
    },
    {
        "geonameId": 2485163,
        "name": "Oulad Saada",
        "children": [
            
        ]
    },
    {
        "geonameId": 2485282,
        "name": "Oulad el Hadj",
        "children": [
            
        ]
    },
    {
        "geonameId": 2484270,
        "name": "Outa Ben Aroun",
        "children": [
            
        ]
    },
    {
        "geonameId": 2483678,
        "name": "Rekkada",
        "children": [
            
        ]
    },
    {
        "geonameId": 2483494,
        "name": "Rhaoussil",
        "children": [
            
        ]
    },
    {
        "geonameId": 2483484,
        "name": "Rhar \u2019Amr\u00e2ne",
        "children": [
            
        ]
    },
    {
        "geonameId": 2483383,
        "name": "Rhedir Cha\u00efr",
        "children": [
            
        ]
    },
    {
        "geonameId": 2481780,
        "name": "Seratou",
        "children": [
            
        ]
    },
    {
        "geonameId": 2481689,
        "name": "Settara",
        "children": [
            
        ]
    },
    {
        "geonameId": 2481566,
        "name": "Sidi Abdelaziz",
        "children": [
            
        ]
    },
    {
        "geonameId": 2479047,
        "name": "Tabadja",
        "children": [
            
        ]
    },
    {
        "geonameId": 2478554,
        "name": "Taher",
        "children": [
            
        ]
    },
    {
        "geonameId": 2478138,
        "name": "Tamentout",
        "children": [
            
        ]
    },
    {
        "geonameId": 2477587,
        "name": "Taza",
        "children": [
            
        ]
    },
    {
        "geonameId": 2477562,
        "name": "Taz\u00eammourt",
        "children": [
            
        ]
    },
    {
        "geonameId": 2477499,
        "name": "Tboula",
        "children": [
            
        ]
    },
    {
        "geonameId": 2477167,
        "name": "Temoula",
        "children": [
            
        ]
    },
    {
        "geonameId": 2476947,
        "name": "Texenna",
        "children": [
            
        ]
    },
    {
        "geonameId": 2476860,
        "name": "Tiboun",
        "children": [
            
        ]
    },
    {
        "geonameId": 2476734,
        "name": "Tif\u00eerassene",
        "children": [
            
        ]
    },
    {
        "geonameId": 2503203,
        "name": "Tissemirane",
        "children": [
            
        ]
    },
    {
        "geonameId": 2475729,
        "name": "Tizmat",
        "children": [
            
        ]
    },
    {
        "geonameId": 2475719,
        "name": "Tizrara",
        "children": [
            
        ]
    },
    {
        "geonameId": 2475680,
        "name": "Tleta",
        "children": [
            
        ]
    },
    {
        "geonameId": 2475269,
        "name": "Tourk Houm",
        "children": [
            
        ]
    },
    {
        "geonameId": 2489687,
        "name": "Zaouia Ras Bellout",
        "children": [
            
        ]
    },
    {
        "geonameId": 2478924,
        "name": "Zaouia Tachta",
        "children": [
            
        ]
    },
    {
        "geonameId": 2498165,
        "name": "Zaouia el Hadjria",
        "children": [
            
        ]
    },
    {
        "geonameId": 2474186,
        "name": "Zra el Mial",
        "children": [
            
        ]
    },
    {
        "geonameId": 2474187,
        "name": "Zraa el Hadjer",
        "children": [
            
        ]
    }
]