[
    {
        "geonameId": 2508893,
        "name": "Adjahil",
        "children": [
            
        ]
    },
    {
        "geonameId": 2506011,
        "name": "Azelouaz",
        "children": [
            
        ]
    },
    {
        "geonameId": 2503633,
        "name": "Bordj Omar Driss",
        "children": [
            
        ]
    },
    {
        "geonameId": 2500275,
        "name": "Djanet",
        "children": [
            
        ]
    },
    {
        "geonameId": 2498857,
        "name": "Edjeleh",
        "children": [
            
        ]
    },
    {
        "geonameId": 2497510,
        "name": "El Mihan",
        "children": [
            
        ]
    },
    {
        "geonameId": 2494071,
        "name": "Hassi Bel Guebbour",
        "children": [
            
        ]
    },
    {
        "geonameId": 2493330,
        "name": "I-n-Amenas",
        "children": [
            
        ]
    },
    {
        "geonameId": 2219028,
        "name": "I-n-Ezzane",
        "children": [
            
        ]
    },
    {
        "geonameId": 2493546,
        "name": "Iherir",
        "children": [
            
        ]
    },
    {
        "geonameId": 2493456,
        "name": "Illizi",
        "children": [
            
        ]
    },
    {
        "geonameId": 2490358,
        "name": "Maison Rouge",
        "children": [
            
        ]
    },
    {
        "geonameId": 2485954,
        "name": "Ohanet",
        "children": [
            
        ]
    },
    {
        "geonameId": 2478236,
        "name": "Tamadjert",
        "children": [
            
        ]
    },
    {
        "geonameId": 2596857,
        "name": "Tin Alkoum",
        "children": [
            
        ]
    },
    {
        "geonameId": 2474899,
        "name": "Zaouatallaz",
        "children": [
            
        ]
    },
    {
        "geonameId": 2474819,
        "name": "Zarza\ufffd\ufffdtine",
        "children": [
            
        ]
    }
]