[
    {
        "geonameId": 2509160,
        "name": "Abdi",
        "children": [
            
        ]
    },
    {
        "geonameId": 2505134,
        "name": "Belkheir",
        "children": [
            
        ]
    },
    {
        "geonameId": 2504426,
        "name": "Ben Ouad\u00e2a",
        "children": [
            
        ]
    },
    {
        "geonameId": 2504369,
        "name": "Ben Smih",
        "children": [
            
        ]
    },
    {
        "geonameId": 2504714,
        "name": "Beni Brahim",
        "children": [
            
        ]
    },
    {
        "geonameId": 2503776,
        "name": "Bled Rhaffar",
        "children": [
            
        ]
    },
    {
        "geonameId": 2503693,
        "name": "Bordj Bou Rougaa",
        "children": [
            
        ]
    },
    {
        "geonameId": 2503692,
        "name": "Bordj Brahim Ben el Kassem",
        "children": [
            
        ]
    },
    {
        "geonameId": 2503549,
        "name": "Bouafia Hoss\u00eene",
        "children": [
            
        ]
    },
    {
        "geonameId": 2503443,
        "name": "Bouati Mahmoud",
        "children": [
            
        ]
    },
    {
        "geonameId": 2503364,
        "name": "Bouchegouf",
        "children": [
            {
                "geonameId": 2487807,
                "name": "Meskene ech Chouhada",
                "children": [
                    
                ]
            }
        ]
    },
    {
        "geonameId": 2593193,
        "name": "Bouchegout",
        "children": [
            
        ]
    },
    {
        "geonameId": 2503301,
        "name": "Boudaroua",
        "children": [
            
        ]
    },
    {
        "geonameId": 2502911,
        "name": "Boukhamouza",
        "children": [
            
        ]
    },
    {
        "geonameId": 2502686,
        "name": "Boumahra Ahmed",
        "children": [
            
        ]
    },
    {
        "geonameId": 2500237,
        "name": "Djebala",
        "children": [
            
        ]
    },
    {
        "geonameId": 2498377,
        "name": "El Fedjoudj",
        "children": [
            
        ]
    },
    {
        "geonameId": 2495708,
        "name": "Guelaa Bou Sba",
        "children": [
            
        ]
    },
    {
        "geonameId": 2495662,
        "name": "Guelma",
        "children": [
            
        ]
    },
    {
        "geonameId": 2494538,
        "name": "Hammam Meskoutine",
        "children": [
            
        ]
    },
    {
        "geonameId": 2494542,
        "name": "Hammam M\u2019Ba\u00efls",
        "children": [
            
        ]
    },
    {
        "geonameId": 2494552,
        "name": "Hamm\u00e2m Br\u00e2d",
        "children": [
            
        ]
    },
    {
        "geonameId": 2494537,
        "name": "Hamm\u00e2m Ouled Ali",
        "children": [
            
        ]
    },
    {
        "geonameId": 2494297,
        "name": "Haouch M\u00eeho\u00fbb Mohammed",
        "children": [
            
        ]
    },
    {
        "geonameId": 2494307,
        "name": "Haouch \u2019Alo\u00fbt Yahya",
        "children": [
            
        ]
    },
    {
        "geonameId": 2493956,
        "name": "H\u00e9liopolis",
        "children": [
            
        ]
    },
    {
        "geonameId": 2489835,
        "name": "Mechroha",
        "children": [
            
        ]
    },
    {
        "geonameId": 2489744,
        "name": "Mechta Ben Brahim",
        "children": [
            
        ]
    },
    {
        "geonameId": 2489730,
        "name": "Mechta Ben Laabed",
        "children": [
            
        ]
    },
    {
        "geonameId": 2489725,
        "name": "Mechta Ben Otmane",
        "children": [
            
        ]
    },
    {
        "geonameId": 2489737,
        "name": "Mechta Beni Melloul",
        "children": [
            
        ]
    },
    {
        "geonameId": 2489734,
        "name": "Mechta Beni Sekfal",
        "children": [
            
        ]
    },
    {
        "geonameId": 2489706,
        "name": "Mechta Bir Khannga",
        "children": [
            
        ]
    },
    {
        "geonameId": 2489688,
        "name": "Mechta Bou Douh",
        "children": [
            
        ]
    },
    {
        "geonameId": 2489686,
        "name": "Mechta Bou Hachena",
        "children": [
            
        ]
    },
    {
        "geonameId": 2489646,
        "name": "Mechta Charchara",
        "children": [
            
        ]
    },
    {
        "geonameId": 2593194,
        "name": "Mechta Jorf El Ahmar",
        "children": [
            
        ]
    },
    {
        "geonameId": 2489519,
        "name": "Mechta Kef er Rakhma",
        "children": [
            
        ]
    },
    {
        "geonameId": 2593184,
        "name": "Mechta Messous",
        "children": [
            
        ]
    },
    {
        "geonameId": 2489267,
        "name": "Mechta Rouabhia",
        "children": [
            
        ]
    },
    {
        "geonameId": 2489294,
        "name": "Mechta R\u00e2s el Ma",
        "children": [
            
        ]
    },
    {
        "geonameId": 2489240,
        "name": "Mechta Salah Ben Messaoud",
        "children": [
            
        ]
    },
    {
        "geonameId": 2489239,
        "name": "Mechta Satha",
        "children": [
            
        ]
    },
    {
        "geonameId": 2489223,
        "name": "Mechta Sidi Embarek",
        "children": [
            
        ]
    },
    {
        "geonameId": 2489219,
        "name": "Mechta Sidi M\u00e2ch",
        "children": [
            
        ]
    },
    {
        "geonameId": 2488994,
        "name": "Mechta Toufi",
        "children": [
            
        ]
    },
    {
        "geonameId": 2488956,
        "name": "Mechta Zaabouba",
        "children": [
            
        ]
    },
    {
        "geonameId": 2489813,
        "name": "Mechta \u2019A\u00efn Bou Medrah",
        "children": [
            
        ]
    },
    {
        "geonameId": 2489791,
        "name": "Mechta \u2019A\u00efn Sandel",
        "children": [
            
        ]
    },
    {
        "geonameId": 2489789,
        "name": "Mechta \u2019A\u00efn Zenaga",
        "children": [
            
        ]
    },
    {
        "geonameId": 2593192,
        "name": "Mechtat Ahmed Bel Ajmi",
        "children": [
            
        ]
    },
    {
        "geonameId": 2489142,
        "name": "Mechtat el Ababsia",
        "children": [
            
        ]
    },
    {
        "geonameId": 2489130,
        "name": "Mechtat el Argaouat",
        "children": [
            
        ]
    },
    {
        "geonameId": 2489102,
        "name": "Mechtat el Groura",
        "children": [
            
        ]
    },
    {
        "geonameId": 2489093,
        "name": "Mechtat el Hafra",
        "children": [
            
        ]
    },
    {
        "geonameId": 2489087,
        "name": "Mechtat el Hassemia",
        "children": [
            
        ]
    },
    {
        "geonameId": 2489085,
        "name": "Mechtat el Hennchir",
        "children": [
            
        ]
    },
    {
        "geonameId": 2489082,
        "name": "Mechtat el Hofara",
        "children": [
            
        ]
    },
    {
        "geonameId": 2489074,
        "name": "Mechtat el Kernia",
        "children": [
            
        ]
    },
    {
        "geonameId": 2489064,
        "name": "Mechtat el Madjene",
        "children": [
            
        ]
    },
    {
        "geonameId": 2489059,
        "name": "Mechtat el Marga",
        "children": [
            
        ]
    },
    {
        "geonameId": 2489041,
        "name": "Mechtat el Msadia",
        "children": [
            
        ]
    },
    {
        "geonameId": 2489018,
        "name": "Mechtat et Toubaga",
        "children": [
            
        ]
    },
    {
        "geonameId": 2593195,
        "name": "Mechtet Ain Maflouf",
        "children": [
            
        ]
    },
    {
        "geonameId": 2488920,
        "name": "Mechtet Ch\u00e2ref",
        "children": [
            
        ]
    },
    {
        "geonameId": 2488893,
        "name": "Mechtet Mezdo\u00fbr Bell\u00eel",
        "children": [
            
        ]
    },
    {
        "geonameId": 2488878,
        "name": "Mechtet Regr\u00eeg",
        "children": [
            
        ]
    },
    {
        "geonameId": 2488872,
        "name": "Mechtet Sidi Sm\u00eer",
        "children": [
            
        ]
    },
    {
        "geonameId": 2488910,
        "name": "Mechtet el Ma\u2019za",
        "children": [
            
        ]
    },
    {
        "geonameId": 2488934,
        "name": "Mechtet \u2019A\u00efn Hallo\u00fbf",
        "children": [
            
        ]
    },
    {
        "geonameId": 2488932,
        "name": "Mechtet \u2019A\u00efn Rommana",
        "children": [
            
        ]
    },
    {
        "geonameId": 2488771,
        "name": "Medjez Sfa",
        "children": [
            
        ]
    },
    {
        "geonameId": 2488065,
        "name": "Menzel",
        "children": [
            
        ]
    },
    {
        "geonameId": 2486891,
        "name": "Mo\u00fbmna",
        "children": [
            
        ]
    },
    {
        "geonameId": 2485653,
        "name": "Oued Cheham",
        "children": [
            
        ]
    },
    {
        "geonameId": 2485615,
        "name": "Oued Frarah",
        "children": [
            
        ]
    },
    {
        "geonameId": 2485551,
        "name": "Oued Zenati",
        "children": [
            
        ]
    },
    {
        "geonameId": 2484965,
        "name": "Ouled Bou \u2019Aziz",
        "children": [
            
        ]
    },
    {
        "geonameId": 2484182,
        "name": "Pont de Bouchegouf",
        "children": [
            
        ]
    },
    {
        "geonameId": 2482965,
        "name": "Roknia",
        "children": [
            
        ]
    },
    {
        "geonameId": 2482877,
        "name": "Rouknia",
        "children": [
            
        ]
    },
    {
        "geonameId": 2483965,
        "name": "R\u00e2s el Akba",
        "children": [
            
        ]
    },
    {
        "geonameId": 2482507,
        "name": "Saint-Honor\u00e9",
        "children": [
            
        ]
    },
    {
        "geonameId": 2478081,
        "name": "Tamlouka",
        "children": [
            
        ]
    },
    {
        "geonameId": 2475085,
        "name": "Village des Mines du Nador",
        "children": [
            
        ]
    },
    {
        "geonameId": 2508299,
        "name": "\u2019A\u00efn Amara",
        "children": [
            
        ]
    },
    {
        "geonameId": 2508298,
        "name": "\u2019A\u00efn Arko",
        "children": [
            
        ]
    },
    {
        "geonameId": 2508074,
        "name": "\u2019A\u00efn Hassainia",
        "children": [
            
        ]
    },
    {
        "geonameId": 2508020,
        "name": "\u2019A\u00efn Makhlouf",
        "children": [
            
        ]
    },
    {
        "geonameId": 2507935,
        "name": "\u2019A\u00efn Seynour",
        "children": [
            
        ]
    },
    {
        "geonameId": 2507873,
        "name": "\u2019A\u00efn Trab",
        "children": [
            
        ]
    }
]