[
    {
        "geonameId": 2507184,
        "name": "Amiche",
        "children": [
            
        ]
    },
    {
        "geonameId": 2505447,
        "name": "Behima",
        "children": [
            
        ]
    },
    {
        "geonameId": 2503416,
        "name": "Bou Be\u00efada",
        "children": [
            
        ]
    },
    {
        "geonameId": 2503132,
        "name": "Bou Goufa",
        "children": [
            
        ]
    },
    {
        "geonameId": 8410959,
        "name": "Casablanca",
        "children": [
            
        ]
    },
    {
        "geonameId": 2501642,
        "name": "Chegamat",
        "children": [
            
        ]
    },
    {
        "geonameId": 2500791,
        "name": "Debadib",
        "children": [
            
        ]
    },
    {
        "geonameId": 2500737,
        "name": "Debila",
        "children": [
            
        ]
    },
    {
        "geonameId": 2499593,
        "name": "Dmita",
        "children": [
            
        ]
    },
    {
        "geonameId": 2499033,
        "name": "Drimini",
        "children": [
            
        ]
    },
    {
        "geonameId": 2498784,
        "name": "El Ababsa",
        "children": [
            
        ]
    },
    {
        "geonameId": 2498639,
        "name": "El Arfiane",
        "children": [
            
        ]
    },
    {
        "geonameId": 2498638,
        "name": "El Arfsi",
        "children": [
            
        ]
    },
    {
        "geonameId": 2498575,
        "name": "El Baadj",
        "children": [
            
        ]
    },
    {
        "geonameId": 2498510,
        "name": "El Berd",
        "children": [
            
        ]
    },
    {
        "geonameId": 2498277,
        "name": "El Gourarir Zaouiet",
        "children": [
            
        ]
    },
    {
        "geonameId": 2497790,
        "name": "El Ktaf",
        "children": [
            
        ]
    },
    {
        "geonameId": 2497655,
        "name": "El Megha\u00efer",
        "children": [
            
        ]
    },
    {
        "geonameId": 2497438,
        "name": "El Ogla",
        "children": [
            
        ]
    },
    {
        "geonameId": 2497411,
        "name": "El Oued",
        "children": [
            
        ]
    },
    {
        "geonameId": 2497255,
        "name": "En Nessirha",
        "children": [
            
        ]
    },
    {
        "geonameId": 2496925,
        "name": "Ez Zeggoub",
        "children": [
            
        ]
    },
    {
        "geonameId": 2495601,
        "name": "Guemar",
        "children": [
            
        ]
    },
    {
        "geonameId": 2494040,
        "name": "Hassi Khelifa",
        "children": [
            
        ]
    },
    {
        "geonameId": 2491487,
        "name": "Kouinine",
        "children": [
            
        ]
    },
    {
        "geonameId": 2491408,
        "name": "Krebna",
        "children": [
            
        ]
    },
    {
        "geonameId": 2490792,
        "name": "Lizerg",
        "children": [
            
        ]
    },
    {
        "geonameId": 2490000,
        "name": "Mazer",
        "children": [
            
        ]
    },
    {
        "geonameId": 2487774,
        "name": "Messa\u00e2ba",
        "children": [
            
        ]
    },
    {
        "geonameId": 2487011,
        "name": "Moui Oum el Ahoum",
        "children": [
            
        ]
    },
    {
        "geonameId": 2487067,
        "name": "Mouiat Ouennsa",
        "children": [
            
        ]
    },
    {
        "geonameId": 2486403,
        "name": "Nakhla",
        "children": [
            
        ]
    },
    {
        "geonameId": 2486184,
        "name": "Nezlet Cha\u00e2mba",
        "children": [
            
        ]
    },
    {
        "geonameId": 2485706,
        "name": "Oude\u00ef Trek",
        "children": [
            
        ]
    },
    {
        "geonameId": 2485556,
        "name": "Oued Touati",
        "children": [
            
        ]
    },
    {
        "geonameId": 2485634,
        "name": "Oued el Alennda",
        "children": [
            
        ]
    },
    {
        "geonameId": 2484427,
        "name": "Oum Sahouine",
        "children": [
            
        ]
    },
    {
        "geonameId": 2484540,
        "name": "Oum et Tiour",
        "children": [
            
        ]
    },
    {
        "geonameId": 2484364,
        "name": "Ourir",
        "children": [
            
        ]
    },
    {
        "geonameId": 2484356,
        "name": "Ourmes",
        "children": [
            
        ]
    },
    {
        "geonameId": 2484229,
        "name": "Ouzit\u00e8ne",
        "children": [
            
        ]
    },
    {
        "geonameId": 2483746,
        "name": "Reguiba",
        "children": [
            
        ]
    },
    {
        "geonameId": 2483505,
        "name": "Rhamra",
        "children": [
            
        ]
    },
    {
        "geonameId": 2483000,
        "name": "Robbah",
        "children": [
            
        ]
    },
    {
        "geonameId": 2482615,
        "name": "Sahbane",
        "children": [
            
        ]
    },
    {
        "geonameId": 2481599,
        "name": "Sidi Abdallah",
        "children": [
            
        ]
    },
    {
        "geonameId": 2481054,
        "name": "Sidi Aoun",
        "children": [
            
        ]
    },
    {
        "geonameId": 2480344,
        "name": "Sidi Khelil",
        "children": [
            
        ]
    },
    {
        "geonameId": 2480285,
        "name": "Sidi Liman",
        "children": [
            
        ]
    },
    {
        "geonameId": 2479798,
        "name": "Sidi Slimane",
        "children": [
            
        ]
    },
    {
        "geonameId": 2479729,
        "name": "Sidi Touhami",
        "children": [
            
        ]
    },
    {
        "geonameId": 2480569,
        "name": "Sidi el Hachem",
        "children": [
            
        ]
    },
    {
        "geonameId": 2479274,
        "name": "Souehla",
        "children": [
            
        ]
    },
    {
        "geonameId": 2479086,
        "name": "Stile",
        "children": [
            
        ]
    },
    {
        "geonameId": 2477734,
        "name": "Tarhzout",
        "children": [
            
        ]
    },
    {
        "geonameId": 2477152,
        "name": "Tenedla",
        "children": [
            
        ]
    },
    {
        "geonameId": 2476573,
        "name": "Tiksebt",
        "children": [
            
        ]
    },
    {
        "geonameId": 2475187,
        "name": "Trifaoui",
        "children": [
            
        ]
    },
    {
        "geonameId": 2474858,
        "name": "Zaouiet Riab",
        "children": [
            
        ]
    },
    {
        "geonameId": 2474448,
        "name": "Zgoum",
        "children": [
            
        ]
    }
]