[
    {
        "geonameId": 2585263,
        "name": "Agbet ech Cha\u00efr",
        "children": [
            
        ]
    },
    {
        "geonameId": 2506350,
        "name": "Asfour",
        "children": [
            
        ]
    },
    {
        "geonameId": 2508040,
        "name": "A\u00efn Kh\u00eear",
        "children": [
            
        ]
    },
    {
        "geonameId": 2505599,
        "name": "Barral",
        "children": [
            
        ]
    },
    {
        "geonameId": 2504486,
        "name": "Ben Mehidi",
        "children": [
            
        ]
    },
    {
        "geonameId": 2504072,
        "name": "Besbes",
        "children": [
            
        ]
    },
    {
        "geonameId": 2503652,
        "name": "Bordj Hamaoui",
        "children": [
            
        ]
    },
    {
        "geonameId": 2503075,
        "name": "Bou Hadjar",
        "children": [
            
        ]
    },
    {
        "geonameId": 2502378,
        "name": "Bou Sa\u2019dd\u00eeya",
        "children": [
            
        ]
    },
    {
        "geonameId": 2502259,
        "name": "Bouteldja",
        "children": [
            
        ]
    },
    {
        "geonameId": 2585372,
        "name": "Dar Loubit",
        "children": [
            
        ]
    },
    {
        "geonameId": 2585456,
        "name": "Djedda Gotha",
        "children": [
            
        ]
    },
    {
        "geonameId": 2499386,
        "name": "Douar Guergo\u00fbr",
        "children": [
            
        ]
    },
    {
        "geonameId": 2498732,
        "name": "El A\u00efoun",
        "children": [
            
        ]
    },
    {
        "geonameId": 2498354,
        "name": "El Fr\u00een",
        "children": [
            
        ]
    },
    {
        "geonameId": 2497988,
        "name": "El Kala",
        "children": [
            
        ]
    },
    {
        "geonameId": 2497465,
        "name": "El Mouiss\u00eea",
        "children": [
            
        ]
    },
    {
        "geonameId": 2585166,
        "name": "El M\u00e9lah",
        "children": [
            
        ]
    },
    {
        "geonameId": 2497323,
        "name": "El Tarf",
        "children": [
            
        ]
    },
    {
        "geonameId": 2497141,
        "name": "Er R\u00eerh\u00eea",
        "children": [
            
        ]
    },
    {
        "geonameId": 2585426,
        "name": "Hammam",
        "children": [
            
        ]
    },
    {
        "geonameId": 2494533,
        "name": "Hammam Sidi Zid",
        "children": [
            
        ]
    },
    {
        "geonameId": 2570566,
        "name": "Lac des Oiseaux",
        "children": [
            
        ]
    },
    {
        "geonameId": 2567657,
        "name": "Lalla Oum el Kre\u00efr",
        "children": [
            
        ]
    },
    {
        "geonameId": 2490571,
        "name": "Magra",
        "children": [
            
        ]
    },
    {
        "geonameId": 2489779,
        "name": "Mechta Amil Larche",
        "children": [
            
        ]
    },
    {
        "geonameId": 2585479,
        "name": "Mechta A\u00efn Cha\u00e2ra",
        "children": [
            
        ]
    },
    {
        "geonameId": 2489692,
        "name": "Mechta Bou Chakla",
        "children": [
            
        ]
    },
    {
        "geonameId": 2570572,
        "name": "Mechta Bourdim",
        "children": [
            
        ]
    },
    {
        "geonameId": 2489613,
        "name": "Mechta Derhra",
        "children": [
            
        ]
    },
    {
        "geonameId": 2585727,
        "name": "Mechta El Argoub",
        "children": [
            
        ]
    },
    {
        "geonameId": 2489511,
        "name": "Mechta Khamsa",
        "children": [
            
        ]
    },
    {
        "geonameId": 2489499,
        "name": "Mechta Knadil",
        "children": [
            
        ]
    },
    {
        "geonameId": 2585427,
        "name": "Mechta Ouldja",
        "children": [
            
        ]
    },
    {
        "geonameId": 2585618,
        "name": "Mechta Ouled Khehi",
        "children": [
            
        ]
    },
    {
        "geonameId": 2585603,
        "name": "Mechta Sinati",
        "children": [
            
        ]
    },
    {
        "geonameId": 2489202,
        "name": "Mechta Statir",
        "children": [
            
        ]
    },
    {
        "geonameId": 2585459,
        "name": "Mechtat Berket Sid",
        "children": [
            
        ]
    },
    {
        "geonameId": 2593197,
        "name": "Mechtat Bou Rougaa",
        "children": [
            
        ]
    },
    {
        "geonameId": 2585458,
        "name": "Mechtat Loudei",
        "children": [
            
        ]
    },
    {
        "geonameId": 2489448,
        "name": "Mechtat Medjouda Loutania",
        "children": [
            
        ]
    },
    {
        "geonameId": 2585425,
        "name": "Mechtat Nechla",
        "children": [
            
        ]
    },
    {
        "geonameId": 2488978,
        "name": "Mechtat Oum Rihana",
        "children": [
            
        ]
    },
    {
        "geonameId": 2488968,
        "name": "Mechtat Sidi Ahmed Bohli",
        "children": [
            
        ]
    },
    {
        "geonameId": 2585455,
        "name": "Mechtat el Guitna",
        "children": [
            
        ]
    },
    {
        "geonameId": 2585434,
        "name": "Mechtat el Guitoun",
        "children": [
            
        ]
    },
    {
        "geonameId": 2489089,
        "name": "Mechtat el Hammam",
        "children": [
            
        ]
    },
    {
        "geonameId": 2489057,
        "name": "Mechtat el Matroa",
        "children": [
            
        ]
    },
    {
        "geonameId": 2585418,
        "name": "Mechtat el Meracha",
        "children": [
            
        ]
    },
    {
        "geonameId": 2488930,
        "name": "Mechtet Ayo\u00fbs",
        "children": [
            
        ]
    },
    {
        "geonameId": 2488891,
        "name": "Mechtet Oued el Hout",
        "children": [
            
        ]
    },
    {
        "geonameId": 2488931,
        "name": "Mechtet \u2019A\u00efn Toub\u00eeb",
        "children": [
            
        ]
    },
    {
        "geonameId": 2567668,
        "name": "Medjez El Hadjar",
        "children": [
            
        ]
    },
    {
        "geonameId": 2567669,
        "name": "Medjez el Mzara",
        "children": [
            
        ]
    },
    {
        "geonameId": 2584768,
        "name": "Meroudj",
        "children": [
            
        ]
    },
    {
        "geonameId": 2484415,
        "name": "Oum Teboul",
        "children": [
            
        ]
    },
    {
        "geonameId": 2484493,
        "name": "Oumm el \u2019Agareb",
        "children": [
            
        ]
    },
    {
        "geonameId": 2482856,
        "name": "Roum es So\u00fbk",
        "children": [
            
        ]
    },
    {
        "geonameId": 2475253,
        "name": "Toustain",
        "children": [
            
        ]
    },
    {
        "geonameId": 2585246,
        "name": "Tuilerie",
        "children": [
            
        ]
    },
    {
        "geonameId": 2474493,
        "name": "Z\u00e9rizer",
        "children": [
            
        ]
    },
    {
        "geonameId": 2508055,
        "name": "\u2019A\u00efn Kerma",
        "children": [
            
        ]
    },
    {
        "geonameId": 2508191,
        "name": "\u2019A\u00efn el Assel",
        "children": [
            
        ]
    }
]