[
    {
        "geonameId": 2507481,
        "name": "Alfaville",
        "children": [
            
        ]
    },
    {
        "geonameId": 2506639,
        "name": "Arba Foukani",
        "children": [
            
        ]
    },
    {
        "geonameId": 2506628,
        "name": "Arbaouat",
        "children": [
            
        ]
    },
    {
        "geonameId": 2503514,
        "name": "Boualem",
        "children": [
            
        ]
    },
    {
        "geonameId": 2503122,
        "name": "Bougtob",
        "children": [
            
        ]
    },
    {
        "geonameId": 2502296,
        "name": "Boussemghoun",
        "children": [
            
        ]
    },
    {
        "geonameId": 2502034,
        "name": "Brezina",
        "children": [
            
        ]
    },
    {
        "geonameId": 2501527,
        "name": "Chellala Dahrania",
        "children": [
            
        ]
    },
    {
        "geonameId": 2501526,
        "name": "Chellala Gueblia",
        "children": [
            
        ]
    },
    {
        "geonameId": 2498775,
        "name": "El Abiodh Sidi Cheikh",
        "children": [
            
        ]
    },
    {
        "geonameId": 2498543,
        "name": "El Bayadh",
        "children": [
            
        ]
    },
    {
        "geonameId": 2497918,
        "name": "El Khadra",
        "children": [
            
        ]
    },
    {
        "geonameId": 2496044,
        "name": "Ghassoul",
        "children": [
            
        ]
    },
    {
        "geonameId": 2492403,
        "name": "Kerakda",
        "children": [
            
        ]
    },
    {
        "geonameId": 2490903,
        "name": "Le Kre\ufffd\ufffdder",
        "children": [
            
        ]
    },
    {
        "geonameId": 2480471,
        "name": "Mkam Sidi en Nasser",
        "children": [
            
        ]
    },
    {
        "geonameId": 2484210,
        "name": "Petit Mecheria",
        "children": [
            
        ]
    },
    {
        "geonameId": 2481644,
        "name": "Sfissifa",
        "children": [
            
        ]
    },
    {
        "geonameId": 2481078,
        "name": "Sidi Ameur",
        "children": [
            
        ]
    },
    {
        "geonameId": 2480436,
        "name": "Sidi Hadj Ben Ameur",
        "children": [
            
        ]
    },
    {
        "geonameId": 2480357,
        "name": "Sidi Khalifa",
        "children": [
            
        ]
    },
    {
        "geonameId": 2479797,
        "name": "Sidi Slimane",
        "children": [
            
        ]
    },
    {
        "geonameId": 2479734,
        "name": "Sidi Tifour",
        "children": [
            
        ]
    },
    {
        "geonameId": 2480539,
        "name": "Sidi el Hadj ed Dine",
        "children": [
            
        ]
    },
    {
        "geonameId": 2479078,
        "name": "Stittene",
        "children": [
            
        ]
    },
    {
        "geonameId": 2475704,
        "name": "Tkisset",
        "children": [
            
        ]
    },
    {
        "geonameId": 2475259,
        "name": "Tousmouline",
        "children": [
            
        ]
    },
    {
        "geonameId": 2508126,
        "name": "\ufffd\ufffd\ufffdA\ufffd\ufffdn el Orak",
        "children": [
            
        ]
    }
]