[
    {
        "geonameId": 2507129,
        "name": "Amoura",
        "children": [
            
        ]
    },
    {
        "geonameId": 2508096,
        "name": "A\u00efn Feka",
        "children": [
            
        ]
    },
    {
        "geonameId": 2507972,
        "name": "A\u00efn Oussera",
        "children": [
            
        ]
    },
    {
        "geonameId": 2508135,
        "name": "A\u00efn el Khadra",
        "children": [
            
        ]
    },
    {
        "geonameId": 2504293,
        "name": "Ben Yakoub",
        "children": [
            
        ]
    },
    {
        "geonameId": 2503842,
        "name": "Bir Messaoud",
        "children": [
            
        ]
    },
    {
        "geonameId": 2503852,
        "name": "Birine",
        "children": [
            
        ]
    },
    {
        "geonameId": 2503718,
        "name": "Bordj",
        "children": [
            
        ]
    },
    {
        "geonameId": 2503681,
        "name": "Bordj du Ca\u00efd",
        "children": [
            
        ]
    },
    {
        "geonameId": 2503662,
        "name": "Bordj el Hadjer",
        "children": [
            
        ]
    },
    {
        "geonameId": 2502950,
        "name": "Bouira el Adebad",
        "children": [
            
        ]
    },
    {
        "geonameId": 2501767,
        "name": "Charef",
        "children": [
            
        ]
    },
    {
        "geonameId": 2500904,
        "name": "Dar Chioukh",
        "children": [
            
        ]
    },
    {
        "geonameId": 2500827,
        "name": "Dar Temmara",
        "children": [
            
        ]
    },
    {
        "geonameId": 2500826,
        "name": "Dar Tisselouine",
        "children": [
            
        ]
    },
    {
        "geonameId": 2500700,
        "name": "Dechret Kamra",
        "children": [
            
        ]
    },
    {
        "geonameId": 2500561,
        "name": "Demmed",
        "children": [
            
        ]
    },
    {
        "geonameId": 2500017,
        "name": "Djelfa",
        "children": [
            
        ]
    },
    {
        "geonameId": 2498084,
        "name": "El Hania",
        "children": [
            
        ]
    },
    {
        "geonameId": 2498000,
        "name": "El Idrissia",
        "children": [
            
        ]
    },
    {
        "geonameId": 2497770,
        "name": "El Maalba",
        "children": [
            
        ]
    },
    {
        "geonameId": 2497572,
        "name": "El Merdja",
        "children": [
            
        ]
    },
    {
        "geonameId": 2497321,
        "name": "El Yourh",
        "children": [
            
        ]
    },
    {
        "geonameId": 2496643,
        "name": "Feidh el Botma",
        "children": [
            
        ]
    },
    {
        "geonameId": 2495621,
        "name": "Guelt es Stel",
        "children": [
            
        ]
    },
    {
        "geonameId": 7383968,
        "name": "Gueseria",
        "children": [
            
        ]
    },
    {
        "geonameId": 2474593,
        "name": "Had Sahary",
        "children": [
            
        ]
    },
    {
        "geonameId": 7383942,
        "name": "Haouche el Kaid",
        "children": [
            
        ]
    },
    {
        "geonameId": 2494073,
        "name": "Hassi Bahbah",
        "children": [
            
        ]
    },
    {
        "geonameId": 2494018,
        "name": "Hassi Tahar",
        "children": [
            
        ]
    },
    {
        "geonameId": 2491340,
        "name": "Ksar Ahmera",
        "children": [
            
        ]
    },
    {
        "geonameId": 2491294,
        "name": "Ksar Timekmert",
        "children": [
            
        ]
    },
    {
        "geonameId": 2491291,
        "name": "Ksar Ze\u00efra",
        "children": [
            
        ]
    },
    {
        "geonameId": 7383929,
        "name": "Lemouafekia",
        "children": [
            
        ]
    },
    {
        "geonameId": 2487772,
        "name": "Messaad",
        "children": [
            
        ]
    },
    {
        "geonameId": 2487093,
        "name": "Moudjbara",
        "children": [
            
        ]
    },
    {
        "geonameId": 2485574,
        "name": "Oued Seddeur",
        "children": [
            
        ]
    },
    {
        "geonameId": 2484775,
        "name": "Ouled Slimane",
        "children": [
            
        ]
    },
    {
        "geonameId": 7671164,
        "name": "Seba\u00e2ni",
        "children": [
            
        ]
    },
    {
        "geonameId": 2481902,
        "name": "Selmana",
        "children": [
            
        ]
    },
    {
        "geonameId": 2481022,
        "name": "Sidi Bakhti",
        "children": [
            
        ]
    },
    {
        "geonameId": 2480935,
        "name": "Sidi Ben Doghman",
        "children": [
            
        ]
    },
    {
        "geonameId": 2480322,
        "name": "Sidi Ladjel",
        "children": [
            
        ]
    },
    {
        "geonameId": 2478827,
        "name": "Tadmit",
        "children": [
            
        ]
    },
    {
        "geonameId": 2475524,
        "name": "Touazi",
        "children": [
            
        ]
    },
    {
        "geonameId": 2475198,
        "name": "Tremblia",
        "children": [
            
        ]
    },
    {
        "geonameId": 2474923,
        "name": "Zakkar",
        "children": [
            
        ]
    },
    {
        "geonameId": 2508042,
        "name": "\u2019A\u00efn Kheneg ed Defla",
        "children": [
            
        ]
    },
    {
        "geonameId": 2508023,
        "name": "\u2019A\u00efn Mabed",
        "children": [
            
        ]
    },
    {
        "geonameId": 2507996,
        "name": "\u2019A\u00efn Mouilah",
        "children": [
            
        ]
    },
    {
        "geonameId": 2507973,
        "name": "\u2019A\u00efn Ousrhar",
        "children": [
            
        ]
    },
    {
        "geonameId": 2507951,
        "name": "\u2019A\u00efn Rous el Akrat",
        "children": [
            
        ]
    },
    {
        "geonameId": 2507856,
        "name": "\u2019A\u00efn Zmila",
        "children": [
            
        ]
    },
    {
        "geonameId": 2508184,
        "name": "\u2019A\u00efn el Bell",
        "children": [
            
        ]
    },
    {
        "geonameId": 2508166,
        "name": "\u2019A\u00efn el Gaza",
        "children": [
            
        ]
    }
]