[
    {
        "geonameId": 2509031,
        "name": "Abou el Hassan",
        "children": [
            
        ]
    },
    {
        "geonameId": 2592683,
        "name": "Amoudd",
        "children": [
            
        ]
    },
    {
        "geonameId": 2502498,
        "name": "A\u00efn Soltane",
        "children": [
            
        ]
    },
    {
        "geonameId": 2496392,
        "name": "Benairia",
        "children": [
            
        ]
    },
    {
        "geonameId": 2504674,
        "name": "Beni Haoua",
        "children": [
            
        ]
    },
    {
        "geonameId": 2504588,
        "name": "Beni Rached",
        "children": [
            
        ]
    },
    {
        "geonameId": 2504582,
        "name": "Beni Sa\u00e2d",
        "children": [
            
        ]
    },
    {
        "geonameId": 2475097,
        "name": "Bir Safsaf",
        "children": [
            
        ]
    },
    {
        "geonameId": 7525157,
        "name": "Bled Soualah",
        "children": [
            
        ]
    },
    {
        "geonameId": 2503745,
        "name": "Boka\u2019et Chou\u00eey\u00e2t",
        "children": [
            
        ]
    },
    {
        "geonameId": 2503734,
        "name": "Boka\u2019et Ouled Hammadi",
        "children": [
            
        ]
    },
    {
        "geonameId": 2572569,
        "name": "Bordi el Mathen",
        "children": [
            
        ]
    },
    {
        "geonameId": 2503230,
        "name": "Bou Douanou",
        "children": [
            
        ]
    },
    {
        "geonameId": 2572384,
        "name": "Bou Mezouad",
        "children": [
            
        ]
    },
    {
        "geonameId": 2502156,
        "name": "Bou Zekhi",
        "children": [
            
        ]
    },
    {
        "geonameId": 2503334,
        "name": "Bouchitane",
        "children": [
            
        ]
    },
    {
        "geonameId": 2572518,
        "name": "Bouhallou",
        "children": [
            
        ]
    },
    {
        "geonameId": 2503072,
        "name": "Bouhdjer",
        "children": [
            
        ]
    },
    {
        "geonameId": 2498572,
        "name": "Boukaat Bachir",
        "children": [
            
        ]
    },
    {
        "geonameId": 2503743,
        "name": "Boukaat Bou Derroua",
        "children": [
            
        ]
    },
    {
        "geonameId": 7376339,
        "name": "Boukaat La\u00efda",
        "children": [
            
        ]
    },
    {
        "geonameId": 2503732,
        "name": "Boukaat Ouled M\u2019Ghazi",
        "children": [
            
        ]
    },
    {
        "geonameId": 2503731,
        "name": "Boukaat Ouled Tahar",
        "children": [
            
        ]
    },
    {
        "geonameId": 2503741,
        "name": "Boukaat el Mea\u00efzia",
        "children": [
            
        ]
    },
    {
        "geonameId": 2503737,
        "name": "Boukaat el Meknassa",
        "children": [
            
        ]
    },
    {
        "geonameId": 2503740,
        "name": "Boukaat el Moualek",
        "children": [
            
        ]
    },
    {
        "geonameId": 7376160,
        "name": "Boukaat es Sadnia",
        "children": [
            
        ]
    },
    {
        "geonameId": 2482318,
        "name": "Boukaat es Sbih",
        "children": [
            
        ]
    },
    {
        "geonameId": 2502924,
        "name": "Boukadir",
        "children": [
            
        ]
    },
    {
        "geonameId": 2502867,
        "name": "Boukhelfoune",
        "children": [
            
        ]
    },
    {
        "geonameId": 2502447,
        "name": "Bouriache",
        "children": [
            
        ]
    },
    {
        "geonameId": 2502230,
        "name": "Boutouchent",
        "children": [
            
        ]
    },
    {
        "geonameId": 2502163,
        "name": "Bouzefour",
        "children": [
            
        ]
    },
    {
        "geonameId": 2502135,
        "name": "Bouzeghaia",
        "children": [
            
        ]
    },
    {
        "geonameId": 2502085,
        "name": "Brahmia",
        "children": [
            
        ]
    },
    {
        "geonameId": 2501191,
        "name": "Chera\u00efria",
        "children": [
            
        ]
    },
    {
        "geonameId": 2498611,
        "name": "Chlef",
        "children": [
            {
                "geonameId": 2501174,
                "name": "Cit\u00e9 Beneddine",
                "children": [
                    
                ]
            },
            {
                "geonameId": 7510537,
                "name": "Cit\u00e9 Benteguere",
                "children": [
                    
                ]
            },
            {
                "geonameId": 7510540,
                "name": "Cit\u00e9 des Oliviers",
                "children": [
                    
                ]
            },
            {
                "geonameId": 7510539,
                "name": "Cit\u00e9 des Vergers",
                "children": [
                    
                ]
            },
            {
                "geonameId": 7510542,
                "name": "El Gho\u00fbali",
                "children": [
                    
                ]
            },
            {
                "geonameId": 2492400,
                "name": "Keramlia",
                "children": [
                    
                ]
            },
            {
                "geonameId": 2491200,
                "name": "La Ferme",
                "children": [
                    
                ]
            },
            {
                "geonameId": 2503730,
                "name": "Sahnoun",
                "children": [
                    
                ]
            }
        ]
    },
    {
        "geonameId": 2503744,
        "name": "Chorfa",
        "children": [
            
        ]
    },
    {
        "geonameId": 2500997,
        "name": "Damous",
        "children": [
            
        ]
    },
    {
        "geonameId": 2500706,
        "name": "Dechra Zanaraoua",
        "children": [
            
        ]
    },
    {
        "geonameId": 2484920,
        "name": "Douar Abdeli",
        "children": [
            
        ]
    },
    {
        "geonameId": 2572560,
        "name": "Douar Aichane",
        "children": [
            
        ]
    },
    {
        "geonameId": 2498714,
        "name": "Douar Amassa",
        "children": [
            
        ]
    },
    {
        "geonameId": 2572511,
        "name": "Douar Ben Ali",
        "children": [
            
        ]
    },
    {
        "geonameId": 2572508,
        "name": "Douar Ben Yahia",
        "children": [
            
        ]
    },
    {
        "geonameId": 2572522,
        "name": "Douar Bencheloua",
        "children": [
            
        ]
    },
    {
        "geonameId": 2572533,
        "name": "Douar Bou Guelta",
        "children": [
            
        ]
    },
    {
        "geonameId": 2502762,
        "name": "Douar Bou Lalla",
        "children": [
            
        ]
    },
    {
        "geonameId": 2572487,
        "name": "Douar Boukhendak",
        "children": [
            
        ]
    },
    {
        "geonameId": 2497727,
        "name": "Douar B\u2019 Kha\u00eftia",
        "children": [
            
        ]
    },
    {
        "geonameId": 2572381,
        "name": "Douar Cheair",
        "children": [
            
        ]
    },
    {
        "geonameId": 2572553,
        "name": "Douar Ch\u00eaikh Laraba",
        "children": [
            
        ]
    },
    {
        "geonameId": 2572528,
        "name": "Douar Flita",
        "children": [
            
        ]
    },
    {
        "geonameId": 2572557,
        "name": "Douar G\u2019ni",
        "children": [
            
        ]
    },
    {
        "geonameId": 2572542,
        "name": "Douar Idouane",
        "children": [
            
        ]
    },
    {
        "geonameId": 2572506,
        "name": "Douar Khanouche",
        "children": [
            
        ]
    },
    {
        "geonameId": 2504719,
        "name": "Douar Kouassem",
        "children": [
            
        ]
    },
    {
        "geonameId": 2498716,
        "name": "Douar Laalaoucha",
        "children": [
            
        ]
    },
    {
        "geonameId": 2487244,
        "name": "Douar Mekchach",
        "children": [
            
        ]
    },
    {
        "geonameId": 2498005,
        "name": "Douar Menasria",
        "children": [
            
        ]
    },
    {
        "geonameId": 2505747,
        "name": "Douar Menasseria",
        "children": [
            
        ]
    },
    {
        "geonameId": 2592682,
        "name": "Douar M\u2019chalif",
        "children": [
            
        ]
    },
    {
        "geonameId": 2572484,
        "name": "Douar M\u2019rachiche",
        "children": [
            
        ]
    },
    {
        "geonameId": 2503733,
        "name": "Douar Ouled Ali",
        "children": [
            
        ]
    },
    {
        "geonameId": 2485035,
        "name": "Douar Ouled Ali",
        "children": [
            
        ]
    },
    {
        "geonameId": 2485288,
        "name": "Douar Ouled Ali",
        "children": [
            
        ]
    },
    {
        "geonameId": 2499280,
        "name": "Douar Ouled Brahim",
        "children": [
            
        ]
    },
    {
        "geonameId": 2572546,
        "name": "Douar Ouled Brahim",
        "children": [
            
        ]
    },
    {
        "geonameId": 7388370,
        "name": "Douar Ouled Djillali Ben Yahia",
        "children": [
            
        ]
    },
    {
        "geonameId": 7388286,
        "name": "Douar Ouled Fares",
        "children": [
            
        ]
    },
    {
        "geonameId": 7379680,
        "name": "Douar Ouled Habib",
        "children": [
            
        ]
    },
    {
        "geonameId": 2499260,
        "name": "Douar Ouled Mohammed",
        "children": [
            
        ]
    },
    {
        "geonameId": 2484909,
        "name": "Douar Ouled el Hadj",
        "children": [
            
        ]
    },
    {
        "geonameId": 2572519,
        "name": "Douar Ounsour Enhas",
        "children": [
            
        ]
    },
    {
        "geonameId": 2572377,
        "name": "Douar Regoune",
        "children": [
            
        ]
    },
    {
        "geonameId": 2572520,
        "name": "Douar Soualmia",
        "children": [
            
        ]
    },
    {
        "geonameId": 2479305,
        "name": "Douar Souamar",
        "children": [
            
        ]
    },
    {
        "geonameId": 2572515,
        "name": "Douar Taksebte",
        "children": [
            
        ]
    },
    {
        "geonameId": 2572571,
        "name": "Douar Taksekte",
        "children": [
            
        ]
    },
    {
        "geonameId": 2572392,
        "name": "Douar Tighaghar",
        "children": [
            
        ]
    },
    {
        "geonameId": 2475568,
        "name": "Douar Touadjine",
        "children": [
            
        ]
    },
    {
        "geonameId": 2572550,
        "name": "Douar Tourria",
        "children": [
            
        ]
    },
    {
        "geonameId": 2572646,
        "name": "Douar Yarmoul",
        "children": [
            
        ]
    },
    {
        "geonameId": 2503621,
        "name": "Douar Zeboudj",
        "children": [
            
        ]
    },
    {
        "geonameId": 2572525,
        "name": "Douar Zenanda",
        "children": [
            
        ]
    },
    {
        "geonameId": 2572523,
        "name": "Douar ech Cheet",
        "children": [
            
        ]
    },
    {
        "geonameId": 7377586,
        "name": "Douar ech Chouamia",
        "children": [
            
        ]
    },
    {
        "geonameId": 2498895,
        "name": "Douar ed Douda",
        "children": [
            
        ]
    },
    {
        "geonameId": 2572500,
        "name": "Douar el Braguich",
        "children": [
            
        ]
    },
    {
        "geonameId": 2503742,
        "name": "Douar el H\u2019baier",
        "children": [
            
        ]
    },
    {
        "geonameId": 2499413,
        "name": "Douar el Mou\u00e2fk\u00eea",
        "children": [
            
        ]
    },
    {
        "geonameId": 7377037,
        "name": "Douar el M\u2019Hane",
        "children": [
            
        ]
    },
    {
        "geonameId": 2572537,
        "name": "Douar el M\u2019rouch",
        "children": [
            
        ]
    },
    {
        "geonameId": 2572566,
        "name": "Douar en Nakhla",
        "children": [
            
        ]
    },
    {
        "geonameId": 2572422,
        "name": "Ech Chelh",
        "children": [
            
        ]
    },
    {
        "geonameId": 2489150,
        "name": "Ech Cheraga",
        "children": [
            
        ]
    },
    {
        "geonameId": 2498954,
        "name": "Ech Chettia",
        "children": [
            {
                "geonameId": 2498950,
                "name": "Boukaat Ouled Sidi Cherif",
                "children": [
                    
                ]
            },
            {
                "geonameId": 2501171,
                "name": "Cit\u00e9 d\u2019Urgence",
                "children": [
                    
                ]
            },
            {
                "geonameId": 7376524,
                "name": "Ech Chehaifiya",
                "children": [
                    
                ]
            },
            {
                "geonameId": 7376519,
                "name": "Ech Chott",
                "children": [
                    
                ]
            },
            {
                "geonameId": 7376516,
                "name": "Ouled \u2019Ao\u00fb\u00e2da",
                "children": [
                    
                ]
            }
        ]
    },
    {
        "geonameId": 7377018,
        "name": "Ech Chnaifiya",
        "children": [
            
        ]
    },
    {
        "geonameId": 2509275,
        "name": "El Ababsa",
        "children": [
            
        ]
    },
    {
        "geonameId": 2573432,
        "name": "El Alamcia",
        "children": [
            
        ]
    },
    {
        "geonameId": 2504059,
        "name": "El Bessahia",
        "children": [
            
        ]
    },
    {
        "geonameId": 2573447,
        "name": "El Brahlia",
        "children": [
            
        ]
    },
    {
        "geonameId": 2573451,
        "name": "El Bsakra",
        "children": [
            
        ]
    },
    {
        "geonameId": 2501430,
        "name": "El Cheurfa",
        "children": [
            
        ]
    },
    {
        "geonameId": 2573462,
        "name": "El Djeradir",
        "children": [
            
        ]
    },
    {
        "geonameId": 7377032,
        "name": "El Djoualil",
        "children": [
            
        ]
    },
    {
        "geonameId": 2498188,
        "name": "El Hadhar",
        "children": [
            
        ]
    },
    {
        "geonameId": 2573448,
        "name": "El H\u2019dadou",
        "children": [
            
        ]
    },
    {
        "geonameId": 2573435,
        "name": "El H\u2019ma\u00efed",
        "children": [
            
        ]
    },
    {
        "geonameId": 2497939,
        "name": "El Karia",
        "children": [
            
        ]
    },
    {
        "geonameId": 2497972,
        "name": "El Karimia",
        "children": [
            
        ]
    },
    {
        "geonameId": 2497922,
        "name": "El Khachachma",
        "children": [
            
        ]
    },
    {
        "geonameId": 2572476,
        "name": "El Kharrouba",
        "children": [
            
        ]
    },
    {
        "geonameId": 2497962,
        "name": "El Khebazlia",
        "children": [
            
        ]
    },
    {
        "geonameId": 2497699,
        "name": "El Marsa",
        "children": [
            
        ]
    },
    {
        "geonameId": 7379683,
        "name": "El Meche\u00efria",
        "children": [
            
        ]
    },
    {
        "geonameId": 2497576,
        "name": "El Mrazgu\u00efa",
        "children": [
            
        ]
    },
    {
        "geonameId": 2573453,
        "name": "El M\u2019Rah",
        "children": [
            
        ]
    },
    {
        "geonameId": 2497378,
        "name": "El Ous\u00e2sra",
        "children": [
            
        ]
    },
    {
        "geonameId": 2573271,
        "name": "Er Raf",
        "children": [
            
        ]
    },
    {
        "geonameId": 2503739,
        "name": "Erramlia",
        "children": [
            
        ]
    },
    {
        "geonameId": 2573423,
        "name": "Es Shara",
        "children": [
            
        ]
    },
    {
        "geonameId": 2572380,
        "name": "Ferah",
        "children": [
            
        ]
    },
    {
        "geonameId": 2483899,
        "name": "Ghazlia",
        "children": [
            
        ]
    },
    {
        "geonameId": 2573455,
        "name": "Guilili",
        "children": [
            
        ]
    },
    {
        "geonameId": 2572526,
        "name": "Haouch es Serdj",
        "children": [
            
        ]
    },
    {
        "geonameId": 2494154,
        "name": "Harta Ghraba",
        "children": [
            
        ]
    },
    {
        "geonameId": 2495222,
        "name": "Hbabza",
        "children": [
            
        ]
    },
    {
        "geonameId": 2490857,
        "name": "Heumis",
        "children": [
            
        ]
    },
    {
        "geonameId": 2493529,
        "name": "Ikadaine",
        "children": [
            
        ]
    },
    {
        "geonameId": 2491936,
        "name": "Kalloul",
        "children": [
            
        ]
    },
    {
        "geonameId": 2505004,
        "name": "Kara\u00e2 Chira",
        "children": [
            
        ]
    },
    {
        "geonameId": 2492547,
        "name": "Kedjedjma",
        "children": [
            
        ]
    },
    {
        "geonameId": 2573461,
        "name": "Khantchouf\u00e9ne",
        "children": [
            
        ]
    },
    {
        "geonameId": 2572655,
        "name": "Labiod Medjadja",
        "children": [
            
        ]
    },
    {
        "geonameId": 2572387,
        "name": "Lalla Kheira",
        "children": [
            
        ]
    },
    {
        "geonameId": 2592680,
        "name": "Le Merdja",
        "children": [
            
        ]
    },
    {
        "geonameId": 2490694,
        "name": "Maameria",
        "children": [
            
        ]
    },
    {
        "geonameId": 2572438,
        "name": "Mechtat Ouhamouiane",
        "children": [
            
        ]
    },
    {
        "geonameId": 2572435,
        "name": "Mechtat Tidjeraihine",
        "children": [
            
        ]
    },
    {
        "geonameId": 2572444,
        "name": "Mechtat el Brakna",
        "children": [
            
        ]
    },
    {
        "geonameId": 2497679,
        "name": "Medjadja",
        "children": [
            
        ]
    },
    {
        "geonameId": 2488554,
        "name": "Mekarzia",
        "children": [
            
        ]
    },
    {
        "geonameId": 2488166,
        "name": "Menasria",
        "children": [
            
        ]
    },
    {
        "geonameId": 2488042,
        "name": "Meramdia",
        "children": [
            
        ]
    },
    {
        "geonameId": 7467366,
        "name": "Moussadek",
        "children": [
            
        ]
    },
    {
        "geonameId": 2497636,
        "name": "M\u2019Quam el Maaloum",
        "children": [
            
        ]
    },
    {
        "geonameId": 2484414,
        "name": "Om Tefrakh",
        "children": [
            
        ]
    },
    {
        "geonameId": 2485618,
        "name": "Oued Fodda",
        "children": [
            
        ]
    },
    {
        "geonameId": 2485572,
        "name": "Oued Sly",
        "children": [
            
        ]
    },
    {
        "geonameId": 2485060,
        "name": "Ouled Abbes",
        "children": [
            
        ]
    },
    {
        "geonameId": 2485429,
        "name": "Ouled Abdelaziz",
        "children": [
            
        ]
    },
    {
        "geonameId": 2485037,
        "name": "Ouled Ali",
        "children": [
            
        ]
    },
    {
        "geonameId": 7540709,
        "name": "Ouled Ammar",
        "children": [
            
        ]
    },
    {
        "geonameId": 2573422,
        "name": "Ouled Belakhdar",
        "children": [
            
        ]
    },
    {
        "geonameId": 2484992,
        "name": "Ouled Ben Abd el Kader",
        "children": [
            
        ]
    },
    {
        "geonameId": 2485335,
        "name": "Ouled Ben Youcef",
        "children": [
            
        ]
    },
    {
        "geonameId": 2485001,
        "name": "Ouled Benddou",
        "children": [
            
        ]
    },
    {
        "geonameId": 2485049,
        "name": "Ouled Bessa",
        "children": [
            
        ]
    },
    {
        "geonameId": 2485131,
        "name": "Ouled Bou Ali",
        "children": [
            
        ]
    },
    {
        "geonameId": 2484938,
        "name": "Ouled Chaa\u00efb",
        "children": [
            
        ]
    },
    {
        "geonameId": 2501883,
        "name": "Ouled Cheikh",
        "children": [
            
        ]
    },
    {
        "geonameId": 2484927,
        "name": "Ouled Djillali",
        "children": [
            
        ]
    },
    {
        "geonameId": 2491039,
        "name": "Ouled Fares",
        "children": [
            
        ]
    },
    {
        "geonameId": 2572510,
        "name": "Ouled H\u2019madat",
        "children": [
            
        ]
    },
    {
        "geonameId": 2484876,
        "name": "Ouled Kaddour Ben Chaoui",
        "children": [
            
        ]
    },
    {
        "geonameId": 2572391,
        "name": "Ouled Mahiedine",
        "children": [
            
        ]
    },
    {
        "geonameId": 2572521,
        "name": "Ouled Mahiedine",
        "children": [
            
        ]
    },
    {
        "geonameId": 2484861,
        "name": "Ouled Ma\u00e2mar",
        "children": [
            
        ]
    },
    {
        "geonameId": 2484806,
        "name": "Ouled Salem",
        "children": [
            
        ]
    },
    {
        "geonameId": 2485127,
        "name": "Ouled Sidi Hamid",
        "children": [
            
        ]
    },
    {
        "geonameId": 2485117,
        "name": "Ouled Sidi Yahia",
        "children": [
            
        ]
    },
    {
        "geonameId": 7377020,
        "name": "Ouled S\u2019Bahia",
        "children": [
            
        ]
    },
    {
        "geonameId": 2572530,
        "name": "Ouled el Arbi",
        "children": [
            
        ]
    },
    {
        "geonameId": 2484907,
        "name": "Ouled el Hadj Abbed",
        "children": [
            
        ]
    },
    {
        "geonameId": 2485044,
        "name": "Ouled el Hadj Djillali",
        "children": [
            
        ]
    },
    {
        "geonameId": 2572454,
        "name": "Ouled el Merrouch",
        "children": [
            
        ]
    },
    {
        "geonameId": 2484495,
        "name": "Oum Drou",
        "children": [
            {
                "geonameId": 2501169,
                "name": "Cit\u00e9 Sabli\u00e8re",
                "children": [
                    
                ]
            }
        ]
    },
    {
        "geonameId": 2506968,
        "name": "Ounsour Enhas",
        "children": [
            
        ]
    },
    {
        "geonameId": 2482750,
        "name": "Sabbana",
        "children": [
            
        ]
    },
    {
        "geonameId": 2481836,
        "name": "Sendjas",
        "children": [
            
        ]
    },
    {
        "geonameId": 2479206,
        "name": "Sidi Abderrahmane",
        "children": [
            
        ]
    },
    {
        "geonameId": 2481207,
        "name": "Sidi Akkacha",
        "children": [
            
        ]
    },
    {
        "geonameId": 2592678,
        "name": "Sidi Cherki",
        "children": [
            
        ]
    },
    {
        "geonameId": 2480197,
        "name": "Sidi Merouane",
        "children": [
            
        ]
    },
    {
        "geonameId": 2478878,
        "name": "Tadjena",
        "children": [
            
        ]
    },
    {
        "geonameId": 2572564,
        "name": "Tafraout",
        "children": [
            
        ]
    },
    {
        "geonameId": 2478540,
        "name": "Tahanout",
        "children": [
            
        ]
    },
    {
        "geonameId": 2477949,
        "name": "Taougrite",
        "children": [
            
        ]
    },
    {
        "geonameId": 2477852,
        "name": "Tarakanet",
        "children": [
            
        ]
    },
    {
        "geonameId": 2477420,
        "name": "Thaddart Takedimte",
        "children": [
            
        ]
    },
    {
        "geonameId": 7525576,
        "name": "Tiberkanine",
        "children": [
            
        ]
    },
    {
        "geonameId": 2572558,
        "name": "Tizi Larbaa",
        "children": [
            
        ]
    },
    {
        "geonameId": 2477148,
        "name": "T\u00e9n\u00e8s",
        "children": [
            
        ]
    },
    {
        "geonameId": 2475089,
        "name": "Vieux T\u00e9n\u00e8s",
        "children": [
            
        ]
    },
    {
        "geonameId": 2475074,
        "name": "Ya\u00e2bouche",
        "children": [
            
        ]
    },
    {
        "geonameId": 2474750,
        "name": "Zeboudja",
        "children": [
            
        ]
    },
    {
        "geonameId": 2474177,
        "name": "Zekara",
        "children": [
            
        ]
    },
    {
        "geonameId": 2503738,
        "name": "Z\u2019malet Bouchakor",
        "children": [
            
        ]
    },
    {
        "geonameId": 2508027,
        "name": "\u2019A\u00efn Lellou",
        "children": [
            
        ]
    }
]