[
    {
        "geonameId": 2509173,
        "name": "Abd el Ouiret Si Ali",
        "children": [
            
        ]
    },
    {
        "geonameId": 2508741,
        "name": "Afir",
        "children": [
            
        ]
    },
    {
        "geonameId": 2508743,
        "name": "Afir",
        "children": [
            
        ]
    },
    {
        "geonameId": 2508744,
        "name": "Afir",
        "children": [
            
        ]
    },
    {
        "geonameId": 2508740,
        "name": "Afir Imzourhene",
        "children": [
            
        ]
    },
    {
        "geonameId": 2507360,
        "name": "Alm Denane el Homadna",
        "children": [
            
        ]
    },
    {
        "geonameId": 2507362,
        "name": "Alma Ou Hammane",
        "children": [
            
        ]
    },
    {
        "geonameId": 2507073,
        "name": "Amsthas",
        "children": [
            
        ]
    },
    {
        "geonameId": 2506846,
        "name": "Aouicha",
        "children": [
            
        ]
    },
    {
        "geonameId": 2506623,
        "name": "Arbatache",
        "children": [
            
        ]
    },
    {
        "geonameId": 2506236,
        "name": "Assouaf",
        "children": [
            
        ]
    },
    {
        "geonameId": 2506088,
        "name": "Attouch",
        "children": [
            
        ]
    },
    {
        "geonameId": 2571500,
        "name": "Azerou",
        "children": [
            
        ]
    },
    {
        "geonameId": 2505994,
        "name": "Azerou Bahar",
        "children": [
            
        ]
    },
    {
        "geonameId": 2505970,
        "name": "Azib Bou Yadif",
        "children": [
            
        ]
    },
    {
        "geonameId": 2508331,
        "name": "A\ufffd\ufffdech",
        "children": [
            
        ]
    },
    {
        "geonameId": 2573576,
        "name": "A\ufffd\ufffdn Bena\ufffd\ufffdmane",
        "children": [
            
        ]
    },
    {
        "geonameId": 2573621,
        "name": "A\ufffd\ufffdn Mansour",
        "children": [
            
        ]
    },
    {
        "geonameId": 2507953,
        "name": "A\ufffd\ufffdn Rouba\ufffd\ufffd",
        "children": [
            
        ]
    },
    {
        "geonameId": 2508200,
        "name": "A\ufffd\ufffdn el Hamra",
        "children": [
            
        ]
    },
    {
        "geonameId": 2507792,
        "name": "A\ufffd\ufffdt Ahmed",
        "children": [
            
        ]
    },
    {
        "geonameId": 2507784,
        "name": "A\ufffd\ufffdt Ali",
        "children": [
            
        ]
    },
    {
        "geonameId": 2507698,
        "name": "A\ufffd\ufffdt Slimane",
        "children": [
            
        ]
    },
    {
        "geonameId": 2507760,
        "name": "A\ufffd\ufffdt el Hadj",
        "children": [
            
        ]
    },
    {
        "geonameId": 2505872,
        "name": "Baba Ali",
        "children": [
            
        ]
    },
    {
        "geonameId": 2505812,
        "name": "Baghlia",
        "children": [
            
        ]
    },
    {
        "geonameId": 2573607,
        "name": "Ben Abid",
        "children": [
            
        ]
    },
    {
        "geonameId": 2504997,
        "name": "Ben Amara",
        "children": [
            
        ]
    },
    {
        "geonameId": 2573631,
        "name": "Ben Hammouda",
        "children": [
            
        ]
    },
    {
        "geonameId": 2504779,
        "name": "Ben Hamza",
        "children": [
            
        ]
    },
    {
        "geonameId": 2573633,
        "name": "Ben Ksir",
        "children": [
            
        ]
    },
    {
        "geonameId": 2504453,
        "name": "Ben N\ufffd\ufffd\ufffdChoud",
        "children": [
            
        ]
    },
    {
        "geonameId": 2475087,
        "name": "Ben Tazerit",
        "children": [
            
        ]
    },
    {
        "geonameId": 2504301,
        "name": "Ben Turkia",
        "children": [
            
        ]
    },
    {
        "geonameId": 2573570,
        "name": "Benhammouch",
        "children": [
            
        ]
    },
    {
        "geonameId": 2504739,
        "name": "Beni Amrane",
        "children": [
            
        ]
    },
    {
        "geonameId": 2504699,
        "name": "Beni Enntas",
        "children": [
            
        ]
    },
    {
        "geonameId": 2504694,
        "name": "Beni Fouda",
        "children": [
            
        ]
    },
    {
        "geonameId": 2504679,
        "name": "Beni Hamou",
        "children": [
            
        ]
    },
    {
        "geonameId": 2573662,
        "name": "Bennabri",
        "children": [
            
        ]
    },
    {
        "geonameId": 2573660,
        "name": "Benouali",
        "children": [
            
        ]
    },
    {
        "geonameId": 2504247,
        "name": "Berafa\ufffd\ufffd",
        "children": [
            
        ]
    },
    {
        "geonameId": 2573588,
        "name": "Bir Za\ufffd\ufffdtra",
        "children": [
            
        ]
    },
    {
        "geonameId": 2503641,
        "name": "Bordj Mena\ufffd\ufffdel",
        "children": [
            
        ]
    },
    {
        "geonameId": 2502940,
        "name": "Bou Ismael",
        "children": [
            
        ]
    },
    {
        "geonameId": 2502697,
        "name": "Bou Madi",
        "children": [
            
        ]
    },
    {
        "geonameId": 2502691,
        "name": "Bou Mahla",
        "children": [
            
        ]
    },
    {
        "geonameId": 2502571,
        "name": "Bou Noua",
        "children": [
            
        ]
    },
    {
        "geonameId": 2494302,
        "name": "Bou Zazene",
        "children": [
            
        ]
    },
    {
        "geonameId": 2502160,
        "name": "Bou Zegza",
        "children": [
            
        ]
    },
    {
        "geonameId": 2503229,
        "name": "Boudouaou",
        "children": [
            
        ]
    },
    {
        "geonameId": 2503307,
        "name": "Boudouaou el Bahri",
        "children": [
            
        ]
    },
    {
        "geonameId": 2474141,
        "name": "Boumerdas",
        "children": [
            
        ]
    },
    {
        "geonameId": 2573665,
        "name": "Boumlih",
        "children": [
            
        ]
    },
    {
        "geonameId": 2502053,
        "name": "Brarat",
        "children": [
            
        ]
    },
    {
        "geonameId": 2501873,
        "name": "Chabet el Ameur",
        "children": [
            
        ]
    },
    {
        "geonameId": 2501138,
        "name": "Corso Tahtani",
        "children": [
            
        ]
    },
    {
        "geonameId": 2500920,
        "name": "Dar Be\ufffd\ufffdda",
        "children": [
            
        ]
    },
    {
        "geonameId": 2500583,
        "name": "Dellys",
        "children": [
            
        ]
    },
    {
        "geonameId": 2499827,
        "name": "Djennad",
        "children": [
            
        ]
    },
    {
        "geonameId": 2499813,
        "name": "Djerabet",
        "children": [
            
        ]
    },
    {
        "geonameId": 2499846,
        "name": "Djinet",
        "children": [
            
        ]
    },
    {
        "geonameId": 2573618,
        "name": "Douar Ben Terzil",
        "children": [
            
        ]
    },
    {
        "geonameId": 2499488,
        "name": "Douar Chefar",
        "children": [
            
        ]
    },
    {
        "geonameId": 2573649,
        "name": "Douar Kara Ahmed",
        "children": [
            
        ]
    },
    {
        "geonameId": 2573612,
        "name": "Douar Kermoul",
        "children": [
            
        ]
    },
    {
        "geonameId": 2499350,
        "name": "Douar Mendil",
        "children": [
            
        ]
    },
    {
        "geonameId": 2573615,
        "name": "Douar M\ufffd\ufffd\ufffdrachda",
        "children": [
            
        ]
    },
    {
        "geonameId": 2499330,
        "name": "Douar Nouacer",
        "children": [
            
        ]
    },
    {
        "geonameId": 2573589,
        "name": "Douar Za\ufffd\ufffdtra",
        "children": [
            
        ]
    },
    {
        "geonameId": 2499241,
        "name": "Douar el Gha\ufffd\ufffdcha",
        "children": [
            
        ]
    },
    {
        "geonameId": 2499467,
        "name": "Dra Doum",
        "children": [
            
        ]
    },
    {
        "geonameId": 2499116,
        "name": "Draa Ben Khedda",
        "children": [
            
        ]
    },
    {
        "geonameId": 2498586,
        "name": "El Aza\ufffd\ufffdb",
        "children": [
            
        ]
    },
    {
        "geonameId": 2498580,
        "name": "El Azib el Madjene",
        "children": [
            
        ]
    },
    {
        "geonameId": 2573669,
        "name": "El Harrach",
        "children": [
            
        ]
    },
    {
        "geonameId": 2573671,
        "name": "El H\ufffd\ufffd\ufffdmadna",
        "children": [
            
        ]
    },
    {
        "geonameId": 2490937,
        "name": "El Karma",
        "children": [
            
        ]
    },
    {
        "geonameId": 2573611,
        "name": "El Koues",
        "children": [
            
        ]
    },
    {
        "geonameId": 2571304,
        "name": "El Oued",
        "children": [
            
        ]
    },
    {
        "geonameId": 2497327,
        "name": "El Rhoraf",
        "children": [
            
        ]
    },
    {
        "geonameId": 2497356,
        "name": "Er Rda\ufffd\ufffdr",
        "children": [
            
        ]
    },
    {
        "geonameId": 2496986,
        "name": "Et Tnine",
        "children": [
            
        ]
    },
    {
        "geonameId": 2476416,
        "name": "Irhil Timezerit",
        "children": [
            
        ]
    },
    {
        "geonameId": 2475397,
        "name": "Irhil-n-Touila",
        "children": [
            
        ]
    },
    {
        "geonameId": 2492991,
        "name": "Isser",
        "children": [
            
        ]
    },
    {
        "geonameId": 2492985,
        "name": "Isserbourg",
        "children": [
            
        ]
    },
    {
        "geonameId": 2492557,
        "name": "Keddara",
        "children": [
            
        ]
    },
    {
        "geonameId": 2492519,
        "name": "Kef el Aogab",
        "children": [
            
        ]
    },
    {
        "geonameId": 2491913,
        "name": "Khemis el Khechna",
        "children": [
            
        ]
    },
    {
        "geonameId": 2491525,
        "name": "Kouanine",
        "children": [
            
        ]
    },
    {
        "geonameId": 2573606,
        "name": "Koudiet el Araiss",
        "children": [
            
        ]
    },
    {
        "geonameId": 2490855,
        "name": "Les Issers",
        "children": [
            
        ]
    },
    {
        "geonameId": 2490483,
        "name": "Mahdene",
        "children": [
            
        ]
    },
    {
        "geonameId": 2490297,
        "name": "Makouda",
        "children": [
            
        ]
    },
    {
        "geonameId": 2490214,
        "name": "Mandoura",
        "children": [
            
        ]
    },
    {
        "geonameId": 2490164,
        "name": "Maouiya",
        "children": [
            
        ]
    },
    {
        "geonameId": 2489999,
        "name": "Mazer",
        "children": [
            
        ]
    },
    {
        "geonameId": 2490397,
        "name": "Ma\ufffd\ufffdach",
        "children": [
            
        ]
    },
    {
        "geonameId": 2489953,
        "name": "Mchachka",
        "children": [
            
        ]
    },
    {
        "geonameId": 2488939,
        "name": "Mecht ech Cherf",
        "children": [
            
        ]
    },
    {
        "geonameId": 2573635,
        "name": "Modhrabine",
        "children": [
            
        ]
    },
    {
        "geonameId": 2487201,
        "name": "Moktar",
        "children": [
            
        ]
    },
    {
        "geonameId": 2486791,
        "name": "Mraiels",
        "children": [
            
        ]
    },
    {
        "geonameId": 2573668,
        "name": "M\ufffd\ufffd\ufffdkhakhcha",
        "children": [
            
        ]
    },
    {
        "geonameId": 2486505,
        "name": "Naciria",
        "children": [
            
        ]
    },
    {
        "geonameId": 2486183,
        "name": "Nezlioua",
        "children": [
            
        ]
    },
    {
        "geonameId": 2485664,
        "name": "Oued Allal",
        "children": [
            
        ]
    },
    {
        "geonameId": 2485371,
        "name": "Oulad Ameur",
        "children": [
            
        ]
    },
    {
        "geonameId": 2485404,
        "name": "Oulad A\ufffd\ufffdssa",
        "children": [
            
        ]
    },
    {
        "geonameId": 2485402,
        "name": "Oulad A\ufffd\ufffdt Khelil",
        "children": [
            
        ]
    },
    {
        "geonameId": 2485341,
        "name": "Oulad Ben Kassem",
        "children": [
            
        ]
    },
    {
        "geonameId": 2485318,
        "name": "Oulad Bou Merd\ufffd\ufffds",
        "children": [
            
        ]
    },
    {
        "geonameId": 2485266,
        "name": "Oulad Haddada",
        "children": [
            
        ]
    },
    {
        "geonameId": 2485257,
        "name": "Oulad Hammouda",
        "children": [
            
        ]
    },
    {
        "geonameId": 2485191,
        "name": "Oulad Moussa",
        "children": [
            
        ]
    },
    {
        "geonameId": 2485153,
        "name": "Oulad Salem",
        "children": [
            
        ]
    },
    {
        "geonameId": 2485134,
        "name": "Oulad Sidi Ben Ameur",
        "children": [
            
        ]
    },
    {
        "geonameId": 2485106,
        "name": "Oulad Taleb",
        "children": [
            
        ]
    },
    {
        "geonameId": 2485101,
        "name": "Oulad Yahia",
        "children": [
            
        ]
    },
    {
        "geonameId": 2485090,
        "name": "Oulad Zerarka",
        "children": [
            
        ]
    },
    {
        "geonameId": 2485087,
        "name": "Oulad Ziane",
        "children": [
            
        ]
    },
    {
        "geonameId": 2485290,
        "name": "Oulad el Abb\ufffd\ufffds",
        "children": [
            
        ]
    },
    {
        "geonameId": 2485383,
        "name": "Oulad \ufffd\ufffd\ufffdAllal",
        "children": [
            
        ]
    },
    {
        "geonameId": 2485057,
        "name": "Ouled Abd Allah",
        "children": [
            
        ]
    },
    {
        "geonameId": 2573555,
        "name": "Ouled Abdelkrim",
        "children": [
            
        ]
    },
    {
        "geonameId": 2573583,
        "name": "Ouled Ahmed Ben Ali",
        "children": [
            
        ]
    },
    {
        "geonameId": 2573656,
        "name": "Ouled Ali",
        "children": [
            
        ]
    },
    {
        "geonameId": 2485030,
        "name": "Ouled Alia",
        "children": [
            
        ]
    },
    {
        "geonameId": 2573632,
        "name": "Ouled Allal",
        "children": [
            
        ]
    },
    {
        "geonameId": 2485017,
        "name": "Ouled Amara",
        "children": [
            
        ]
    },
    {
        "geonameId": 2484995,
        "name": "Ouled Bel Ha\ufffd\ufffdzem",
        "children": [
            
        ]
    },
    {
        "geonameId": 2484985,
        "name": "Ouled Ben Bekrta",
        "children": [
            
        ]
    },
    {
        "geonameId": 2484983,
        "name": "Ouled Ben Doukhane",
        "children": [
            
        ]
    },
    {
        "geonameId": 2484977,
        "name": "Ouled Ben Mechk",
        "children": [
            
        ]
    },
    {
        "geonameId": 2484975,
        "name": "Ouled Ben Norah",
        "children": [
            
        ]
    },
    {
        "geonameId": 2485337,
        "name": "Ouled Ben Younes",
        "children": [
            
        ]
    },
    {
        "geonameId": 2573579,
        "name": "Ouled Bende",
        "children": [
            
        ]
    },
    {
        "geonameId": 2573666,
        "name": "Ouled Ghnim",
        "children": [
            
        ]
    },
    {
        "geonameId": 2484893,
        "name": "Ouled Guergour",
        "children": [
            
        ]
    },
    {
        "geonameId": 2484891,
        "name": "Ouled Haddaj",
        "children": [
            
        ]
    },
    {
        "geonameId": 2484889,
        "name": "Ouled Hamida",
        "children": [
            
        ]
    },
    {
        "geonameId": 2573584,
        "name": "Ouled Hocine",
        "children": [
            
        ]
    },
    {
        "geonameId": 2485248,
        "name": "Ouled Issorela",
        "children": [
            
        ]
    },
    {
        "geonameId": 2484875,
        "name": "Ouled Keddach",
        "children": [
            
        ]
    },
    {
        "geonameId": 2484870,
        "name": "Ouled Kouadria",
        "children": [
            
        ]
    },
    {
        "geonameId": 2484859,
        "name": "Ouled Madjoub",
        "children": [
            
        ]
    },
    {
        "geonameId": 2573565,
        "name": "Ouled Mnassir",
        "children": [
            
        ]
    },
    {
        "geonameId": 2485202,
        "name": "Ouled Mohammed Ben Ahmed",
        "children": [
            
        ]
    },
    {
        "geonameId": 2484835,
        "name": "Ouled Moussa",
        "children": [
            
        ]
    },
    {
        "geonameId": 2484828,
        "name": "Ouled Oula",
        "children": [
            
        ]
    },
    {
        "geonameId": 2485170,
        "name": "Ouled Rhamoun",
        "children": [
            
        ]
    },
    {
        "geonameId": 2484784,
        "name": "Ouled Sidi Saad",
        "children": [
            
        ]
    },
    {
        "geonameId": 2573655,
        "name": "Ouled Smir",
        "children": [
            
        ]
    },
    {
        "geonameId": 2485250,
        "name": "Ouled Tatar",
        "children": [
            
        ]
    },
    {
        "geonameId": 2485086,
        "name": "Ouled Ziane",
        "children": [
            
        ]
    },
    {
        "geonameId": 2573580,
        "name": "Ouled el Bar",
        "children": [
            
        ]
    },
    {
        "geonameId": 2484370,
        "name": "Ouriacha",
        "children": [
            
        ]
    },
    {
        "geonameId": 2484347,
        "name": "Ousa\ufffd\ufffddene",
        "children": [
            
        ]
    },
    {
        "geonameId": 2483757,
        "name": "Regha\ufffd\ufffda",
        "children": [
            
        ]
    },
    {
        "geonameId": 2573661,
        "name": "Rouria",
        "children": [
            
        ]
    },
    {
        "geonameId": 2482493,
        "name": "Saint-Paul",
        "children": [
            
        ]
    },
    {
        "geonameId": 2482516,
        "name": "Sainte Marie du Corso",
        "children": [
            
        ]
    },
    {
        "geonameId": 2482223,
        "name": "Sebaou el Kedim",
        "children": [
            
        ]
    },
    {
        "geonameId": 2479576,
        "name": "Si Mustapha",
        "children": [
            
        ]
    },
    {
        "geonameId": 2480672,
        "name": "Sidi Daoud",
        "children": [
            
        ]
    },
    {
        "geonameId": 2480423,
        "name": "Sidi Hallou",
        "children": [
            
        ]
    },
    {
        "geonameId": 2479930,
        "name": "Sidi Namane",
        "children": [
            
        ]
    },
    {
        "geonameId": 2479201,
        "name": "Souk el Had",
        "children": [
            
        ]
    },
    {
        "geonameId": 2478958,
        "name": "Ta Brahim",
        "children": [
            
        ]
    },
    {
        "geonameId": 2478831,
        "name": "Tadma\ufffd\ufffdt",
        "children": [
            
        ]
    },
    {
        "geonameId": 2478757,
        "name": "Tafougalt",
        "children": [
            
        ]
    },
    {
        "geonameId": 2478456,
        "name": "Takdempt",
        "children": [
            
        ]
    },
    {
        "geonameId": 2478338,
        "name": "Tala Madi",
        "children": [
            
        ]
    },
    {
        "geonameId": 2478333,
        "name": "Tala Mokkor",
        "children": [
            
        ]
    },
    {
        "geonameId": 2478280,
        "name": "Taliahla",
        "children": [
            
        ]
    },
    {
        "geonameId": 2477926,
        "name": "Taourga",
        "children": [
            
        ]
    },
    {
        "geonameId": 2477825,
        "name": "Tarebent",
        "children": [
            
        ]
    },
    {
        "geonameId": 2477554,
        "name": "Tazerart",
        "children": [
            
        ]
    },
    {
        "geonameId": 2477515,
        "name": "Tazerout",
        "children": [
            
        ]
    },
    {
        "geonameId": 2499213,
        "name": "Tazerout",
        "children": [
            
        ]
    },
    {
        "geonameId": 2476917,
        "name": "Thenia",
        "children": [
            
        ]
    },
    {
        "geonameId": 2476907,
        "name": "Thouabet",
        "children": [
            
        ]
    },
    {
        "geonameId": 2476887,
        "name": "Tibecharene",
        "children": [
            
        ]
    },
    {
        "geonameId": 2476808,
        "name": "Tidjelabine",
        "children": [
            
        ]
    },
    {
        "geonameId": 2476766,
        "name": "Tifaou",
        "children": [
            
        ]
    },
    {
        "geonameId": 2476644,
        "name": "Tihbobine",
        "children": [
            
        ]
    },
    {
        "geonameId": 2475790,
        "name": "Tizerouin",
        "children": [
            
        ]
    },
    {
        "geonameId": 2475771,
        "name": "Tizi Aria",
        "children": [
            
        ]
    },
    {
        "geonameId": 2475764,
        "name": "Tizi Gheniff",
        "children": [
            
        ]
    },
    {
        "geonameId": 2475757,
        "name": "Tizi-n-Bou Ali",
        "children": [
            
        ]
    },
    {
        "geonameId": 2475189,
        "name": "Tribu Guiyaro",
        "children": [
            
        ]
    },
    {
        "geonameId": 2475086,
        "name": "Village de Baba Ali",
        "children": [
            
        ]
    },
    {
        "geonameId": 2475083,
        "name": "Village des Ouled Ali",
        "children": [
            
        ]
    },
    {
        "geonameId": 2474980,
        "name": "Za\ufffd\ufffdtra",
        "children": [
            
        ]
    },
    {
        "geonameId": 2474633,
        "name": "Zemmouri",
        "children": [
            
        ]
    },
    {
        "geonameId": 2474629,
        "name": "Zemmouri el Bahri",
        "children": [
            
        ]
    },
    {
        "geonameId": 2474388,
        "name": "Zimoula",
        "children": [
            
        ]
    },
    {
        "geonameId": 2474224,
        "name": "Zouggara",
        "children": [
            
        ]
    },
    {
        "geonameId": 2507983,
        "name": "\ufffd\ufffd\ufffdA\ufffd\ufffdn N\ufffd\ufffd\ufffdSara",
        "children": [
            
        ]
    }
]