[
    {
        "geonameId": 2509204,
        "name": "Abd el Djebar",
        "children": [
            
        ]
    },
    {
        "geonameId": 2508732,
        "name": "Afoud",
        "children": [
            
        ]
    },
    {
        "geonameId": 2508653,
        "name": "Agouilal",
        "children": [
            
        ]
    },
    {
        "geonameId": 2507386,
        "name": "Allarhane",
        "children": [
            
        ]
    },
    {
        "geonameId": 2507374,
        "name": "Allessa",
        "children": [
            
        ]
    },
    {
        "geonameId": 2506934,
        "name": "Aomar",
        "children": [
            
        ]
    },
    {
        "geonameId": 2508268,
        "name": "A\u00efn Bessem",
        "children": [
            
        ]
    },
    {
        "geonameId": 2508033,
        "name": "A\u00efn Laloui",
        "children": [
            
        ]
    },
    {
        "geonameId": 2571140,
        "name": "A\u00efn Tasta",
        "children": [
            
        ]
    },
    {
        "geonameId": 2508160,
        "name": "A\u00efn el Hadjar",
        "children": [
            
        ]
    },
    {
        "geonameId": 2507754,
        "name": "A\u00eft Fdila",
        "children": [
            
        ]
    },
    {
        "geonameId": 2505537,
        "name": "Beaupr\u00eatre",
        "children": [
            
        ]
    },
    {
        "geonameId": 2505514,
        "name": "Bechloul",
        "children": [
            
        ]
    },
    {
        "geonameId": 2583255,
        "name": "Bel Arba",
        "children": [
            
        ]
    },
    {
        "geonameId": 2504775,
        "name": "Ben Haroun",
        "children": [
            
        ]
    },
    {
        "geonameId": 2504664,
        "name": "Beni Ikhlef",
        "children": [
            
        ]
    },
    {
        "geonameId": 2504633,
        "name": "Beni Matas",
        "children": [
            
        ]
    },
    {
        "geonameId": 2504600,
        "name": "Beni Ouaggag",
        "children": [
            
        ]
    },
    {
        "geonameId": 2503965,
        "name": "Bezzit",
        "children": [
            
        ]
    },
    {
        "geonameId": 2503635,
        "name": "Bordj Okhriss",
        "children": [
            
        ]
    },
    {
        "geonameId": 2503259,
        "name": "Bou Djellil",
        "children": [
            
        ]
    },
    {
        "geonameId": 2583293,
        "name": "Bou Ha\u00efti",
        "children": [
            
        ]
    },
    {
        "geonameId": 2502331,
        "name": "Bou Setta",
        "children": [
            
        ]
    },
    {
        "geonameId": 2503260,
        "name": "Boudjellil",
        "children": [
            
        ]
    },
    {
        "geonameId": 2502958,
        "name": "Bou\u00efra",
        "children": [
            
        ]
    },
    {
        "geonameId": 2501289,
        "name": "Chorfa",
        "children": [
            
        ]
    },
    {
        "geonameId": 2500710,
        "name": "Dechra Djouara",
        "children": [
            
        ]
    },
    {
        "geonameId": 2500709,
        "name": "Dechra Mahalla",
        "children": [
            
        ]
    },
    {
        "geonameId": 2480678,
        "name": "Dechra Sidi Chikh",
        "children": [
            
        ]
    },
    {
        "geonameId": 2493512,
        "name": "Dechrat Ikhelef",
        "children": [
            
        ]
    },
    {
        "geonameId": 2497318,
        "name": "Dechret Amboula",
        "children": [
            
        ]
    },
    {
        "geonameId": 2504737,
        "name": "Dechret Beni Anane",
        "children": [
            
        ]
    },
    {
        "geonameId": 2499144,
        "name": "Dechret Doukkane",
        "children": [
            
        ]
    },
    {
        "geonameId": 2500276,
        "name": "Djama Tamnecht",
        "children": [
            
        ]
    },
    {
        "geonameId": 2500240,
        "name": "Djebahia",
        "children": [
            
        ]
    },
    {
        "geonameId": 2499857,
        "name": "Djenane Rad",
        "children": [
            
        ]
    },
    {
        "geonameId": 2499772,
        "name": "Djereah",
        "children": [
            
        ]
    },
    {
        "geonameId": 2499080,
        "name": "Dra Tahouinine",
        "children": [
            
        ]
    },
    {
        "geonameId": 2499104,
        "name": "Draa el Mizan",
        "children": [
            
        ]
    },
    {
        "geonameId": 2498970,
        "name": "Ech Chaaba",
        "children": [
            
        ]
    },
    {
        "geonameId": 2498756,
        "name": "El Adjiba",
        "children": [
            
        ]
    },
    {
        "geonameId": 2498738,
        "name": "El A\u00efach",
        "children": [
            
        ]
    },
    {
        "geonameId": 2498432,
        "name": "El Djebel",
        "children": [
            
        ]
    },
    {
        "geonameId": 2498397,
        "name": "El Esnam",
        "children": [
            
        ]
    },
    {
        "geonameId": 2498199,
        "name": "El Hachimia",
        "children": [
            
        ]
    },
    {
        "geonameId": 2498104,
        "name": "El Hammam",
        "children": [
            
        ]
    },
    {
        "geonameId": 2497966,
        "name": "El Karrouch",
        "children": [
            
        ]
    },
    {
        "geonameId": 2497850,
        "name": "El Khreb",
        "children": [
            
        ]
    },
    {
        "geonameId": 2497410,
        "name": "El Oued",
        "children": [
            
        ]
    },
    {
        "geonameId": 2497148,
        "name": "Er Remla",
        "children": [
            
        ]
    },
    {
        "geonameId": 2495555,
        "name": "Guenndour",
        "children": [
            
        ]
    },
    {
        "geonameId": 2495424,
        "name": "Guerouma",
        "children": [
            
        ]
    },
    {
        "geonameId": 2493733,
        "name": "Ibeljiouene",
        "children": [
            
        ]
    },
    {
        "geonameId": 2493458,
        "name": "Illiltene",
        "children": [
            
        ]
    },
    {
        "geonameId": 2493108,
        "name": "Irhil Hammad",
        "children": [
            
        ]
    },
    {
        "geonameId": 2493095,
        "name": "Irhil-n-Zerouine",
        "children": [
            
        ]
    },
    {
        "geonameId": 2492873,
        "name": "Kadiria",
        "children": [
            
        ]
    },
    {
        "geonameId": 2492668,
        "name": "Kassim",
        "children": [
            
        ]
    },
    {
        "geonameId": 2492529,
        "name": "Kef el Amar",
        "children": [
            
        ]
    },
    {
        "geonameId": 2492286,
        "name": "Kerrachich",
        "children": [
            
        ]
    },
    {
        "geonameId": 2491174,
        "name": "Lahguiat",
        "children": [
            
        ]
    },
    {
        "geonameId": 2491134,
        "name": "Lakhdaria",
        "children": [
            
        ]
    },
    {
        "geonameId": 2490831,
        "name": "Les Trembles",
        "children": [
            
        ]
    },
    {
        "geonameId": 2490525,
        "name": "Mahadjouba",
        "children": [
            
        ]
    },
    {
        "geonameId": 2490287,
        "name": "Malah",
        "children": [
            
        ]
    },
    {
        "geonameId": 2489828,
        "name": "Mechta Abdalli Kouider",
        "children": [
            
        ]
    },
    {
        "geonameId": 2489777,
        "name": "Mechta Anana",
        "children": [
            
        ]
    },
    {
        "geonameId": 2489766,
        "name": "Mechta Assaka",
        "children": [
            
        ]
    },
    {
        "geonameId": 2489681,
        "name": "Mechta Bou Kharsoum",
        "children": [
            
        ]
    },
    {
        "geonameId": 2489670,
        "name": "Mechta Bou Sa\u00efd Lakhdar",
        "children": [
            
        ]
    },
    {
        "geonameId": 2489669,
        "name": "Mechta Bou Taga",
        "children": [
            
        ]
    },
    {
        "geonameId": 2489607,
        "name": "Mechta Djebessa",
        "children": [
            
        ]
    },
    {
        "geonameId": 2489580,
        "name": "Mechta Ferraha",
        "children": [
            
        ]
    },
    {
        "geonameId": 2489545,
        "name": "Mechta Hadjar Zerga",
        "children": [
            
        ]
    },
    {
        "geonameId": 2489544,
        "name": "Mechta Hadjer es Soufr",
        "children": [
            
        ]
    },
    {
        "geonameId": 2489534,
        "name": "Mechta Irhil Mehallah",
        "children": [
            
        ]
    },
    {
        "geonameId": 2489528,
        "name": "Mechta Kamria",
        "children": [
            
        ]
    },
    {
        "geonameId": 2489523,
        "name": "Mechta Kasba",
        "children": [
            
        ]
    },
    {
        "geonameId": 2489508,
        "name": "Mechta Kharrouba",
        "children": [
            
        ]
    },
    {
        "geonameId": 2489487,
        "name": "Mechta Lachouaf",
        "children": [
            
        ]
    },
    {
        "geonameId": 2489481,
        "name": "Mechta Lalla Saada",
        "children": [
            
        ]
    },
    {
        "geonameId": 2489467,
        "name": "Mechta Madjout",
        "children": [
            
        ]
    },
    {
        "geonameId": 2489462,
        "name": "Mechta Makha Mala",
        "children": [
            
        ]
    },
    {
        "geonameId": 2489458,
        "name": "Mechta Marouf",
        "children": [
            
        ]
    },
    {
        "geonameId": 2489440,
        "name": "Mechta Mergad",
        "children": [
            
        ]
    },
    {
        "geonameId": 2489435,
        "name": "Mechta Mgatif",
        "children": [
            
        ]
    },
    {
        "geonameId": 2489427,
        "name": "Mechta Moyah",
        "children": [
            
        ]
    },
    {
        "geonameId": 2489374,
        "name": "Mechta Oulad Touati",
        "children": [
            
        ]
    },
    {
        "geonameId": 2489242,
        "name": "Mechta Sa\u00efd Bel Kassem",
        "children": [
            
        ]
    },
    {
        "geonameId": 2489236,
        "name": "Mechta Sedd el Lif",
        "children": [
            
        ]
    },
    {
        "geonameId": 2489230,
        "name": "Mechta Sha\u00efri",
        "children": [
            
        ]
    },
    {
        "geonameId": 2489226,
        "name": "Mechta Sidi Daoud",
        "children": [
            
        ]
    },
    {
        "geonameId": 2489221,
        "name": "Mechta Sidi Kherouf",
        "children": [
            
        ]
    },
    {
        "geonameId": 2489206,
        "name": "Mechta Souharia",
        "children": [
            
        ]
    },
    {
        "geonameId": 2489188,
        "name": "Mechta Talamine",
        "children": [
            
        ]
    },
    {
        "geonameId": 2489184,
        "name": "Mechta Tamazirt",
        "children": [
            
        ]
    },
    {
        "geonameId": 2489176,
        "name": "Mechta Tasseft",
        "children": [
            
        ]
    },
    {
        "geonameId": 2489034,
        "name": "Mechta Teniet Beni Da\u00efet",
        "children": [
            
        ]
    },
    {
        "geonameId": 2489033,
        "name": "Mechta Teranioua",
        "children": [
            
        ]
    },
    {
        "geonameId": 2488977,
        "name": "Mechta Tourki",
        "children": [
            
        ]
    },
    {
        "geonameId": 2488976,
        "name": "Mechta Tra\u00efricha",
        "children": [
            
        ]
    },
    {
        "geonameId": 2488952,
        "name": "Mechta Zeboudj",
        "children": [
            
        ]
    },
    {
        "geonameId": 2489612,
        "name": "Mechta des Rouaba",
        "children": [
            
        ]
    },
    {
        "geonameId": 2489788,
        "name": "Mechta \u2019A\u00efn Zerga",
        "children": [
            
        ]
    },
    {
        "geonameId": 2489149,
        "name": "Mechtat ech Cherchara",
        "children": [
            
        ]
    },
    {
        "geonameId": 2507125,
        "name": "Mechtat el Amra",
        "children": [
            
        ]
    },
    {
        "geonameId": 2491652,
        "name": "Mechtat el Khrarba",
        "children": [
            
        ]
    },
    {
        "geonameId": 2489066,
        "name": "Mechtat el Lebba",
        "children": [
            
        ]
    },
    {
        "geonameId": 2489016,
        "name": "Mechtat ez Zebech",
        "children": [
            
        ]
    },
    {
        "geonameId": 2489192,
        "name": "Mechtat \u2019A\u00efn Guern el Menndjel",
        "children": [
            
        ]
    },
    {
        "geonameId": 2571171,
        "name": "Mechtet el Amra",
        "children": [
            
        ]
    },
    {
        "geonameId": 2499337,
        "name": "Mosbaha",
        "children": [
            
        ]
    },
    {
        "geonameId": 2486742,
        "name": "Msa\u00efef",
        "children": [
            
        ]
    },
    {
        "geonameId": 2489948,
        "name": "M\u2019Chedallah",
        "children": [
            
        ]
    },
    {
        "geonameId": 2486571,
        "name": "M\u2019Zarir",
        "children": [
            
        ]
    },
    {
        "geonameId": 2485393,
        "name": "Oulad Ali",
        "children": [
            
        ]
    },
    {
        "geonameId": 2485350,
        "name": "Oulad Bel Kassem",
        "children": [
            
        ]
    },
    {
        "geonameId": 2485158,
        "name": "Oulad Sa\u00efdi",
        "children": [
            
        ]
    },
    {
        "geonameId": 2485284,
        "name": "Oulad el Guetatfa",
        "children": [
            
        ]
    },
    {
        "geonameId": 2485058,
        "name": "Ouled Abdallah",
        "children": [
            
        ]
    },
    {
        "geonameId": 2485324,
        "name": "Ouled Bourgorn",
        "children": [
            
        ]
    },
    {
        "geonameId": 2484826,
        "name": "Ouled Rached",
        "children": [
            
        ]
    },
    {
        "geonameId": 2485311,
        "name": "Ouled Sidi Brahim",
        "children": [
            
        ]
    },
    {
        "geonameId": 2484771,
        "name": "Ouled Tessala",
        "children": [
            
        ]
    },
    {
        "geonameId": 2484762,
        "name": "Ouled Zeriba",
        "children": [
            
        ]
    },
    {
        "geonameId": 2484759,
        "name": "Ouled Zidane",
        "children": [
            
        ]
    },
    {
        "geonameId": 2482411,
        "name": "Samma",
        "children": [
            
        ]
    },
    {
        "geonameId": 2482200,
        "name": "Sebkha",
        "children": [
            
        ]
    },
    {
        "geonameId": 2481904,
        "name": "Selloum",
        "children": [
            
        ]
    },
    {
        "geonameId": 2481862,
        "name": "Semmach",
        "children": [
            
        ]
    },
    {
        "geonameId": 2480741,
        "name": "Sidi Brahim",
        "children": [
            
        ]
    },
    {
        "geonameId": 2480088,
        "name": "Sidi Mohammed Ben ed Dif",
        "children": [
            
        ]
    },
    {
        "geonameId": 2479210,
        "name": "Souk Djamaa",
        "children": [
            
        ]
    },
    {
        "geonameId": 2479161,
        "name": "Sour el Ghozlane",
        "children": [
            
        ]
    },
    {
        "geonameId": 2479060,
        "name": "Taalba",
        "children": [
            
        ]
    },
    {
        "geonameId": 2478577,
        "name": "Taharkatine",
        "children": [
            
        ]
    },
    {
        "geonameId": 2478449,
        "name": "Takerbouzt",
        "children": [
            
        ]
    },
    {
        "geonameId": 2478318,
        "name": "Tala Rana",
        "children": [
            
        ]
    },
    {
        "geonameId": 2478076,
        "name": "Tammera",
        "children": [
            
        ]
    },
    {
        "geonameId": 2477913,
        "name": "Taourirt",
        "children": [
            
        ]
    },
    {
        "geonameId": 2477883,
        "name": "Taourirt Tazegouart",
        "children": [
            
        ]
    },
    {
        "geonameId": 2477627,
        "name": "Tassift",
        "children": [
            
        ]
    },
    {
        "geonameId": 2477537,
        "name": "Tazmalt",
        "children": [
            
        ]
    },
    {
        "geonameId": 2476911,
        "name": "Thiaramtz",
        "children": [
            
        ]
    },
    {
        "geonameId": 2476809,
        "name": "Tidjedad",
        "children": [
            
        ]
    },
    {
        "geonameId": 2476709,
        "name": "Tiftissine",
        "children": [
            
        ]
    },
    {
        "geonameId": 2476571,
        "name": "Tikseridene",
        "children": [
            
        ]
    },
    {
        "geonameId": 2475839,
        "name": "Tissra Ou Djemal",
        "children": [
            
        ]
    },
    {
        "geonameId": 2474948,
        "name": "Zahrar",
        "children": [
            
        ]
    },
    {
        "geonameId": 2474878,
        "name": "Zaou\u00efa Babor",
        "children": [
            
        ]
    }
]