[
    {
        "geonameId": 2508719,
        "name": "Afsil",
        "children": [
            
        ]
    },
    {
        "geonameId": 2507225,
        "name": "Amentane",
        "children": [
            
        ]
    },
    {
        "geonameId": 2508257,
        "name": "A\u00efn Bou Zennzene",
        "children": [
            
        ]
    },
    {
        "geonameId": 2508089,
        "name": "A\u00efn Fouchi",
        "children": [
            
        ]
    },
    {
        "geonameId": 2505830,
        "name": "Bades",
        "children": [
            
        ]
    },
    {
        "geonameId": 2504317,
        "name": "Ben Thious",
        "children": [
            
        ]
    },
    {
        "geonameId": 2504697,
        "name": "Beni Ferah",
        "children": [
            
        ]
    },
    {
        "geonameId": 2504558,
        "name": "Beni Souk",
        "children": [
            
        ]
    },
    {
        "geonameId": 2503936,
        "name": "Bigou",
        "children": [
            
        ]
    },
    {
        "geonameId": 2503894,
        "name": "Bir Besbes",
        "children": [
            
        ]
    },
    {
        "geonameId": 2503826,
        "name": "Biskra",
        "children": [
            {
                "geonameId": 2481707,
                "name": "Setar Mlouk",
                "children": [
                    
                ]
            }
        ]
    },
    {
        "geonameId": 2503686,
        "name": "Bordj de Chegga",
        "children": [
            
        ]
    },
    {
        "geonameId": 2503385,
        "name": "Bouchagroun",
        "children": [
            
        ]
    },
    {
        "geonameId": 2502057,
        "name": "Branis",
        "children": [
            
        ]
    },
    {
        "geonameId": 2501520,
        "name": "Chelma",
        "children": [
            
        ]
    },
    {
        "geonameId": 2501365,
        "name": "Chetma",
        "children": [
            
        ]
    },
    {
        "geonameId": 2500918,
        "name": "Dar Ben Abbes",
        "children": [
            
        ]
    },
    {
        "geonameId": 2500698,
        "name": "Dechret Tadjmout",
        "children": [
            
        ]
    },
    {
        "geonameId": 2499909,
        "name": "Djemina",
        "children": [
            
        ]
    },
    {
        "geonameId": 2499906,
        "name": "Djemmorah",
        "children": [
            
        ]
    },
    {
        "geonameId": 2499197,
        "name": "Doucen",
        "children": [
            
        ]
    },
    {
        "geonameId": 2499016,
        "name": "Droh",
        "children": [
            
        ]
    },
    {
        "geonameId": 2498721,
        "name": "El Alia",
        "children": [
            
        ]
    },
    {
        "geonameId": 2498706,
        "name": "El Amri",
        "children": [
            
        ]
    },
    {
        "geonameId": 2498555,
        "name": "El Bania",
        "children": [
            
        ]
    },
    {
        "geonameId": 2498475,
        "name": "El Bordj",
        "children": [
            
        ]
    },
    {
        "geonameId": 2498211,
        "name": "El Habel",
        "children": [
            
        ]
    },
    {
        "geonameId": 2498100,
        "name": "El Hamman Oulad Zerara",
        "children": [
            
        ]
    },
    {
        "geonameId": 2498076,
        "name": "El Haouch",
        "children": [
            
        ]
    },
    {
        "geonameId": 2497815,
        "name": "El Krerouz",
        "children": [
            
        ]
    },
    {
        "geonameId": 2497807,
        "name": "El Ksar",
        "children": [
            
        ]
    },
    {
        "geonameId": 2497370,
        "name": "El Outaya",
        "children": [
            
        ]
    },
    {
        "geonameId": 2496780,
        "name": "Farfar",
        "children": [
            
        ]
    },
    {
        "geonameId": 2496500,
        "name": "Ferme Dufourg",
        "children": [
            
        ]
    },
    {
        "geonameId": 2496413,
        "name": "Filiach",
        "children": [
            
        ]
    },
    {
        "geonameId": 2496338,
        "name": "Foughala",
        "children": [
            
        ]
    },
    {
        "geonameId": 2496306,
        "name": "Foum el Kherza",
        "children": [
            
        ]
    },
    {
        "geonameId": 2496081,
        "name": "Garta",
        "children": [
            
        ]
    },
    {
        "geonameId": 2495759,
        "name": "Gueddacha",
        "children": [
            
        ]
    },
    {
        "geonameId": 2495755,
        "name": "Gueddila",
        "children": [
            
        ]
    },
    {
        "geonameId": 2495500,
        "name": "Guerdema",
        "children": [
            
        ]
    },
    {
        "geonameId": 2492647,
        "name": "Kebach",
        "children": [
            
        ]
    },
    {
        "geonameId": 2492113,
        "name": "Khangat Sidi Nadji",
        "children": [
            
        ]
    },
    {
        "geonameId": 2491895,
        "name": "Khenag",
        "children": [
            
        ]
    },
    {
        "geonameId": 2491532,
        "name": "Korra",
        "children": [
            
        ]
    },
    {
        "geonameId": 2491301,
        "name": "Ksar Ouled Youb",
        "children": [
            
        ]
    },
    {
        "geonameId": 2491000,
        "name": "La Smala",
        "children": [
            
        ]
    },
    {
        "geonameId": 2491028,
        "name": "Larhla",
        "children": [
            
        ]
    },
    {
        "geonameId": 2490817,
        "name": "Liana",
        "children": [
            
        ]
    },
    {
        "geonameId": 2490814,
        "name": "Lichana",
        "children": [
            
        ]
    },
    {
        "geonameId": 2490801,
        "name": "Lioua",
        "children": [
            
        ]
    },
    {
        "geonameId": 2490613,
        "name": "Madjina",
        "children": [
            
        ]
    },
    {
        "geonameId": 2490195,
        "name": "Mannsoura",
        "children": [
            
        ]
    },
    {
        "geonameId": 2489893,
        "name": "Mebdoua",
        "children": [
            
        ]
    },
    {
        "geonameId": 2489894,
        "name": "Mebdoua",
        "children": [
            
        ]
    },
    {
        "geonameId": 2489857,
        "name": "Mechkal",
        "children": [
            
        ]
    },
    {
        "geonameId": 2488876,
        "name": "Mechtet Safiya",
        "children": [
            
        ]
    },
    {
        "geonameId": 2488907,
        "name": "Mechtet ez Zm\u00e2la",
        "children": [
            
        ]
    },
    {
        "geonameId": 2488547,
        "name": "Mekhadma",
        "children": [
            
        ]
    },
    {
        "geonameId": 2488193,
        "name": "Menaa",
        "children": [
            
        ]
    },
    {
        "geonameId": 2487384,
        "name": "Mizab",
        "children": [
            
        ]
    },
    {
        "geonameId": 2486705,
        "name": "Msid",
        "children": [
            
        ]
    },
    {
        "geonameId": 2489940,
        "name": "M\u2019Chouneche",
        "children": [
            
        ]
    },
    {
        "geonameId": 2487321,
        "name": "M\u2019Lili",
        "children": [
            
        ]
    },
    {
        "geonameId": 2486313,
        "name": "Nebka",
        "children": [
            
        ]
    },
    {
        "geonameId": 2485784,
        "name": "Ouarka",
        "children": [
            
        ]
    },
    {
        "geonameId": 2485433,
        "name": "Oulach",
        "children": [
            
        ]
    },
    {
        "geonameId": 2485166,
        "name": "Oulad Rhedab",
        "children": [
            
        ]
    },
    {
        "geonameId": 2485245,
        "name": "Ouladj el Khodra",
        "children": [
            
        ]
    },
    {
        "geonameId": 2484933,
        "name": "Ouled Djellal",
        "children": [
            
        ]
    },
    {
        "geonameId": 2484601,
        "name": "Oum el Habel",
        "children": [
            
        ]
    },
    {
        "geonameId": 2484738,
        "name": "Oumache",
        "children": [
            
        ]
    },
    {
        "geonameId": 2484359,
        "name": "Ourlal",
        "children": [
            
        ]
    },
    {
        "geonameId": 2483593,
        "name": "Retba",
        "children": [
            
        ]
    },
    {
        "geonameId": 2482859,
        "name": "Roumane",
        "children": [
            
        ]
    },
    {
        "geonameId": 2482601,
        "name": "Sahira",
        "children": [
            
        ]
    },
    {
        "geonameId": 2482401,
        "name": "Sanef",
        "children": [
            
        ]
    },
    {
        "geonameId": 2481760,
        "name": "Seriana",
        "children": [
            
        ]
    },
    {
        "geonameId": 2481752,
        "name": "Serir Ou Amane",
        "children": [
            
        ]
    },
    {
        "geonameId": 2481015,
        "name": "Sidi Barkat",
        "children": [
            
        ]
    },
    {
        "geonameId": 2480368,
        "name": "Sidi Khaled",
        "children": [
            
        ]
    },
    {
        "geonameId": 2480343,
        "name": "Sidi Khelil",
        "children": [
            
        ]
    },
    {
        "geonameId": 2480024,
        "name": "Sidi Mohammed Moussa",
        "children": [
            
        ]
    },
    {
        "geonameId": 2479916,
        "name": "Sidi Okba",
        "children": [
            
        ]
    },
    {
        "geonameId": 2480495,
        "name": "Sidi el Messaoud",
        "children": [
            
        ]
    },
    {
        "geonameId": 2478556,
        "name": "Tahenntout",
        "children": [
            
        ]
    },
    {
        "geonameId": 2478279,
        "name": "Talilit",
        "children": [
            
        ]
    },
    {
        "geonameId": 2477539,
        "name": "Tazleft",
        "children": [
            
        ]
    },
    {
        "geonameId": 2477440,
        "name": "Teboudjerine",
        "children": [
            
        ]
    },
    {
        "geonameId": 2477439,
        "name": "Tebouiahmet",
        "children": [
            
        ]
    },
    {
        "geonameId": 2477316,
        "name": "Tehouda",
        "children": [
            
        ]
    },
    {
        "geonameId": 2476496,
        "name": "Tiloukach",
        "children": [
            
        ]
    },
    {
        "geonameId": 2476434,
        "name": "Timermassine",
        "children": [
            
        ]
    },
    {
        "geonameId": 2475612,
        "name": "Tolga",
        "children": [
            
        ]
    },
    {
        "geonameId": 2475033,
        "name": "Yaouda",
        "children": [
            
        ]
    },
    {
        "geonameId": 2474983,
        "name": "Zaatcha",
        "children": [
            
        ]
    },
    {
        "geonameId": 2474507,
        "name": "Zeribet Ahmed",
        "children": [
            
        ]
    },
    {
        "geonameId": 2474506,
        "name": "Zeribet el Oued",
        "children": [
            
        ]
    },
    {
        "geonameId": 2474160,
        "name": "Zr\u00eebet Ben Ouaar",
        "children": [
            
        ]
    },
    {
        "geonameId": 2507990,
        "name": "\u2019A\u00efn Naga",
        "children": [
            
        ]
    },
    {
        "geonameId": 2508203,
        "name": "\u2019A\u00efn el Alleg",
        "children": [
            
        ]
    }
]