[
    {
        "geonameId": 2570689,
        "name": "Aber el Ma",
        "children": [
            
        ]
    },
    {
        "geonameId": 2509014,
        "name": "Achabou",
        "children": [
            
        ]
    },
    {
        "geonameId": 2506753,
        "name": "Aourir Ouelmi",
        "children": [
            
        ]
    },
    {
        "geonameId": 2506346,
        "name": "Asga",
        "children": [
            
        ]
    },
    {
        "geonameId": 2505153,
        "name": "Bel Imour",
        "children": [
            
        ]
    },
    {
        "geonameId": 2504684,
        "name": "Beni Hafod",
        "children": [
            
        ]
    },
    {
        "geonameId": 2504645,
        "name": "Beni Lalem",
        "children": [
            
        ]
    },
    {
        "geonameId": 2504603,
        "name": "Benina",
        "children": [
            
        ]
    },
    {
        "geonameId": 2503900,
        "name": "Bir A\u00efssa",
        "children": [
            
        ]
    },
    {
        "geonameId": 2503891,
        "name": "Bir Chaham",
        "children": [
            
        ]
    },
    {
        "geonameId": 2503856,
        "name": "Bir Hamoudi",
        "children": [
            
        ]
    },
    {
        "geonameId": 2503849,
        "name": "Bir Kasdali",
        "children": [
            
        ]
    },
    {
        "geonameId": 2503762,
        "name": "Blondel",
        "children": [
            
        ]
    },
    {
        "geonameId": 2503701,
        "name": "Bordj Bou Arreridj",
        "children": [
            
        ]
    },
    {
        "geonameId": 2503654,
        "name": "Bordj Ghdir",
        "children": [
            
        ]
    },
    {
        "geonameId": 2503620,
        "name": "Bordj Zemoura",
        "children": [
            
        ]
    },
    {
        "geonameId": 2503677,
        "name": "Bordj du Ca\u00efd",
        "children": [
            
        ]
    },
    {
        "geonameId": 2502226,
        "name": "Bou Touil",
        "children": [
            
        ]
    },
    {
        "geonameId": 2501486,
        "name": "Chenia",
        "children": [
            
        ]
    },
    {
        "geonameId": 2501218,
        "name": "Chouf Ranib",
        "children": [
            
        ]
    },
    {
        "geonameId": 2500921,
        "name": "Dar Be\u00efda",
        "children": [
            
        ]
    },
    {
        "geonameId": 2500829,
        "name": "Dar Srhira",
        "children": [
            
        ]
    },
    {
        "geonameId": 2500296,
        "name": "Djahnit",
        "children": [
            
        ]
    },
    {
        "geonameId": 2500104,
        "name": "Djedid",
        "children": [
            
        ]
    },
    {
        "geonameId": 2499763,
        "name": "Djerhalil",
        "children": [
            
        ]
    },
    {
        "geonameId": 2498916,
        "name": "Ed Dechra",
        "children": [
            
        ]
    },
    {
        "geonameId": 2498773,
        "name": "El Ach",
        "children": [
            
        ]
    },
    {
        "geonameId": 2498766,
        "name": "El Achir",
        "children": [
            
        ]
    },
    {
        "geonameId": 2498456,
        "name": "El Bour Tarhlieht",
        "children": [
            
        ]
    },
    {
        "geonameId": 2498218,
        "name": "El Guettar",
        "children": [
            
        ]
    },
    {
        "geonameId": 2498113,
        "name": "El Hammadia",
        "children": [
            
        ]
    },
    {
        "geonameId": 2498093,
        "name": "El Hamra",
        "children": [
            
        ]
    },
    {
        "geonameId": 2497740,
        "name": "El Mahdia",
        "children": [
            
        ]
    },
    {
        "geonameId": 2497573,
        "name": "El Merdja",
        "children": [
            
        ]
    },
    {
        "geonameId": 2497500,
        "name": "El M\u2019Khazene",
        "children": [
            
        ]
    },
    {
        "geonameId": 2497205,
        "name": "Erbea",
        "children": [
            
        ]
    },
    {
        "geonameId": 2496907,
        "name": "Ez Zmala",
        "children": [
            
        ]
    },
    {
        "geonameId": 2496150,
        "name": "Galbois",
        "children": [
            
        ]
    },
    {
        "geonameId": 2495537,
        "name": "Guenzet",
        "children": [
            
        ]
    },
    {
        "geonameId": 2494604,
        "name": "Hammam",
        "children": [
            
        ]
    },
    {
        "geonameId": 2494549,
        "name": "Hammam el Biban",
        "children": [
            
        ]
    },
    {
        "geonameId": 2493072,
        "name": "Iril Ourir",
        "children": [
            
        ]
    },
    {
        "geonameId": 2492683,
        "name": "Kasba",
        "children": [
            
        ]
    },
    {
        "geonameId": 2491948,
        "name": "Khelil",
        "children": [
            
        ]
    },
    {
        "geonameId": 2490988,
        "name": "Lavoisier",
        "children": [
            
        ]
    },
    {
        "geonameId": 2490177,
        "name": "Mansoura Kbira",
        "children": [
            
        ]
    },
    {
        "geonameId": 2490180,
        "name": "Mansourah",
        "children": [
            
        ]
    },
    {
        "geonameId": 2489773,
        "name": "Mechta Aouichet",
        "children": [
            
        ]
    },
    {
        "geonameId": 2489752,
        "name": "Mechta Beldj",
        "children": [
            
        ]
    },
    {
        "geonameId": 2489746,
        "name": "Mechta Ben Aktouf",
        "children": [
            
        ]
    },
    {
        "geonameId": 2489745,
        "name": "Mechta Ben Ba\u00efti",
        "children": [
            
        ]
    },
    {
        "geonameId": 2489731,
        "name": "Mechta Ben Kharfallah",
        "children": [
            
        ]
    },
    {
        "geonameId": 2489702,
        "name": "Mechta Bitam",
        "children": [
            
        ]
    },
    {
        "geonameId": 2489695,
        "name": "Mechta Bou Aroua",
        "children": [
            
        ]
    },
    {
        "geonameId": 2489675,
        "name": "Mechta Bou Marsoum",
        "children": [
            
        ]
    },
    {
        "geonameId": 2489636,
        "name": "Mechta Chenafa",
        "children": [
            
        ]
    },
    {
        "geonameId": 2489634,
        "name": "Mechta Cherarha",
        "children": [
            
        ]
    },
    {
        "geonameId": 2489633,
        "name": "Mechta Cherchar",
        "children": [
            
        ]
    },
    {
        "geonameId": 2489631,
        "name": "Mechta Chiha",
        "children": [
            
        ]
    },
    {
        "geonameId": 2489583,
        "name": "Mechta Fatima",
        "children": [
            
        ]
    },
    {
        "geonameId": 2489561,
        "name": "Mechta Grarsa",
        "children": [
            
        ]
    },
    {
        "geonameId": 2489555,
        "name": "Mechta Guemmour",
        "children": [
            
        ]
    },
    {
        "geonameId": 2489553,
        "name": "Mechta Guetar",
        "children": [
            
        ]
    },
    {
        "geonameId": 2489505,
        "name": "Mechta Khelifat",
        "children": [
            
        ]
    },
    {
        "geonameId": 2489493,
        "name": "Mechta Ksir",
        "children": [
            
        ]
    },
    {
        "geonameId": 2489478,
        "name": "Mechta Larbaa",
        "children": [
            
        ]
    },
    {
        "geonameId": 2489475,
        "name": "Mechta Layadat",
        "children": [
            
        ]
    },
    {
        "geonameId": 2489464,
        "name": "Mechta Ma\u00effrene",
        "children": [
            
        ]
    },
    {
        "geonameId": 2489438,
        "name": "Mechta Metaoucha",
        "children": [
            
        ]
    },
    {
        "geonameId": 2489414,
        "name": "Mechta Oulad Ahmed",
        "children": [
            
        ]
    },
    {
        "geonameId": 2489402,
        "name": "Mechta Oulad Gassem",
        "children": [
            
        ]
    },
    {
        "geonameId": 2489394,
        "name": "Mechta Oulad Makhlouf",
        "children": [
            
        ]
    },
    {
        "geonameId": 2489350,
        "name": "Mechta Ouled Bou Abdallah",
        "children": [
            
        ]
    },
    {
        "geonameId": 2489344,
        "name": "Mechta Ouled Bou Hariz",
        "children": [
            
        ]
    },
    {
        "geonameId": 2489330,
        "name": "Mechta Ouled La\u00efb",
        "children": [
            
        ]
    },
    {
        "geonameId": 2489324,
        "name": "Mechta Ouled Mehenni",
        "children": [
            
        ]
    },
    {
        "geonameId": 2489306,
        "name": "Mechta Ouled Sidi Yahia",
        "children": [
            
        ]
    },
    {
        "geonameId": 2489291,
        "name": "Mechta Reachla",
        "children": [
            
        ]
    },
    {
        "geonameId": 2489286,
        "name": "Mechta Regraga",
        "children": [
            
        ]
    },
    {
        "geonameId": 2489271,
        "name": "Mechta Rhoder",
        "children": [
            
        ]
    },
    {
        "geonameId": 2489270,
        "name": "Mechta Rirhi",
        "children": [
            
        ]
    },
    {
        "geonameId": 2489263,
        "name": "Mechta Roumi",
        "children": [
            
        ]
    },
    {
        "geonameId": 2489261,
        "name": "Mechta Saad Allah",
        "children": [
            
        ]
    },
    {
        "geonameId": 2489217,
        "name": "Mechta Sidi Sa\u00efd",
        "children": [
            
        ]
    },
    {
        "geonameId": 2489208,
        "name": "Mechta Sommar",
        "children": [
            
        ]
    },
    {
        "geonameId": 2489195,
        "name": "Mechta Tagla\u00eft",
        "children": [
            
        ]
    },
    {
        "geonameId": 2489002,
        "name": "Mechta Tizguine",
        "children": [
            
        ]
    },
    {
        "geonameId": 2488971,
        "name": "Mechta Triouyat",
        "children": [
            
        ]
    },
    {
        "geonameId": 2488945,
        "name": "Mechta Zerba",
        "children": [
            
        ]
    },
    {
        "geonameId": 2489795,
        "name": "Mechta \u2019A\u00efn Meriout",
        "children": [
            
        ]
    },
    {
        "geonameId": 2489804,
        "name": "Mechta \u2019A\u00efn el Mokh",
        "children": [
            
        ]
    },
    {
        "geonameId": 2488990,
        "name": "Mechtat Oulad Saadi",
        "children": [
            
        ]
    },
    {
        "geonameId": 2484672,
        "name": "Mechtat Oum ed Dissa",
        "children": [
            
        ]
    },
    {
        "geonameId": 2488966,
        "name": "Mechtat Sidi el Hadj Ben Rachdi",
        "children": [
            
        ]
    },
    {
        "geonameId": 2489152,
        "name": "Mechtat ech Cheraba",
        "children": [
            
        ]
    },
    {
        "geonameId": 2489136,
        "name": "Mechtat el Amri",
        "children": [
            
        ]
    },
    {
        "geonameId": 2489134,
        "name": "Mechtat el Aouinat",
        "children": [
            
        ]
    },
    {
        "geonameId": 2489125,
        "name": "Mechtat el Bacha",
        "children": [
            
        ]
    },
    {
        "geonameId": 2489109,
        "name": "Mechtat el Firane",
        "children": [
            
        ]
    },
    {
        "geonameId": 2489097,
        "name": "Mechtat el Hadjadj",
        "children": [
            
        ]
    },
    {
        "geonameId": 2489067,
        "name": "Mechtat el Ksob",
        "children": [
            
        ]
    },
    {
        "geonameId": 2489048,
        "name": "Mechtat el Mellez",
        "children": [
            
        ]
    },
    {
        "geonameId": 2489036,
        "name": "Mechtat el Rhirane",
        "children": [
            
        ]
    },
    {
        "geonameId": 2489032,
        "name": "Mechtat er Radj",
        "children": [
            
        ]
    },
    {
        "geonameId": 2489024,
        "name": "Mechtat er Rmel",
        "children": [
            
        ]
    },
    {
        "geonameId": 2570690,
        "name": "Mechtet Chabet Aoun",
        "children": [
            
        ]
    },
    {
        "geonameId": 2570688,
        "name": "Mechtet Ouled Zrir",
        "children": [
            
        ]
    },
    {
        "geonameId": 2570693,
        "name": "Mechtet el Krarrouba",
        "children": [
            
        ]
    },
    {
        "geonameId": 2571208,
        "name": "Mechtet el Megattif",
        "children": [
            
        ]
    },
    {
        "geonameId": 2488793,
        "name": "Medjana",
        "children": [
            
        ]
    },
    {
        "geonameId": 2488774,
        "name": "Medjez",
        "children": [
            
        ]
    },
    {
        "geonameId": 2488604,
        "name": "Meheris",
        "children": [
            
        ]
    },
    {
        "geonameId": 2488202,
        "name": "Melouza",
        "children": [
            
        ]
    },
    {
        "geonameId": 2487346,
        "name": "M\u2019Karta",
        "children": [
            
        ]
    },
    {
        "geonameId": 2486553,
        "name": "M\u2019Zita",
        "children": [
            
        ]
    },
    {
        "geonameId": 2485602,
        "name": "Oued Ksob",
        "children": [
            
        ]
    },
    {
        "geonameId": 2485362,
        "name": "Oulad Atmane",
        "children": [
            
        ]
    },
    {
        "geonameId": 2485412,
        "name": "Oulad A\u00efcha",
        "children": [
            
        ]
    },
    {
        "geonameId": 2485260,
        "name": "Oulad Hamdane",
        "children": [
            
        ]
    },
    {
        "geonameId": 2485255,
        "name": "Oulad Hassine",
        "children": [
            
        ]
    },
    {
        "geonameId": 2485226,
        "name": "Oulad Mahamel",
        "children": [
            
        ]
    },
    {
        "geonameId": 2485225,
        "name": "Oulad Mahdi",
        "children": [
            
        ]
    },
    {
        "geonameId": 2485193,
        "name": "Oulad Moussa",
        "children": [
            
        ]
    },
    {
        "geonameId": 2485173,
        "name": "Oulad Rached",
        "children": [
            
        ]
    },
    {
        "geonameId": 2485096,
        "name": "Oulad Yakoub",
        "children": [
            
        ]
    },
    {
        "geonameId": 2485048,
        "name": "Ouled Agla",
        "children": [
            
        ]
    },
    {
        "geonameId": 2484765,
        "name": "Ouled Za\u00efd",
        "children": [
            
        ]
    },
    {
        "geonameId": 2484177,
        "name": "Portes de Fer",
        "children": [
            
        ]
    },
    {
        "geonameId": 2484152,
        "name": "Rabta",
        "children": [
            
        ]
    },
    {
        "geonameId": 2483936,
        "name": "R\u00e2s el Oued",
        "children": [
            
        ]
    },
    {
        "geonameId": 2483007,
        "name": "R\u2019Mila",
        "children": [
            
        ]
    },
    {
        "geonameId": 2482091,
        "name": "Sedrata",
        "children": [
            
        ]
    },
    {
        "geonameId": 2481963,
        "name": "Sekhanine",
        "children": [
            
        ]
    },
    {
        "geonameId": 2481282,
        "name": "Sidi Ahmed Ben Slimane",
        "children": [
            
        ]
    },
    {
        "geonameId": 2480773,
        "name": "Sidi Bou Sa\u00efd",
        "children": [
            
        ]
    },
    {
        "geonameId": 2480479,
        "name": "Sidi Embarek",
        "children": [
            
        ]
    },
    {
        "geonameId": 2593174,
        "name": "Sidi Slimone",
        "children": [
            
        ]
    },
    {
        "geonameId": 2479689,
        "name": "Sidi Yahia Ben Salem",
        "children": [
            
        ]
    },
    {
        "geonameId": 2478678,
        "name": "Tagounit",
        "children": [
            
        ]
    },
    {
        "geonameId": 2477657,
        "name": "Tassamert",
        "children": [
            
        ]
    },
    {
        "geonameId": 2477633,
        "name": "Tassera",
        "children": [
            
        ]
    },
    {
        "geonameId": 2477517,
        "name": "Tazrout",
        "children": [
            
        ]
    },
    {
        "geonameId": 2475806,
        "name": "Tixter",
        "children": [
            
        ]
    },
    {
        "geonameId": 2475510,
        "name": "Toubou",
        "children": [
            
        ]
    },
    {
        "geonameId": 2475339,
        "name": "Toumella",
        "children": [
            
        ]
    },
    {
        "geonameId": 2474598,
        "name": "Zennouna",
        "children": [
            
        ]
    },
    {
        "geonameId": 2508279,
        "name": "\u2018A\u00efn Ben A\u00efed",
        "children": [
            
        ]
    },
    {
        "geonameId": 2508258,
        "name": "\u2019A\u00efn Bourdeche",
        "children": [
            
        ]
    },
    {
        "geonameId": 2508240,
        "name": "\u2019A\u00efn Chouarh",
        "children": [
            
        ]
    },
    {
        "geonameId": 2508229,
        "name": "\u2019A\u00efn Defla",
        "children": [
            
        ]
    },
    {
        "geonameId": 2508011,
        "name": "\u2019A\u00efn Melsa",
        "children": [
            
        ]
    },
    {
        "geonameId": 2508006,
        "name": "\u2019A\u00efn Messaoud",
        "children": [
            
        ]
    },
    {
        "geonameId": 2507918,
        "name": "\u2019A\u00efn Taghrout",
        "children": [
            
        ]
    },
    {
        "geonameId": 2507865,
        "name": "\u2019A\u00efn Zada",
        "children": [
            
        ]
    }
]