[
    {
        "geonameId": 2509252,
        "name": "Abbachene",
        "children": [
            
        ]
    },
    {
        "geonameId": 2509143,
        "name": "Abe\u00efd",
        "children": [
            
        ]
    },
    {
        "geonameId": 2508992,
        "name": "Achelouf",
        "children": [
            
        ]
    },
    {
        "geonameId": 2508924,
        "name": "Adekar Kebouche",
        "children": [
            
        ]
    },
    {
        "geonameId": 2508905,
        "name": "Adeyane",
        "children": [
            
        ]
    },
    {
        "geonameId": 2508806,
        "name": "Adrar Farnou",
        "children": [
            
        ]
    },
    {
        "geonameId": 2508759,
        "name": "Affirou",
        "children": [
            
        ]
    },
    {
        "geonameId": 2508638,
        "name": "Agourbi",
        "children": [
            
        ]
    },
    {
        "geonameId": 2508603,
        "name": "Aguemoun",
        "children": [
            
        ]
    },
    {
        "geonameId": 2508599,
        "name": "Aguemoun Ta\u00efda",
        "children": [
            
        ]
    },
    {
        "geonameId": 2508600,
        "name": "Aguemoun-n-A\u00eft A\u00efssa",
        "children": [
            
        ]
    },
    {
        "geonameId": 2508598,
        "name": "Aguemount-n-A\u00eft Amar",
        "children": [
            
        ]
    },
    {
        "geonameId": 2508403,
        "name": "Ahourir",
        "children": [
            
        ]
    },
    {
        "geonameId": 2565032,
        "name": "Ahrzerouftis",
        "children": [
            
        ]
    },
    {
        "geonameId": 2507679,
        "name": "Akabiou",
        "children": [
            
        ]
    },
    {
        "geonameId": 2507646,
        "name": "Akbou",
        "children": [
            
        ]
    },
    {
        "geonameId": 2507640,
        "name": "Akbouch",
        "children": [
            
        ]
    },
    {
        "geonameId": 2507566,
        "name": "Akourma",
        "children": [
            
        ]
    },
    {
        "geonameId": 2507410,
        "name": "Ali Ou Mohammed",
        "children": [
            
        ]
    },
    {
        "geonameId": 2507413,
        "name": "Aliouene",
        "children": [
            
        ]
    },
    {
        "geonameId": 2507341,
        "name": "Amadene Foukam",
        "children": [
            
        ]
    },
    {
        "geonameId": 2507331,
        "name": "Amagaz",
        "children": [
            
        ]
    },
    {
        "geonameId": 2507323,
        "name": "Amalou",
        "children": [
            
        ]
    },
    {
        "geonameId": 2507322,
        "name": "Amalou",
        "children": [
            
        ]
    },
    {
        "geonameId": 2507218,
        "name": "Amerzoug",
        "children": [
            
        ]
    },
    {
        "geonameId": 2507169,
        "name": "Amizour",
        "children": [
            
        ]
    },
    {
        "geonameId": 2507076,
        "name": "Amsioun",
        "children": [
            
        ]
    },
    {
        "geonameId": 2507037,
        "name": "Andri\u00e8che",
        "children": [
            
        ]
    },
    {
        "geonameId": 2506939,
        "name": "Aokas",
        "children": [
            
        ]
    },
    {
        "geonameId": 2506660,
        "name": "Arassa",
        "children": [
            
        ]
    },
    {
        "geonameId": 2506631,
        "name": "Arbala",
        "children": [
            
        ]
    },
    {
        "geonameId": 2506312,
        "name": "Asloun",
        "children": [
            
        ]
    },
    {
        "geonameId": 2506228,
        "name": "Assoumat",
        "children": [
            
        ]
    },
    {
        "geonameId": 2506214,
        "name": "Atalla",
        "children": [
            
        ]
    },
    {
        "geonameId": 2505973,
        "name": "Azib Aboudaou",
        "children": [
            
        ]
    },
    {
        "geonameId": 2505968,
        "name": "Azib Takhlicht",
        "children": [
            
        ]
    },
    {
        "geonameId": 2505924,
        "name": "Azrou Bou Ammar",
        "children": [
            
        ]
    },
    {
        "geonameId": 2508332,
        "name": "A\u00efdriss",
        "children": [
            
        ]
    },
    {
        "geonameId": 2507798,
        "name": "A\u00eft Abdallah",
        "children": [
            
        ]
    },
    {
        "geonameId": 2507787,
        "name": "A\u00eft A\u00efssi",
        "children": [
            
        ]
    },
    {
        "geonameId": 2507766,
        "name": "A\u00eft Bou Ziit",
        "children": [
            
        ]
    },
    {
        "geonameId": 2507741,
        "name": "A\u00eft Ikhlef",
        "children": [
            
        ]
    },
    {
        "geonameId": 2507732,
        "name": "A\u00eft Maamar",
        "children": [
            
        ]
    },
    {
        "geonameId": 2507727,
        "name": "A\u00eft Menndil",
        "children": [
            
        ]
    },
    {
        "geonameId": 2507711,
        "name": "A\u00eft Ou Yaya",
        "children": [
            
        ]
    },
    {
        "geonameId": 2507706,
        "name": "A\u00eft Saada",
        "children": [
            
        ]
    },
    {
        "geonameId": 2507704,
        "name": "A\u00eft Sa\u00efd",
        "children": [
            
        ]
    },
    {
        "geonameId": 2507697,
        "name": "A\u00eft Sma\u00efl",
        "children": [
            
        ]
    },
    {
        "geonameId": 2505651,
        "name": "Barbacha",
        "children": [
            
        ]
    },
    {
        "geonameId": 2505556,
        "name": "Bayou",
        "children": [
            
        ]
    },
    {
        "geonameId": 2505236,
        "name": "Bel Ayel",
        "children": [
            
        ]
    },
    {
        "geonameId": 2504490,
        "name": "Ben Mannsour",
        "children": [
            
        ]
    },
    {
        "geonameId": 2504750,
        "name": "Beni Abdallah",
        "children": [
            
        ]
    },
    {
        "geonameId": 2504705,
        "name": "Beni Dja\u2019\u00e2d",
        "children": [
            
        ]
    },
    {
        "geonameId": 2504700,
        "name": "Beni Embarek",
        "children": [
            
        ]
    },
    {
        "geonameId": 2504688,
        "name": "Beni Guenndourz",
        "children": [
            
        ]
    },
    {
        "geonameId": 2504657,
        "name": "Beni Kati",
        "children": [
            
        ]
    },
    {
        "geonameId": 2504595,
        "name": "Beni Ouidene",
        "children": [
            
        ]
    },
    {
        "geonameId": 2504199,
        "name": "Berdoun",
        "children": [
            
        ]
    },
    {
        "geonameId": 2504150,
        "name": "Bermafou",
        "children": [
            
        ]
    },
    {
        "geonameId": 2503971,
        "name": "Bezit",
        "children": [
            
        ]
    },
    {
        "geonameId": 2503948,
        "name": "Bicher",
        "children": [
            
        ]
    },
    {
        "geonameId": 2503571,
        "name": "Bou Abed",
        "children": [
            
        ]
    },
    {
        "geonameId": 2503541,
        "name": "Bou A\u00efch",
        "children": [
            
        ]
    },
    {
        "geonameId": 2503412,
        "name": "Bou Beker",
        "children": [
            
        ]
    },
    {
        "geonameId": 2503406,
        "name": "Bou Berka",
        "children": [
            
        ]
    },
    {
        "geonameId": 2503306,
        "name": "Bou Daoud",
        "children": [
            
        ]
    },
    {
        "geonameId": 2503039,
        "name": "Bou Hamza",
        "children": [
            
        ]
    },
    {
        "geonameId": 2503014,
        "name": "Bou Hatem",
        "children": [
            
        ]
    },
    {
        "geonameId": 2502610,
        "name": "Bou Moussa",
        "children": [
            
        ]
    },
    {
        "geonameId": 2502606,
        "name": "Bou Mraou",
        "children": [
            
        ]
    },
    {
        "geonameId": 2502599,
        "name": "Bou Msedene",
        "children": [
            
        ]
    },
    {
        "geonameId": 2502587,
        "name": "Bou Na\u00efm",
        "children": [
            
        ]
    },
    {
        "geonameId": 2502488,
        "name": "Bou Rerda",
        "children": [
            
        ]
    },
    {
        "geonameId": 2503379,
        "name": "Bouchakfa",
        "children": [
            
        ]
    },
    {
        "geonameId": 2502803,
        "name": "Boukhralfa",
        "children": [
            
        ]
    },
    {
        "geonameId": 2502779,
        "name": "Bouktene",
        "children": [
            
        ]
    },
    {
        "geonameId": 2502777,
        "name": "Bouktone",
        "children": [
            
        ]
    },
    {
        "geonameId": 2502582,
        "name": "Bounda Serhira",
        "children": [
            
        ]
    },
    {
        "geonameId": 2502583,
        "name": "Bounda el Kebira",
        "children": [
            
        ]
    },
    {
        "geonameId": 2505329,
        "name": "B\u00e9ja\u00efa",
        "children": [
            {
                "geonameId": 2501956,
                "name": "Camp Inf\u00e9rieur",
                "children": [
                    
                ]
            }
        ]
    },
    {
        "geonameId": 2500863,
        "name": "Darguinah",
        "children": [
            
        ]
    },
    {
        "geonameId": 2499889,
        "name": "Djenane",
        "children": [
            
        ]
    },
    {
        "geonameId": 2498419,
        "name": "El Djenene",
        "children": [
            
        ]
    },
    {
        "geonameId": 2498367,
        "name": "El Felaye",
        "children": [
            
        ]
    },
    {
        "geonameId": 2498196,
        "name": "El Hadabbab",
        "children": [
            
        ]
    },
    {
        "geonameId": 2498101,
        "name": "El Hamman",
        "children": [
            
        ]
    },
    {
        "geonameId": 2497910,
        "name": "El Kharro\u00fbb",
        "children": [
            
        ]
    },
    {
        "geonameId": 2497796,
        "name": "El Kseur",
        "children": [
            
        ]
    },
    {
        "geonameId": 2497728,
        "name": "El Ma\u00efn",
        "children": [
            
        ]
    },
    {
        "geonameId": 2497584,
        "name": "El Mennchar",
        "children": [
            
        ]
    },
    {
        "geonameId": 2496573,
        "name": "Feraoun",
        "children": [
            
        ]
    },
    {
        "geonameId": 2496129,
        "name": "Gantas",
        "children": [
            
        ]
    },
    {
        "geonameId": 2495591,
        "name": "Guemoun",
        "children": [
            
        ]
    },
    {
        "geonameId": 2495572,
        "name": "Guendouz",
        "children": [
            
        ]
    },
    {
        "geonameId": 2494686,
        "name": "Hamda",
        "children": [
            
        ]
    },
    {
        "geonameId": 2494394,
        "name": "Handis",
        "children": [
            
        ]
    },
    {
        "geonameId": 2493722,
        "name": "Ibouhathmane",
        "children": [
            
        ]
    },
    {
        "geonameId": 2493577,
        "name": "Ihaddadem",
        "children": [
            
        ]
    },
    {
        "geonameId": 2493569,
        "name": "Iha\u00efonnene",
        "children": [
            
        ]
    },
    {
        "geonameId": 2493452,
        "name": "Il Matene",
        "children": [
            
        ]
    },
    {
        "geonameId": 2493375,
        "name": "Immoula",
        "children": [
            
        ]
    },
    {
        "geonameId": 2493110,
        "name": "Irhil Emda",
        "children": [
            
        ]
    },
    {
        "geonameId": 2493098,
        "name": "Irhil Merzoug",
        "children": [
            
        ]
    },
    {
        "geonameId": 2493094,
        "name": "Irhil Ollouanene",
        "children": [
            
        ]
    },
    {
        "geonameId": 2493093,
        "name": "Irhil Ouandtar",
        "children": [
            
        ]
    },
    {
        "geonameId": 2493091,
        "name": "Irhil Oumelloulene",
        "children": [
            
        ]
    },
    {
        "geonameId": 2493088,
        "name": "Irhil Ouznag",
        "children": [
            
        ]
    },
    {
        "geonameId": 2493077,
        "name": "Irhzer Ou Ftis",
        "children": [
            
        ]
    },
    {
        "geonameId": 2493061,
        "name": "Irouflene",
        "children": [
            
        ]
    },
    {
        "geonameId": 2492437,
        "name": "Kembita",
        "children": [
            
        ]
    },
    {
        "geonameId": 2492101,
        "name": "Khankhoun",
        "children": [
            
        ]
    },
    {
        "geonameId": 2491776,
        "name": "Kherrata",
        "children": [
            
        ]
    },
    {
        "geonameId": 2490456,
        "name": "Mahfouda",
        "children": [
            
        ]
    },
    {
        "geonameId": 2490294,
        "name": "Maksene",
        "children": [
            
        ]
    },
    {
        "geonameId": 2490187,
        "name": "Mansouga Iamarene",
        "children": [
            
        ]
    },
    {
        "geonameId": 2490173,
        "name": "Manzekouane",
        "children": [
            
        ]
    },
    {
        "geonameId": 2489820,
        "name": "Mechta A\u00efna",
        "children": [
            
        ]
    },
    {
        "geonameId": 2489697,
        "name": "Mechta Bou Amrane",
        "children": [
            
        ]
    },
    {
        "geonameId": 2489594,
        "name": "Mechta Dria Romane",
        "children": [
            
        ]
    },
    {
        "geonameId": 2489533,
        "name": "Mechta Irhil Sadaoud",
        "children": [
            
        ]
    },
    {
        "geonameId": 2489365,
        "name": "Mechta Ouled Ahmar",
        "children": [
            
        ]
    },
    {
        "geonameId": 2488943,
        "name": "Mechta Ziane",
        "children": [
            
        ]
    },
    {
        "geonameId": 2488276,
        "name": "Melekhiaz",
        "children": [
            
        ]
    },
    {
        "geonameId": 2487550,
        "name": "Mezgoug",
        "children": [
            
        ]
    },
    {
        "geonameId": 2487520,
        "name": "Mezrareg",
        "children": [
            
        ]
    },
    {
        "geonameId": 2487407,
        "name": "Minndjou",
        "children": [
            
        ]
    },
    {
        "geonameId": 2487005,
        "name": "Mouka",
        "children": [
            
        ]
    },
    {
        "geonameId": 2486798,
        "name": "Mrah",
        "children": [
            
        ]
    },
    {
        "geonameId": 2486558,
        "name": "Mzid",
        "children": [
            
        ]
    },
    {
        "geonameId": 2486552,
        "name": "Mzita",
        "children": [
            
        ]
    },
    {
        "geonameId": 2486729,
        "name": "M\u2019Sbah",
        "children": [
            
        ]
    },
    {
        "geonameId": 2486410,
        "name": "N\u2019A\u00eft Hamouda",
        "children": [
            
        ]
    },
    {
        "geonameId": 2485729,
        "name": "Ouchanene",
        "children": [
            
        ]
    },
    {
        "geonameId": 2485659,
        "name": "Oued Bel Kassem",
        "children": [
            
        ]
    },
    {
        "geonameId": 2485613,
        "name": "Oued Ghir",
        "children": [
            
        ]
    },
    {
        "geonameId": 2485458,
        "name": "Ouizrane",
        "children": [
            
        ]
    },
    {
        "geonameId": 2485420,
        "name": "Oulad Ahmed",
        "children": [
            
        ]
    },
    {
        "geonameId": 2485410,
        "name": "Oulad A\u00efed",
        "children": [
            
        ]
    },
    {
        "geonameId": 2485405,
        "name": "Oulad A\u00efssa",
        "children": [
            
        ]
    },
    {
        "geonameId": 2485349,
        "name": "Oulad Beltsa",
        "children": [
            
        ]
    },
    {
        "geonameId": 2485317,
        "name": "Oulad Bou Renane",
        "children": [
            
        ]
    },
    {
        "geonameId": 2485236,
        "name": "Oulad Laag",
        "children": [
            
        ]
    },
    {
        "geonameId": 2485217,
        "name": "Oulad M\u2019Barek",
        "children": [
            
        ]
    },
    {
        "geonameId": 2485174,
        "name": "Oulad Rached",
        "children": [
            
        ]
    },
    {
        "geonameId": 2485108,
        "name": "Oulad Ta\u00efssiout",
        "children": [
            
        ]
    },
    {
        "geonameId": 2485271,
        "name": "Oulad er Rouni",
        "children": [
            
        ]
    },
    {
        "geonameId": 2484399,
        "name": "Oundadja",
        "children": [
            
        ]
    },
    {
        "geonameId": 2482159,
        "name": "Seddouk",
        "children": [
            
        ]
    },
    {
        "geonameId": 2482156,
        "name": "Seddouk Oufella",
        "children": [
            
        ]
    },
    {
        "geonameId": 2481881,
        "name": "Semaoune",
        "children": [
            
        ]
    },
    {
        "geonameId": 2481256,
        "name": "Sidi A\u00efch",
        "children": [
            
        ]
    },
    {
        "geonameId": 2479196,
        "name": "Souk et Tenine",
        "children": [
            
        ]
    },
    {
        "geonameId": 2479052,
        "name": "Taarkant",
        "children": [
            
        ]
    },
    {
        "geonameId": 2478677,
        "name": "Tagounit Irhil",
        "children": [
            
        ]
    },
    {
        "geonameId": 2478435,
        "name": "Takhlijt",
        "children": [
            
        ]
    },
    {
        "geonameId": 2478434,
        "name": "Takhlijt-n-Tasga",
        "children": [
            
        ]
    },
    {
        "geonameId": 2478298,
        "name": "Talendjast",
        "children": [
            
        ]
    },
    {
        "geonameId": 2478073,
        "name": "Tamokra",
        "children": [
            
        ]
    },
    {
        "geonameId": 2477910,
        "name": "Taourirt",
        "children": [
            
        ]
    },
    {
        "geonameId": 2477895,
        "name": "Taourirt Ighil",
        "children": [
            
        ]
    },
    {
        "geonameId": 2477882,
        "name": "Taourmit",
        "children": [
            
        ]
    },
    {
        "geonameId": 2477669,
        "name": "Taskriout",
        "children": [
            
        ]
    },
    {
        "geonameId": 2477561,
        "name": "Tazemourt",
        "children": [
            
        ]
    },
    {
        "geonameId": 2477541,
        "name": "Tazla",
        "children": [
            
        ]
    },
    {
        "geonameId": 2477516,
        "name": "Tazrout",
        "children": [
            
        ]
    },
    {
        "geonameId": 2477414,
        "name": "Tedert Amokrane",
        "children": [
            
        ]
    },
    {
        "geonameId": 2477252,
        "name": "Telesla",
        "children": [
            
        ]
    },
    {
        "geonameId": 2477218,
        "name": "Teluetane",
        "children": [
            
        ]
    },
    {
        "geonameId": 2477113,
        "name": "Teniet en Nasr",
        "children": [
            
        ]
    },
    {
        "geonameId": 2477079,
        "name": "Tensaout",
        "children": [
            
        ]
    },
    {
        "geonameId": 2477041,
        "name": "Tergregt",
        "children": [
            
        ]
    },
    {
        "geonameId": 2476900,
        "name": "Tiahma\u00efne",
        "children": [
            
        ]
    },
    {
        "geonameId": 2476861,
        "name": "Tibouamouchine",
        "children": [
            
        ]
    },
    {
        "geonameId": 2476853,
        "name": "Tichi",
        "children": [
            
        ]
    },
    {
        "geonameId": 2476725,
        "name": "Tifra",
        "children": [
            
        ]
    },
    {
        "geonameId": 2476715,
        "name": "Tifrit",
        "children": [
            
        ]
    },
    {
        "geonameId": 2476714,
        "name": "Tifritine",
        "children": [
            
        ]
    },
    {
        "geonameId": 2476695,
        "name": "Tigoudiouine",
        "children": [
            
        ]
    },
    {
        "geonameId": 2476574,
        "name": "Tiksarine",
        "children": [
            
        ]
    },
    {
        "geonameId": 2476269,
        "name": "Tinebdar",
        "children": [
            
        ]
    },
    {
        "geonameId": 2476188,
        "name": "Tiniri",
        "children": [
            
        ]
    },
    {
        "geonameId": 2475989,
        "name": "Tirdiouine",
        "children": [
            
        ]
    },
    {
        "geonameId": 2475949,
        "name": "Tirhilt Makhlouf",
        "children": [
            
        ]
    },
    {
        "geonameId": 2475948,
        "name": "Tirhilt-n-A\u00eft Ziane",
        "children": [
            
        ]
    },
    {
        "geonameId": 2475787,
        "name": "Tizert",
        "children": [
            
        ]
    },
    {
        "geonameId": 2475776,
        "name": "Tizi Ahmed",
        "children": [
            
        ]
    },
    {
        "geonameId": 2475746,
        "name": "Tizi Ou Ferdinis",
        "children": [
            
        ]
    },
    {
        "geonameId": 2475750,
        "name": "Tizi Ouaklene",
        "children": [
            
        ]
    },
    {
        "geonameId": 2475732,
        "name": "Tizi Tifra",
        "children": [
            
        ]
    },
    {
        "geonameId": 2475758,
        "name": "Tizi-n-Bechar",
        "children": [
            
        ]
    },
    {
        "geonameId": 2475755,
        "name": "Tizi-n-Djebar",
        "children": [
            
        ]
    },
    {
        "geonameId": 2475726,
        "name": "Tizouiar",
        "children": [
            
        ]
    },
    {
        "geonameId": 2475502,
        "name": "Toudja",
        "children": [
            
        ]
    },
    {
        "geonameId": 2475487,
        "name": "Touffirt",
        "children": [
            
        ]
    },
    {
        "geonameId": 2475071,
        "name": "Yachourene",
        "children": [
            
        ]
    },
    {
        "geonameId": 2474423,
        "name": "Ziama Mansouria",
        "children": [
            
        ]
    },
    {
        "geonameId": 2474387,
        "name": "Zina",
        "children": [
            
        ]
    },
    {
        "geonameId": 2474178,
        "name": "Zraoui",
        "children": [
            
        ]
    },
    {
        "geonameId": 2476412,
        "name": "el hed",
        "children": [
            
        ]
    }
]