[
    {
        "geonameId": 2508670,
        "name": "Aghlal",
        "children": [
            
        ]
    },
    {
        "geonameId": 2508538,
        "name": "Ahl Bel Hadri",
        "children": [
            
        ]
    },
    {
        "geonameId": 2506910,
        "name": "Aoubellil",
        "children": [
            
        ]
    },
    {
        "geonameId": 2508301,
        "name": "A\u00efn Allem",
        "children": [
            
        ]
    },
    {
        "geonameId": 2505178,
        "name": "Bel Hadri",
        "children": [
            
        ]
    },
    {
        "geonameId": 2504587,
        "name": "Beni Rhanane",
        "children": [
            
        ]
    },
    {
        "geonameId": 2504581,
        "name": "Beni Saf",
        "children": [
            
        ]
    },
    {
        "geonameId": 2499228,
        "name": "Beni Zhana",
        "children": [
            
        ]
    },
    {
        "geonameId": 2502183,
        "name": "Bou Zadjar",
        "children": [
            
        ]
    },
    {
        "geonameId": 2501934,
        "name": "Chaabat el Leham",
        "children": [
            
        ]
    },
    {
        "geonameId": 2501607,
        "name": "Chehabna",
        "children": [
            
        ]
    },
    {
        "geonameId": 2501266,
        "name": "Choualia Fouaga",
        "children": [
            
        ]
    },
    {
        "geonameId": 2500830,
        "name": "Dar Sidi Mohammed Bou Azza",
        "children": [
            
        ]
    },
    {
        "geonameId": 2500315,
        "name": "Djafra",
        "children": [
            
        ]
    },
    {
        "geonameId": 2593165,
        "name": "Domaine d\u2019Arbal",
        "children": [
            
        ]
    },
    {
        "geonameId": 2499543,
        "name": "Douar Ahl Brada\u00ef",
        "children": [
            
        ]
    },
    {
        "geonameId": 2499539,
        "name": "Douar Ahl Kaddo\u00fbr",
        "children": [
            
        ]
    },
    {
        "geonameId": 2499538,
        "name": "Douar Ahmadouch",
        "children": [
            
        ]
    },
    {
        "geonameId": 2499527,
        "name": "Douar Baddaou",
        "children": [
            
        ]
    },
    {
        "geonameId": 2499493,
        "name": "Douar Chafaa",
        "children": [
            
        ]
    },
    {
        "geonameId": 2499492,
        "name": "Douar Cha\u00efba",
        "children": [
            
        ]
    },
    {
        "geonameId": 2499487,
        "name": "Douar Chenntouf",
        "children": [
            
        ]
    },
    {
        "geonameId": 2499384,
        "name": "Douar Guitna el Hena\u00efna",
        "children": [
            
        ]
    },
    {
        "geonameId": 2499366,
        "name": "Douar Kouasmia",
        "children": [
            
        ]
    },
    {
        "geonameId": 2499362,
        "name": "Douar Lah el Cadi",
        "children": [
            
        ]
    },
    {
        "geonameId": 2499358,
        "name": "Douar Magra",
        "children": [
            
        ]
    },
    {
        "geonameId": 2499334,
        "name": "Douar Moulay Mostafa",
        "children": [
            
        ]
    },
    {
        "geonameId": 2499314,
        "name": "Douar Oulad Djbara",
        "children": [
            
        ]
    },
    {
        "geonameId": 2499312,
        "name": "Douar Oulad et Taoui",
        "children": [
            
        ]
    },
    {
        "geonameId": 2499271,
        "name": "Douar Ouled el K\u00eehel",
        "children": [
            
        ]
    },
    {
        "geonameId": 2499229,
        "name": "Douar Sidi Hosse\u00efn",
        "children": [
            
        ]
    },
    {
        "geonameId": 2499208,
        "name": "Douar Tounnit",
        "children": [
            
        ]
    },
    {
        "geonameId": 2499476,
        "name": "Douar des Zenakra",
        "children": [
            
        ]
    },
    {
        "geonameId": 2499466,
        "name": "Douar ech Chefafrh",
        "children": [
            
        ]
    },
    {
        "geonameId": 2499453,
        "name": "Douar el Baalcha",
        "children": [
            
        ]
    },
    {
        "geonameId": 2499442,
        "name": "Douar el Gra\u00efiya",
        "children": [
            
        ]
    },
    {
        "geonameId": 2499427,
        "name": "Douar el Kheda\u00efda",
        "children": [
            
        ]
    },
    {
        "geonameId": 2499425,
        "name": "Douar el Khouamliya",
        "children": [
            
        ]
    },
    {
        "geonameId": 2499412,
        "name": "Douar el Msaada",
        "children": [
            
        ]
    },
    {
        "geonameId": 2499411,
        "name": "Douar el Msa\u00efd",
        "children": [
            
        ]
    },
    {
        "geonameId": 2499408,
        "name": "Douar el Ounazra",
        "children": [
            
        ]
    },
    {
        "geonameId": 2499405,
        "name": "Douar er Raskaoui",
        "children": [
            
        ]
    },
    {
        "geonameId": 2499403,
        "name": "Douar er Rhehhal",
        "children": [
            
        ]
    },
    {
        "geonameId": 2499402,
        "name": "Douar er Roua\u00efba",
        "children": [
            
        ]
    },
    {
        "geonameId": 2499401,
        "name": "Douar er Roua\u00efba",
        "children": [
            
        ]
    },
    {
        "geonameId": 2498705,
        "name": "El Amri",
        "children": [
            
        ]
    },
    {
        "geonameId": 2498704,
        "name": "El Amria",
        "children": [
            
        ]
    },
    {
        "geonameId": 2497714,
        "name": "El Malah",
        "children": [
            
        ]
    },
    {
        "geonameId": 2495076,
        "name": "Hadja\u00efria",
        "children": [
            
        ]
    },
    {
        "geonameId": 2494676,
        "name": "Hameau de Gata",
        "children": [
            
        ]
    },
    {
        "geonameId": 2494554,
        "name": "Hammam Bou Hadjar",
        "children": [
            {
                "geonameId": 2490940,
                "name": "Le Fer \u00e0 Cheval",
                "children": [
                    
                ]
            }
        ]
    },
    {
        "geonameId": 2494054,
        "name": "Hassi el Ghella",
        "children": [
            
        ]
    },
    {
        "geonameId": 2494855,
        "name": "Ha\u00ef Sidi Sa\u00efd",
        "children": [
            
        ]
    },
    {
        "geonameId": 2492558,
        "name": "Kedadra",
        "children": [
            
        ]
    },
    {
        "geonameId": 2492086,
        "name": "Khaouat",
        "children": [
            
        ]
    },
    {
        "geonameId": 2491056,
        "name": "La Pierre du Chat",
        "children": [
            
        ]
    },
    {
        "geonameId": 2491055,
        "name": "La Pl\u00e2tri\u00e8re",
        "children": [
            
        ]
    },
    {
        "geonameId": 2491160,
        "name": "Lahsa\u00efna",
        "children": [
            
        ]
    },
    {
        "geonameId": 2487660,
        "name": "Metamer Abd el Arbi",
        "children": [
            
        ]
    },
    {
        "geonameId": 2487524,
        "name": "Mezraet ech Chahid Maatallah",
        "children": [
            
        ]
    },
    {
        "geonameId": 2485657,
        "name": "Oued Berkeche",
        "children": [
            
        ]
    },
    {
        "geonameId": 2485577,
        "name": "Oued Sebbah",
        "children": [
            
        ]
    },
    {
        "geonameId": 2485336,
        "name": "Oulad Ben Yo\u00fbssef",
        "children": [
            
        ]
    },
    {
        "geonameId": 2485325,
        "name": "Oulad Bou en Nouar",
        "children": [
            
        ]
    },
    {
        "geonameId": 2485104,
        "name": "Oulad Tirbane",
        "children": [
            
        ]
    },
    {
        "geonameId": 2485278,
        "name": "Oulad el Mdadah",
        "children": [
            
        ]
    },
    {
        "geonameId": 2484198,
        "name": "Plage de Oued el Hallo\u00fbf",
        "children": [
            
        ]
    },
    {
        "geonameId": 2484196,
        "name": "Plage de Sassel",
        "children": [
            
        ]
    },
    {
        "geonameId": 2484194,
        "name": "Plage de Terga",
        "children": [
            
        ]
    },
    {
        "geonameId": 2484145,
        "name": "Rachgoun",
        "children": [
            
        ]
    },
    {
        "geonameId": 2483459,
        "name": "Rh\u00e2r el Baroud",
        "children": [
            
        ]
    },
    {
        "geonameId": 2481021,
        "name": "Sidi Bakhti",
        "children": [
            
        ]
    },
    {
        "geonameId": 2480960,
        "name": "Sidi Ben Adda",
        "children": [
            
        ]
    },
    {
        "geonameId": 2480794,
        "name": "Sidi Boumediene",
        "children": [
            
        ]
    },
    {
        "geonameId": 2479852,
        "name": "Sidi Safi",
        "children": [
            
        ]
    },
    {
        "geonameId": 2479828,
        "name": "Sidi Salah",
        "children": [
            
        ]
    },
    {
        "geonameId": 2479682,
        "name": "Sidi Ya\u2019ko\u00fbb",
        "children": [
            
        ]
    },
    {
        "geonameId": 2593172,
        "name": "Sidi ben Ada",
        "children": [
            
        ]
    },
    {
        "geonameId": 2479479,
        "name": "Smadja",
        "children": [
            
        ]
    },
    {
        "geonameId": 2479194,
        "name": "Souk et Tn\u00eene",
        "children": [
            
        ]
    },
    {
        "geonameId": 2479162,
        "name": "Source Blanche",
        "children": [
            
        ]
    },
    {
        "geonameId": 2478043,
        "name": "Tamzoura",
        "children": [
            
        ]
    },
    {
        "geonameId": 2477047,
        "name": "Terga",
        "children": [
            
        ]
    },
    {
        "geonameId": 2474342,
        "name": "Zitouna",
        "children": [
            
        ]
    },
    {
        "geonameId": 2508037,
        "name": "\u2019A\u00efn Kihal",
        "children": [
            
        ]
    },
    {
        "geonameId": 2507901,
        "name": "\u2019A\u00efn Temouchent",
        "children": [
            
        ]
    },
    {
        "geonameId": 2507887,
        "name": "\u2019A\u00efn Tolba",
        "children": [
            
        ]
    },
    {
        "geonameId": 2508194,
        "name": "\u2019A\u00efn el Arbaa",
        "children": [
            
        ]
    },
    {
        "geonameId": 2508170,
        "name": "\u2019A\u00efn el Bridj",
        "children": [
            
        ]
    }
]