[
    {
        "geonameId": 2509032,
        "name": "Aboud Ben Ayed",
        "children": [
            
        ]
    },
    {
        "geonameId": 2508828,
        "name": "Admer",
        "children": [
            
        ]
    },
    {
        "geonameId": 2508813,
        "name": "Adrar",
        "children": [
            
        ]
    },
    {
        "geonameId": 2508762,
        "name": "Affar",
        "children": [
            
        ]
    },
    {
        "geonameId": 2507678,
        "name": "Akabli",
        "children": [
            
        ]
    },
    {
        "geonameId": 2507639,
        "name": "Akbour",
        "children": [
            
        ]
    },
    {
        "geonameId": 2507546,
        "name": "Albani",
        "children": [
            
        ]
    },
    {
        "geonameId": 2507391,
        "name": "Allamellal Sidi Cherif",
        "children": [
            
        ]
    },
    {
        "geonameId": 2507363,
        "name": "Allouchia",
        "children": [
            
        ]
    },
    {
        "geonameId": 2507011,
        "name": "Anguellou",
        "children": [
            
        ]
    },
    {
        "geonameId": 2506941,
        "name": "Anzeglouf",
        "children": [
            
        ]
    },
    {
        "geonameId": 2506942,
        "name": "Anzeglouf",
        "children": [
            
        ]
    },
    {
        "geonameId": 2506851,
        "name": "Aougrout",
        "children": [
            
        ]
    },
    {
        "geonameId": 2506795,
        "name": "Aoulef",
        "children": [
            {
                "geonameId": 2498953,
                "name": "Ech Cheurfa",
                "children": [
                    
                ]
            },
            {
                "geonameId": 2498660,
                "name": "El Arab",
                "children": [
                    
                ]
            }
        ]
    },
    {
        "geonameId": 2506754,
        "name": "Aourir Akbour",
        "children": [
            
        ]
    },
    {
        "geonameId": 2506531,
        "name": "Arhil",
        "children": [
            
        ]
    },
    {
        "geonameId": 2506529,
        "name": "Arhlad",
        "children": [
            
        ]
    },
    {
        "geonameId": 2506514,
        "name": "Ariane er R\ufffd\ufffds",
        "children": [
            
        ]
    },
    {
        "geonameId": 2506030,
        "name": "Azekkour",
        "children": [
            
        ]
    },
    {
        "geonameId": 2505955,
        "name": "Azoua",
        "children": [
            
        ]
    },
    {
        "geonameId": 2505668,
        "name": "Ba Messaoud",
        "children": [
            
        ]
    },
    {
        "geonameId": 2505822,
        "name": "Badriane",
        "children": [
            
        ]
    },
    {
        "geonameId": 2505737,
        "name": "Bahmer",
        "children": [
            
        ]
    },
    {
        "geonameId": 2505690,
        "name": "Bakhalla",
        "children": [
            
        ]
    },
    {
        "geonameId": 2504860,
        "name": "Ben Draou",
        "children": [
            
        ]
    },
    {
        "geonameId": 2504760,
        "name": "Ben Henni",
        "children": [
            
        ]
    },
    {
        "geonameId": 2504344,
        "name": "Ben Talah",
        "children": [
            
        ]
    },
    {
        "geonameId": 2504743,
        "name": "Beni A\ufffd\ufffdssi",
        "children": [
            
        ]
    },
    {
        "geonameId": 2504630,
        "name": "Beni Mehlal",
        "children": [
            
        ]
    },
    {
        "geonameId": 2504624,
        "name": "Beni Melouk",
        "children": [
            
        ]
    },
    {
        "geonameId": 2504555,
        "name": "Beni Tamer",
        "children": [
            
        ]
    },
    {
        "geonameId": 2596771,
        "name": "Bordj Badji Mokhtar",
        "children": [
            
        ]
    },
    {
        "geonameId": 2503509,
        "name": "Bou Ali",
        "children": [
            
        ]
    },
    {
        "geonameId": 2503109,
        "name": "Bou Guema",
        "children": [
            
        ]
    },
    {
        "geonameId": 2502192,
        "name": "Bou Yaya",
        "children": [
            
        ]
    },
    {
        "geonameId": 2502161,
        "name": "Bou Zegdad",
        "children": [
            
        ]
    },
    {
        "geonameId": 2503163,
        "name": "Bouffaddi",
        "children": [
            
        ]
    },
    {
        "geonameId": 2502409,
        "name": "Bour Ouled Moussa",
        "children": [
            
        ]
    },
    {
        "geonameId": 2502397,
        "name": "Bour Sidi Youssef",
        "children": [
            
        ]
    },
    {
        "geonameId": 2502177,
        "name": "Bouzane",
        "children": [
            
        ]
    },
    {
        "geonameId": 2502008,
        "name": "Brinkene",
        "children": [
            
        ]
    },
    {
        "geonameId": 2501752,
        "name": "Charouine",
        "children": [
            
        ]
    },
    {
        "geonameId": 2501492,
        "name": "Chenachane",
        "children": [
            
        ]
    },
    {
        "geonameId": 2499688,
        "name": "Djimjane",
        "children": [
            
        ]
    },
    {
        "geonameId": 2498743,
        "name": "El Ahmar",
        "children": [
            
        ]
    },
    {
        "geonameId": 2498549,
        "name": "El Barka",
        "children": [
            
        ]
    },
    {
        "geonameId": 2498428,
        "name": "El Djedid",
        "children": [
            
        ]
    },
    {
        "geonameId": 2498243,
        "name": "El Guerara",
        "children": [
            
        ]
    },
    {
        "geonameId": 2498209,
        "name": "El Habla",
        "children": [
            
        ]
    },
    {
        "geonameId": 2498174,
        "name": "El Hadj Guelmane",
        "children": [
            
        ]
    },
    {
        "geonameId": 2498095,
        "name": "El Hamra",
        "children": [
            
        ]
    },
    {
        "geonameId": 2498152,
        "name": "El Ha\ufffd\ufffdad",
        "children": [
            
        ]
    },
    {
        "geonameId": 2497957,
        "name": "El Kef",
        "children": [
            
        ]
    },
    {
        "geonameId": 2497914,
        "name": "El Khalfi",
        "children": [
            
        ]
    },
    {
        "geonameId": 2497812,
        "name": "El Ksabi",
        "children": [
            
        ]
    },
    {
        "geonameId": 2497798,
        "name": "El Kse\ufffd\ufffdbat",
        "children": [
            
        ]
    },
    {
        "geonameId": 2497704,
        "name": "El Mansour",
        "children": [
            
        ]
    },
    {
        "geonameId": 2497705,
        "name": "El Mansour",
        "children": [
            
        ]
    },
    {
        "geonameId": 2497703,
        "name": "El Mansour",
        "children": [
            
        ]
    },
    {
        "geonameId": 2497726,
        "name": "El Ma\ufffd\ufffdz",
        "children": [
            
        ]
    },
    {
        "geonameId": 2497592,
        "name": "El Menassir",
        "children": [
            
        ]
    },
    {
        "geonameId": 2496757,
        "name": "Fatis",
        "children": [
            
        ]
    },
    {
        "geonameId": 2496587,
        "name": "Fenoughil",
        "children": [
            
        ]
    },
    {
        "geonameId": 2496574,
        "name": "Feraoun",
        "children": [
            
        ]
    },
    {
        "geonameId": 2496307,
        "name": "Foum el Kheneg",
        "children": [
            
        ]
    },
    {
        "geonameId": 2493268,
        "name": "I-n- Hamou",
        "children": [
            
        ]
    },
    {
        "geonameId": 2493317,
        "name": "I-n-Belbel",
        "children": [
            
        ]
    },
    {
        "geonameId": 2493228,
        "name": "I-n-Rhar",
        "children": [
            
        ]
    },
    {
        "geonameId": 8425996,
        "name": "I-n-khalil",
        "children": [
            
        ]
    },
    {
        "geonameId": 2493596,
        "name": "Igosten",
        "children": [
            
        ]
    },
    {
        "geonameId": 2493508,
        "name": "Ikkas",
        "children": [
            
        ]
    },
    {
        "geonameId": 2493081,
        "name": "Irhzer",
        "children": [
            
        ]
    },
    {
        "geonameId": 2492894,
        "name": "Kabertene",
        "children": [
            
        ]
    },
    {
        "geonameId": 2492776,
        "name": "Kali",
        "children": [
            
        ]
    },
    {
        "geonameId": 2491924,
        "name": "Khemara",
        "children": [
            
        ]
    },
    {
        "geonameId": 2491436,
        "name": "Kousan",
        "children": [
            
        ]
    },
    {
        "geonameId": 2491320,
        "name": "Ksar el Hadj",
        "children": [
            
        ]
    },
    {
        "geonameId": 2491315,
        "name": "Ksar el Oustani",
        "children": [
            
        ]
    },
    {
        "geonameId": 2490813,
        "name": "Lichta",
        "children": [
            
        ]
    },
    {
        "geonameId": 2490445,
        "name": "Mahidia",
        "children": [
            
        ]
    },
    {
        "geonameId": 2490223,
        "name": "Mamoura",
        "children": [
            
        ]
    },
    {
        "geonameId": 2490074,
        "name": "Massine",
        "children": [
            
        ]
    },
    {
        "geonameId": 2490024,
        "name": "Matriouene",
        "children": [
            
        ]
    },
    {
        "geonameId": 2488501,
        "name": "Mekkid",
        "children": [
            
        ]
    },
    {
        "geonameId": 2488207,
        "name": "Melouka",
        "children": [
            
        ]
    },
    {
        "geonameId": 2487648,
        "name": "Metarfa",
        "children": [
            
        ]
    },
    {
        "geonameId": 2487426,
        "name": "Mimoum",
        "children": [
            
        ]
    },
    {
        "geonameId": 2486077,
        "name": "Noum en Nass",
        "children": [
            
        ]
    },
    {
        "geonameId": 2485875,
        "name": "Ouadjda",
        "children": [
            
        ]
    },
    {
        "geonameId": 2485850,
        "name": "Ouallene",
        "children": [
            
        ]
    },
    {
        "geonameId": 2485846,
        "name": "Ouameni Sidi Sa\ufffd\ufffdd",
        "children": [
            
        ]
    },
    {
        "geonameId": 2485668,
        "name": "Oudrharh",
        "children": [
            
        ]
    },
    {
        "geonameId": 2485513,
        "name": "Oufrane",
        "children": [
            
        ]
    },
    {
        "geonameId": 2485467,
        "name": "Ouinna",
        "children": [
            
        ]
    },
    {
        "geonameId": 2485457,
        "name": "Oujlane",
        "children": [
            
        ]
    },
    {
        "geonameId": 2485426,
        "name": "Oulad Abd es Semod",
        "children": [
            
        ]
    },
    {
        "geonameId": 2485386,
        "name": "Oulad Allal",
        "children": [
            
        ]
    },
    {
        "geonameId": 2485366,
        "name": "Oulad Antar",
        "children": [
            
        ]
    },
    {
        "geonameId": 2485415,
        "name": "Oulad A\ufffd\ufffdach",
        "children": [
            
        ]
    },
    {
        "geonameId": 2485409,
        "name": "Oulad A\ufffd\ufffdssa",
        "children": [
            
        ]
    },
    {
        "geonameId": 2485315,
        "name": "Oulad Bou Yahia",
        "children": [
            
        ]
    },
    {
        "geonameId": 2485312,
        "name": "Oulad Brahim",
        "children": [
            
        ]
    },
    {
        "geonameId": 2485224,
        "name": "Oulad Mahmoud",
        "children": [
            
        ]
    },
    {
        "geonameId": 2485209,
        "name": "Oulad Meriem",
        "children": [
            
        ]
    },
    {
        "geonameId": 2485184,
        "name": "Oulad Noun",
        "children": [
            
        ]
    },
    {
        "geonameId": 2485175,
        "name": "Oulad Rached",
        "children": [
            
        ]
    },
    {
        "geonameId": 2485162,
        "name": "Oulad Sa\ufffd\ufffdd",
        "children": [
            
        ]
    },
    {
        "geonameId": 2485280,
        "name": "Oulad el Hadj Bordja",
        "children": [
            
        ]
    },
    {
        "geonameId": 2485275,
        "name": "Oulad el Ouali",
        "children": [
            
        ]
    },
    {
        "geonameId": 2485059,
        "name": "Ouled Abbou Saala",
        "children": [
            
        ]
    },
    {
        "geonameId": 2484439,
        "name": "Oumrad",
        "children": [
            
        ]
    },
    {
        "geonameId": 2483761,
        "name": "Reggane",
        "children": [
            
        ]
    },
    {
        "geonameId": 2483758,
        "name": "Reggane-Plateau",
        "children": [
            
        ]
    },
    {
        "geonameId": 2483432,
        "name": "Rharmianou",
        "children": [
            
        ]
    },
    {
        "geonameId": 2483256,
        "name": "Rhiaf",
        "children": [
            
        ]
    },
    {
        "geonameId": 2483205,
        "name": "Rhnet",
        "children": [
            
        ]
    },
    {
        "geonameId": 2483128,
        "name": "Rhozzi",
        "children": [
            
        ]
    },
    {
        "geonameId": 2482756,
        "name": "Saala",
        "children": [
            
        ]
    },
    {
        "geonameId": 2482428,
        "name": "Sali",
        "children": [
            
        ]
    },
    {
        "geonameId": 2482329,
        "name": "Sbaa",
        "children": [
            
        ]
    },
    {
        "geonameId": 2481600,
        "name": "Sidi Abdallah",
        "children": [
            
        ]
    },
    {
        "geonameId": 2481105,
        "name": "Sidi Ali Ou Brahim",
        "children": [
            
        ]
    },
    {
        "geonameId": 2480926,
        "name": "Sidi Ben Hadj",
        "children": [
            
        ]
    },
    {
        "geonameId": 2480614,
        "name": "Sidi ed Da\ufffd\ufffd",
        "children": [
            
        ]
    },
    {
        "geonameId": 2479001,
        "name": "Tabelkoza",
        "children": [
            
        ]
    },
    {
        "geonameId": 2478992,
        "name": "Taberkant",
        "children": [
            
        ]
    },
    {
        "geonameId": 2478832,
        "name": "Tadlest",
        "children": [
            
        ]
    },
    {
        "geonameId": 2478692,
        "name": "Taghouzi",
        "children": [
            
        ]
    },
    {
        "geonameId": 2478654,
        "name": "Taguelzi",
        "children": [
            
        ]
    },
    {
        "geonameId": 2478597,
        "name": "Tahantas",
        "children": [
            
        ]
    },
    {
        "geonameId": 2478541,
        "name": "Tahmat",
        "children": [
            
        ]
    },
    {
        "geonameId": 2478375,
        "name": "Tala",
        "children": [
            
        ]
    },
    {
        "geonameId": 2478376,
        "name": "Tala",
        "children": [
            
        ]
    },
    {
        "geonameId": 2478139,
        "name": "Tamentit",
        "children": [
            
        ]
    },
    {
        "geonameId": 2477953,
        "name": "Taouennza",
        "children": [
            
        ]
    },
    {
        "geonameId": 2477914,
        "name": "Taourirt",
        "children": [
            
        ]
    },
    {
        "geonameId": 2477881,
        "name": "Taoursit",
        "children": [
            
        ]
    },
    {
        "geonameId": 2477710,
        "name": "Taroua\ufffd\ufffda",
        "children": [
            
        ]
    },
    {
        "geonameId": 2477678,
        "name": "Tasfaout",
        "children": [
            
        ]
    },
    {
        "geonameId": 2477677,
        "name": "Tasfaout",
        "children": [
            
        ]
    },
    {
        "geonameId": 2477529,
        "name": "Tazoult",
        "children": [
            
        ]
    },
    {
        "geonameId": 2476873,
        "name": "Tiberrhamine",
        "children": [
            
        ]
    },
    {
        "geonameId": 2476783,
        "name": "Tidma\ufffd\ufffdne",
        "children": [
            
        ]
    },
    {
        "geonameId": 2476521,
        "name": "Tiliouine",
        "children": [
            
        ]
    },
    {
        "geonameId": 2476403,
        "name": "Timimoun",
        "children": [
            
        ]
    },
    {
        "geonameId": 2476391,
        "name": "Timleha",
        "children": [
            
        ]
    },
    {
        "geonameId": 2476388,
        "name": "Timmassekh",
        "children": [
            
        ]
    },
    {
        "geonameId": 2476383,
        "name": "Timoktene",
        "children": [
            
        ]
    },
    {
        "geonameId": 2596770,
        "name": "Tim\ufffd\ufffd\ufffd\ufffdaou\ufffd\ufffdne",
        "children": [
            
        ]
    },
    {
        "geonameId": 2476249,
        "name": "Tinekline",
        "children": [
            
        ]
    },
    {
        "geonameId": 2476142,
        "name": "Tinoumeur",
        "children": [
            
        ]
    },
    {
        "geonameId": 2476077,
        "name": "Tinzeri",
        "children": [
            
        ]
    },
    {
        "geonameId": 2476059,
        "name": "Tiouliline",
        "children": [
            
        ]
    },
    {
        "geonameId": 2476042,
        "name": "Tiourinine",
        "children": [
            
        ]
    },
    {
        "geonameId": 2475837,
        "name": "Tit",
        "children": [
            
        ]
    },
    {
        "geonameId": 2475832,
        "name": "Titaf",
        "children": [
            
        ]
    },
    {
        "geonameId": 2475811,
        "name": "Tittaouine ech Cheurfa",
        "children": [
            
        ]
    },
    {
        "geonameId": 2475810,
        "name": "Tittaouine el Akhas",
        "children": [
            
        ]
    },
    {
        "geonameId": 2475696,
        "name": "Tlalet",
        "children": [
            
        ]
    },
    {
        "geonameId": 2475361,
        "name": "Toukki",
        "children": [
            
        ]
    },
    {
        "geonameId": 2475145,
        "name": "Tsabit",
        "children": [
            
        ]
    },
    {
        "geonameId": 2475114,
        "name": "Tsmana",
        "children": [
            
        ]
    },
    {
        "geonameId": 2474963,
        "name": "Zaglou",
        "children": [
            
        ]
    },
    {
        "geonameId": 2474888,
        "name": "Zaouia",
        "children": [
            
        ]
    },
    {
        "geonameId": 2474872,
        "name": "Zaouia Sidi Abd el Kader",
        "children": [
            
        ]
    },
    {
        "geonameId": 2474871,
        "name": "Zaouia Sidi Bekri",
        "children": [
            
        ]
    },
    {
        "geonameId": 2474861,
        "name": "Zaouiet Kounta",
        "children": [
            
        ]
    },
    {
        "geonameId": 2474862,
        "name": "Zaouiet ed Debarh",
        "children": [
            
        ]
    }
]