[
    {
        "geonameId": 2509218,
        "name": "Abdallah Ben Mohammed",
        "children": [
            
        ]
    },
    {
        "geonameId": 2509034,
        "name": "Abla",
        "children": [
            
        ]
    },
    {
        "geonameId": 2508446,
        "name": "Ahmed Ben el Badi",
        "children": [
            
        ]
    },
    {
        "geonameId": 2484769,
        "name": "Ain Bouyahia",
        "children": [
            
        ]
    },
    {
        "geonameId": 2507922,
        "name": "Ain Soltane",
        "children": [
            
        ]
    },
    {
        "geonameId": 2485651,
        "name": "Amoura",
        "children": [
            
        ]
    },
    {
        "geonameId": 2506931,
        "name": "Aouadja",
        "children": [
            
        ]
    },
    {
        "geonameId": 2573211,
        "name": "Aoud Izzane",
        "children": [
            
        ]
    },
    {
        "geonameId": 2573210,
        "name": "Aoura\u00ef",
        "children": [
            
        ]
    },
    {
        "geonameId": 2506512,
        "name": "Arib",
        "children": [
            
        ]
    },
    {
        "geonameId": 2506069,
        "name": "Ayouch",
        "children": [
            
        ]
    },
    {
        "geonameId": 2573220,
        "name": "A\u00efn Achache",
        "children": [
            
        ]
    },
    {
        "geonameId": 2508228,
        "name": "A\u00efn Defla",
        "children": [
            {
                "geonameId": 2505681,
                "name": "Balbal",
                "children": [
                    
                ]
            }
        ]
    },
    {
        "geonameId": 2508030,
        "name": "A\u00efn Lechiakh",
        "children": [
            
        ]
    },
    {
        "geonameId": 2573424,
        "name": "Bakla",
        "children": [
            
        ]
    },
    {
        "geonameId": 2504589,
        "name": "Barbouche",
        "children": [
            
        ]
    },
    {
        "geonameId": 2505543,
        "name": "Baziz Haouari",
        "children": [
            
        ]
    },
    {
        "geonameId": 2505542,
        "name": "Bazouka",
        "children": [
            
        ]
    },
    {
        "geonameId": 2504989,
        "name": "Ben Amoun",
        "children": [
            
        ]
    },
    {
        "geonameId": 2573185,
        "name": "Ben Sa\u00e2d",
        "children": [
            
        ]
    },
    {
        "geonameId": 2573184,
        "name": "Beni Berri",
        "children": [
            
        ]
    },
    {
        "geonameId": 2504625,
        "name": "Beni Melloul",
        "children": [
            
        ]
    },
    {
        "geonameId": 2573214,
        "name": "Beni Merahba",
        "children": [
            
        ]
    },
    {
        "geonameId": 2592668,
        "name": "Bir Ould Khelifa",
        "children": [
            
        ]
    },
    {
        "geonameId": 2503657,
        "name": "Bordj Emir Khaled",
        "children": [
            
        ]
    },
    {
        "geonameId": 2503513,
        "name": "Bou Alem",
        "children": [
            
        ]
    },
    {
        "geonameId": 2503451,
        "name": "Bou Asli",
        "children": [
            
        ]
    },
    {
        "geonameId": 2503174,
        "name": "Bou Fatis",
        "children": [
            
        ]
    },
    {
        "geonameId": 2502828,
        "name": "Bou Khemlalou",
        "children": [
            
        ]
    },
    {
        "geonameId": 2502660,
        "name": "Bou Medfaa",
        "children": [
            
        ]
    },
    {
        "geonameId": 2502179,
        "name": "Bou Zahr",
        "children": [
            
        ]
    },
    {
        "geonameId": 2573197,
        "name": "Bourzizene",
        "children": [
            
        ]
    },
    {
        "geonameId": 2501585,
        "name": "Cheikh Ben Yahia",
        "children": [
            
        ]
    },
    {
        "geonameId": 2501561,
        "name": "Cheikh el Missoum",
        "children": [
            
        ]
    },
    {
        "geonameId": 2486333,
        "name": "Chekalil",
        "children": [
            
        ]
    },
    {
        "geonameId": 2498186,
        "name": "Dar el Hadj Abdellah",
        "children": [
            
        ]
    },
    {
        "geonameId": 2573436,
        "name": "Dehamnia",
        "children": [
            
        ]
    },
    {
        "geonameId": 2500506,
        "name": "Derrag",
        "children": [
            
        ]
    },
    {
        "geonameId": 2474817,
        "name": "Diar Zatar",
        "children": [
            
        ]
    },
    {
        "geonameId": 7430020,
        "name": "Djelida",
        "children": [
            
        ]
    },
    {
        "geonameId": 2499971,
        "name": "Djeloul Ben Mohammed",
        "children": [
            
        ]
    },
    {
        "geonameId": 2499946,
        "name": "Djema Sidi Dahmane",
        "children": [
            
        ]
    },
    {
        "geonameId": 2498423,
        "name": "Djemaa Ouled Cheikh",
        "children": [
            
        ]
    },
    {
        "geonameId": 2499852,
        "name": "Djendel",
        "children": [
            
        ]
    },
    {
        "geonameId": 2573223,
        "name": "Douar Ben Merhba",
        "children": [
            
        ]
    },
    {
        "geonameId": 2504669,
        "name": "Douar Beni Hssen",
        "children": [
            
        ]
    },
    {
        "geonameId": 2503057,
        "name": "Douar Chinoune",
        "children": [
            
        ]
    },
    {
        "geonameId": 2494721,
        "name": "Douar Hamamda",
        "children": [
            
        ]
    },
    {
        "geonameId": 2573201,
        "name": "Douar Haya",
        "children": [
            
        ]
    },
    {
        "geonameId": 2474318,
        "name": "Douar Kaddour Ben Yahia",
        "children": [
            
        ]
    },
    {
        "geonameId": 2483447,
        "name": "Douar Kharfia",
        "children": [
            
        ]
    },
    {
        "geonameId": 2498645,
        "name": "Douar Kouider Moussaoui",
        "children": [
            
        ]
    },
    {
        "geonameId": 2573199,
        "name": "Douar Medani Ben Cherif",
        "children": [
            
        ]
    },
    {
        "geonameId": 2487482,
        "name": "Douar Mhabil",
        "children": [
            
        ]
    },
    {
        "geonameId": 2573406,
        "name": "Douar Ouled A\u00efcha",
        "children": [
            
        ]
    },
    {
        "geonameId": 2573407,
        "name": "Douar Ouled Bouabida",
        "children": [
            
        ]
    },
    {
        "geonameId": 2485326,
        "name": "Douar Ouled Boudjem\u00e2a",
        "children": [
            
        ]
    },
    {
        "geonameId": 2485062,
        "name": "Douar Ouled Tahla",
        "children": [
            
        ]
    },
    {
        "geonameId": 2485092,
        "name": "Douar Ouled Zahar",
        "children": [
            
        ]
    },
    {
        "geonameId": 2485078,
        "name": "Douar Ouled Zitouni",
        "children": [
            
        ]
    },
    {
        "geonameId": 2489218,
        "name": "Douar Sidi Messaoud",
        "children": [
            
        ]
    },
    {
        "geonameId": 2497431,
        "name": "Douar Sidi Saad",
        "children": [
            
        ]
    },
    {
        "geonameId": 2487819,
        "name": "Douar Zghohfa",
        "children": [
            
        ]
    },
    {
        "geonameId": 2498185,
        "name": "Douar el Hadj Amar",
        "children": [
            
        ]
    },
    {
        "geonameId": 2497044,
        "name": "Douar el Hadj Ben Slimane",
        "children": [
            
        ]
    },
    {
        "geonameId": 2487943,
        "name": "Douar el Maghazi",
        "children": [
            
        ]
    },
    {
        "geonameId": 2475688,
        "name": "Douar el Tla\u00efdjia",
        "children": [
            
        ]
    },
    {
        "geonameId": 2499005,
        "name": "Dutertre",
        "children": [
            
        ]
    },
    {
        "geonameId": 2573411,
        "name": "Ed Ra\u00effia",
        "children": [
            
        ]
    },
    {
        "geonameId": 2498782,
        "name": "El Abadia",
        "children": [
            
        ]
    },
    {
        "geonameId": 2484851,
        "name": "El Abadlia",
        "children": [
            
        ]
    },
    {
        "geonameId": 2491830,
        "name": "El Amra",
        "children": [
            
        ]
    },
    {
        "geonameId": 2498588,
        "name": "El Atatfa",
        "children": [
            
        ]
    },
    {
        "geonameId": 2498590,
        "name": "El Attaf",
        "children": [
            {
                "geonameId": 7525640,
                "name": "Ha\u00ef Ali Benhania",
                "children": [
                    
                ]
            },
            {
                "geonameId": 2505296,
                "name": "Ha\u00ef Bellab\u00e9s",
                "children": [
                    
                ]
            },
            {
                "geonameId": 7525641,
                "name": "Ha\u00ef Salem",
                "children": [
                    
                ]
            },
            {
                "geonameId": 7525639,
                "name": "Ha\u00ef Sidi Amar",
                "children": [
                    
                ]
            }
        ]
    },
    {
        "geonameId": 2498585,
        "name": "El Aza\u00efzia",
        "children": [
            
        ]
    },
    {
        "geonameId": 2498734,
        "name": "El A\u00efoun",
        "children": [
            
        ]
    },
    {
        "geonameId": 2498197,
        "name": "El Had",
        "children": [
            
        ]
    },
    {
        "geonameId": 2482717,
        "name": "El Hadj Sadok",
        "children": [
            
        ]
    },
    {
        "geonameId": 2498164,
        "name": "El Hadj Tahar",
        "children": [
            
        ]
    },
    {
        "geonameId": 2498128,
        "name": "El Hamdi",
        "children": [
            
        ]
    },
    {
        "geonameId": 2497958,
        "name": "El Kecha\u00efd",
        "children": [
            
        ]
    },
    {
        "geonameId": 2497911,
        "name": "El Khama",
        "children": [
            
        ]
    },
    {
        "geonameId": 2497866,
        "name": "El Khemis",
        "children": [
            
        ]
    },
    {
        "geonameId": 2573232,
        "name": "El Klaoucha",
        "children": [
            
        ]
    },
    {
        "geonameId": 2592669,
        "name": "El Kohabtia",
        "children": [
            
        ]
    },
    {
        "geonameId": 2573226,
        "name": "El Ksar",
        "children": [
            
        ]
    },
    {
        "geonameId": 2497739,
        "name": "El Mahera",
        "children": [
            
        ]
    },
    {
        "geonameId": 2497721,
        "name": "El Makbia",
        "children": [
            
        ]
    },
    {
        "geonameId": 2497493,
        "name": "El Mokha\u00efria",
        "children": [
            
        ]
    },
    {
        "geonameId": 2497481,
        "name": "El Mouaznia",
        "children": [
            
        ]
    },
    {
        "geonameId": 2497729,
        "name": "El M\u2019a\u00eff",
        "children": [
            
        ]
    },
    {
        "geonameId": 2485444,
        "name": "El Ouakla",
        "children": [
            
        ]
    },
    {
        "geonameId": 2573219,
        "name": "Eriyache",
        "children": [
            
        ]
    },
    {
        "geonameId": 2496981,
        "name": "Et Toua\u00efbia",
        "children": [
            
        ]
    },
    {
        "geonameId": 2496524,
        "name": "Ferha\u00efha",
        "children": [
            
        ]
    },
    {
        "geonameId": 7429624,
        "name": "Ferkat el Ghoualem",
        "children": [
            
        ]
    },
    {
        "geonameId": 2496472,
        "name": "Fers et Tiabine",
        "children": [
            
        ]
    },
    {
        "geonameId": 2573189,
        "name": "Ghouali",
        "children": [
            
        ]
    },
    {
        "geonameId": 2573224,
        "name": "Ghoul Ou Melzi",
        "children": [
            
        ]
    },
    {
        "geonameId": 2573212,
        "name": "Hadjrai Izzaler",
        "children": [
            
        ]
    },
    {
        "geonameId": 2494535,
        "name": "Hammam Righa",
        "children": [
            
        ]
    },
    {
        "geonameId": 7441766,
        "name": "Hannacha",
        "children": [
            
        ]
    },
    {
        "geonameId": 2573287,
        "name": "Harta Chraga",
        "children": [
            
        ]
    },
    {
        "geonameId": 2503430,
        "name": "Houasnia",
        "children": [
            
        ]
    },
    {
        "geonameId": 2573228,
        "name": "Kerkouch",
        "children": [
            
        ]
    },
    {
        "geonameId": 2491911,
        "name": "Khemis Miliana",
        "children": [
            
        ]
    },
    {
        "geonameId": 2491497,
        "name": "Kouesmia",
        "children": [
            
        ]
    },
    {
        "geonameId": 2573200,
        "name": "Kraounia",
        "children": [
            
        ]
    },
    {
        "geonameId": 2573205,
        "name": "Labadnia",
        "children": [
            
        ]
    },
    {
        "geonameId": 2573215,
        "name": "Lahdadoua",
        "children": [
            
        ]
    },
    {
        "geonameId": 2491024,
        "name": "Lari Addou",
        "children": [
            
        ]
    },
    {
        "geonameId": 2507874,
        "name": "Le Gros Pin",
        "children": [
            
        ]
    },
    {
        "geonameId": 2490879,
        "name": "Le Pont de l\u2019Oued Djer",
        "children": [
            
        ]
    },
    {
        "geonameId": 2490875,
        "name": "Le Puits",
        "children": [
            
        ]
    },
    {
        "geonameId": 2490827,
        "name": "Levacher",
        "children": [
            
        ]
    },
    {
        "geonameId": 2490522,
        "name": "Maha\u00efzia",
        "children": [
            
        ]
    },
    {
        "geonameId": 2490464,
        "name": "Mah\u00e9",
        "children": [
            
        ]
    },
    {
        "geonameId": 2573229,
        "name": "Mardas",
        "children": [
            
        ]
    },
    {
        "geonameId": 2489827,
        "name": "Mechta Ablachta",
        "children": [
            
        ]
    },
    {
        "geonameId": 2489750,
        "name": "Mechta Bel Has",
        "children": [
            
        ]
    },
    {
        "geonameId": 2489720,
        "name": "Mechta Bernia",
        "children": [
            
        ]
    },
    {
        "geonameId": 2489718,
        "name": "Mechta Bessami Kechi",
        "children": [
            
        ]
    },
    {
        "geonameId": 2488802,
        "name": "Mediouna",
        "children": [
            
        ]
    },
    {
        "geonameId": 2573190,
        "name": "Medjadjra",
        "children": [
            
        ]
    },
    {
        "geonameId": 2573412,
        "name": "Medja\u00efmia",
        "children": [
            
        ]
    },
    {
        "geonameId": 2487833,
        "name": "Merzoudj Ben Zouaoui",
        "children": [
            
        ]
    },
    {
        "geonameId": 2487444,
        "name": "Miliana",
        "children": [
            
        ]
    },
    {
        "geonameId": 2487272,
        "name": "Mohammed Ben Kroula",
        "children": [
            
        ]
    },
    {
        "geonameId": 2487121,
        "name": "Moualdia",
        "children": [
            
        ]
    },
    {
        "geonameId": 2486923,
        "name": "Moula Diar el Ma\u00efz",
        "children": [
            
        ]
    },
    {
        "geonameId": 2573276,
        "name": "N\u2019djayia",
        "children": [
            
        ]
    },
    {
        "geonameId": 2497856,
        "name": "Omma\u00efssia",
        "children": [
            
        ]
    },
    {
        "geonameId": 2485845,
        "name": "Ouamri",
        "children": [
            
        ]
    },
    {
        "geonameId": 2485677,
        "name": "Oudjida",
        "children": [
            
        ]
    },
    {
        "geonameId": 2475081,
        "name": "Oued Chorfa",
        "children": [
            
        ]
    },
    {
        "geonameId": 2485554,
        "name": "Oued Zebboudj",
        "children": [
            
        ]
    },
    {
        "geonameId": 2485395,
        "name": "Oulad Ali",
        "children": [
            
        ]
    },
    {
        "geonameId": 2485338,
        "name": "Oulad Ben Yahia",
        "children": [
            
        ]
    },
    {
        "geonameId": 2485212,
        "name": "Oulad Mello\u00fbk",
        "children": [
            
        ]
    },
    {
        "geonameId": 2485176,
        "name": "Oulad Rabah",
        "children": [
            
        ]
    },
    {
        "geonameId": 2485171,
        "name": "Oulad Rahmane",
        "children": [
            
        ]
    },
    {
        "geonameId": 2485146,
        "name": "Oulad Serha\u00efria",
        "children": [
            
        ]
    },
    {
        "geonameId": 2485281,
        "name": "Oulad el Hadj Basri",
        "children": [
            
        ]
    },
    {
        "geonameId": 2485276,
        "name": "Oulad el Oua\u00efl",
        "children": [
            
        ]
    },
    {
        "geonameId": 2485380,
        "name": "Ouled Attou",
        "children": [
            
        ]
    },
    {
        "geonameId": 2573209,
        "name": "Ouled Belhadj",
        "children": [
            
        ]
    },
    {
        "geonameId": 2485342,
        "name": "Ouled Ben Ha\u00efmouna",
        "children": [
            
        ]
    },
    {
        "geonameId": 2573198,
        "name": "Ouled Ben Henda",
        "children": [
            
        ]
    },
    {
        "geonameId": 2573410,
        "name": "Ouled Bouabida",
        "children": [
            
        ]
    },
    {
        "geonameId": 2484953,
        "name": "Ouled Brahim",
        "children": [
            
        ]
    },
    {
        "geonameId": 2484926,
        "name": "Ouled Djilali",
        "children": [
            
        ]
    },
    {
        "geonameId": 2573187,
        "name": "Ouled Kaddour",
        "children": [
            
        ]
    },
    {
        "geonameId": 2573425,
        "name": "Ouled Kouidene",
        "children": [
            
        ]
    },
    {
        "geonameId": 2573225,
        "name": "Ouled Lehbib",
        "children": [
            
        ]
    },
    {
        "geonameId": 2485192,
        "name": "Ouled Moussa",
        "children": [
            
        ]
    },
    {
        "geonameId": 2485156,
        "name": "Ouled Salah",
        "children": [
            
        ]
    },
    {
        "geonameId": 2484811,
        "name": "Ouled Sa\u00efdane",
        "children": [
            
        ]
    },
    {
        "geonameId": 2484778,
        "name": "Ouled Sidi Yahia Cheraka",
        "children": [
            
        ]
    },
    {
        "geonameId": 2573416,
        "name": "Ouled Sidi Yahia Gheraba",
        "children": [
            
        ]
    },
    {
        "geonameId": 2573374,
        "name": "Ouled Tifidh",
        "children": [
            
        ]
    },
    {
        "geonameId": 2484922,
        "name": "Ouled Ziri",
        "children": [
            
        ]
    },
    {
        "geonameId": 2484988,
        "name": "Ouled ben Afa",
        "children": [
            
        ]
    },
    {
        "geonameId": 2483748,
        "name": "Reguedia",
        "children": [
            
        ]
    },
    {
        "geonameId": 2483615,
        "name": "Requialet",
        "children": [
            
        ]
    },
    {
        "geonameId": 2573413,
        "name": "Rouabah",
        "children": [
            
        ]
    },
    {
        "geonameId": 2482893,
        "name": "Rouina",
        "children": [
            
        ]
    },
    {
        "geonameId": 2573194,
        "name": "Sgagra",
        "children": [
            
        ]
    },
    {
        "geonameId": 2480789,
        "name": "Sidi Bou Messabeh",
        "children": [
            
        ]
    },
    {
        "geonameId": 2480875,
        "name": "Sidi Bouabida",
        "children": [
            
        ]
    },
    {
        "geonameId": 2573222,
        "name": "Sidi Brahim",
        "children": [
            
        ]
    },
    {
        "geonameId": 2480309,
        "name": "Sidi Lakhdar",
        "children": [
            
        ]
    },
    {
        "geonameId": 2479579,
        "name": "Sidi Mahdjoub",
        "children": [
            
        ]
    },
    {
        "geonameId": 2573373,
        "name": "Sidi Thabet",
        "children": [
            
        ]
    },
    {
        "geonameId": 2573183,
        "name": "Skekra",
        "children": [
            
        ]
    },
    {
        "geonameId": 2573186,
        "name": "Smara",
        "children": [
            
        ]
    },
    {
        "geonameId": 2479387,
        "name": "Snoussi Ben Guesmia",
        "children": [
            
        ]
    },
    {
        "geonameId": 2479153,
        "name": "Southia",
        "children": [
            
        ]
    },
    {
        "geonameId": 2573221,
        "name": "Tabethacht",
        "children": [
            
        ]
    },
    {
        "geonameId": 2478983,
        "name": "Tabia",
        "children": [
            
        ]
    },
    {
        "geonameId": 2573227,
        "name": "Tacheta Zougagha",
        "children": [
            
        ]
    },
    {
        "geonameId": 2573231,
        "name": "Tafoughart",
        "children": [
            
        ]
    },
    {
        "geonameId": 2478715,
        "name": "Taga",
        "children": [
            
        ]
    },
    {
        "geonameId": 2573288,
        "name": "Taghrourt",
        "children": [
            
        ]
    },
    {
        "geonameId": 2478193,
        "name": "Tamda",
        "children": [
            
        ]
    },
    {
        "geonameId": 2573213,
        "name": "Tamda",
        "children": [
            
        ]
    },
    {
        "geonameId": 2478120,
        "name": "Tamesguida",
        "children": [
            
        ]
    },
    {
        "geonameId": 2573202,
        "name": "Tamzrit",
        "children": [
            
        ]
    },
    {
        "geonameId": 2477727,
        "name": "Tarik Ibn Ziad",
        "children": [
            
        ]
    },
    {
        "geonameId": 2573238,
        "name": "Tebssassine",
        "children": [
            
        ]
    },
    {
        "geonameId": 2476915,
        "name": "Theniet el Had",
        "children": [
            
        ]
    },
    {
        "geonameId": 2489005,
        "name": "Tinsissine",
        "children": [
            
        ]
    },
    {
        "geonameId": 2475748,
        "name": "Tizi Ouchir",
        "children": [
            
        ]
    },
    {
        "geonameId": 2475563,
        "name": "Touafria",
        "children": [
            
        ]
    },
    {
        "geonameId": 7671216,
        "name": "Zeddine",
        "children": [
            
        ]
    },
    {
        "geonameId": 2573408,
        "name": "Zerarka",
        "children": [
            
        ]
    },
    {
        "geonameId": 2474264,
        "name": "Zouaoua",
        "children": [
            
        ]
    },
    {
        "geonameId": 2592677,
        "name": "\u2019Ain el Mebnia",
        "children": [
            
        ]
    },
    {
        "geonameId": 2507982,
        "name": "\u2019A\u00efn N\u2019Sour",
        "children": [
            
        ]
    },
    {
        "geonameId": 2507885,
        "name": "\u2019A\u00efn Torki",
        "children": [
            
        ]
    },
    {
        "geonameId": 2508182,
        "name": "\u2019A\u00efn el Benian",
        "children": [
            
        ]
    }
]