[
    {
        "geonameId": 8636772,
        "name": "Akoko-Edo",
        "children": [
            
        ]
    },
    {
        "geonameId": 8636763,
        "name": "Egor",
        "children": [
            
        ]
    },
    {
        "geonameId": 8636767,
        "name": "Esan Central",
        "children": [
            
        ]
    },
    {
        "geonameId": 8636768,
        "name": "Esan North-East",
        "children": [
            
        ]
    },
    {
        "geonameId": 8636769,
        "name": "Esan South-East",
        "children": [
            
        ]
    },
    {
        "geonameId": 8636766,
        "name": "Esan West",
        "children": [
            
        ]
    },
    {
        "geonameId": 8636775,
        "name": "Etsako Central",
        "children": [
            
        ]
    },
    {
        "geonameId": 8636773,
        "name": "Etsako East",
        "children": [
            
        ]
    },
    {
        "geonameId": 8636774,
        "name": "Etsako West",
        "children": [
            
        ]
    },
    {
        "geonameId": 8636765,
        "name": "Iguegben",
        "children": [
            
        ]
    },
    {
        "geonameId": 7932077,
        "name": "Ikpoba-Okha",
        "children": [
            
        ]
    },
    {
        "geonameId": 8636764,
        "name": "Oredo",
        "children": [
            
        ]
    },
    {
        "geonameId": 7873880,
        "name": "Orhionmwon",
        "children": [
            
        ]
    },
    {
        "geonameId": 7873878,
        "name": "Ovia North-East",
        "children": [
            
        ]
    },
    {
        "geonameId": 7873877,
        "name": "Ovia South-West",
        "children": [
            
        ]
    },
    {
        "geonameId": 8636771,
        "name": "Owan East",
        "children": [
            
        ]
    },
    {
        "geonameId": 8636770,
        "name": "Owan West",
        "children": [
            
        ]
    },
    {
        "geonameId": 7932071,
        "name": "Uhunmwonde",
        "children": [
            
        ]
    }
]