[
    {
        "geonameId": 7701336,
        "name": "Aba North",
        "children": [
            
        ]
    },
    {
        "geonameId": 7701374,
        "name": "Aba South",
        "children": [
            
        ]
    },
    {
        "geonameId": 8638389,
        "name": "Arochukwu",
        "children": [
            
        ]
    },
    {
        "geonameId": 8638388,
        "name": "Bende",
        "children": [
            
        ]
    },
    {
        "geonameId": 7701376,
        "name": "Ikwuano",
        "children": [
            
        ]
    },
    {
        "geonameId": 9485480,
        "name": "Isiala Ngwa North Local Government Area",
        "children": [
            
        ]
    },
    {
        "geonameId": 9485481,
        "name": "Isiala Ngwa South Local Government Area",
        "children": [
            
        ]
    },
    {
        "geonameId": 7932087,
        "name": "Isiala-Ngwa North",
        "children": [
            
        ]
    },
    {
        "geonameId": 7730382,
        "name": "Isiala-Ngwa South",
        "children": [
            
        ]
    },
    {
        "geonameId": 7873936,
        "name": "Isuikwuato",
        "children": [
            
        ]
    },
    {
        "geonameId": 7932088,
        "name": "Obi Nwga",
        "children": [
            
        ]
    },
    {
        "geonameId": 7729963,
        "name": "Ohafia",
        "children": [
            
        ]
    },
    {
        "geonameId": 8638391,
        "name": "Osisioma Ngwa",
        "children": [
            
        ]
    },
    {
        "geonameId": 7730384,
        "name": "Ugwunagbo",
        "children": [
            
        ]
    },
    {
        "geonameId": 7701380,
        "name": "Ukwa East",
        "children": [
            
        ]
    },
    {
        "geonameId": 7730386,
        "name": "Ukwa West",
        "children": [
            
        ]
    },
    {
        "geonameId": 7932084,
        "name": "Umu-Nneochi",
        "children": [
            
        ]
    },
    {
        "geonameId": 7932085,
        "name": "Umuahia North",
        "children": [
            
        ]
    },
    {
        "geonameId": 7730388,
        "name": "Umuahia South",
        "children": [
            
        ]
    }
]