[
    {
        "geonameId": 7873883,
        "name": "Aniocha North",
        "children": [
            
        ]
    },
    {
        "geonameId": 7729915,
        "name": "Aniocha South",
        "children": [
            
        ]
    },
    {
        "geonameId": 8638006,
        "name": "Bomadi",
        "children": [
            
        ]
    },
    {
        "geonameId": 8638005,
        "name": "Burutu",
        "children": [
            
        ]
    },
    {
        "geonameId": 7729918,
        "name": "Ethiope East",
        "children": [
            
        ]
    },
    {
        "geonameId": 7729917,
        "name": "Ethiope West",
        "children": [
            
        ]
    },
    {
        "geonameId": 7729919,
        "name": "Ika North East",
        "children": [
            
        ]
    },
    {
        "geonameId": 7729921,
        "name": "Ika South",
        "children": [
            
        ]
    },
    {
        "geonameId": 7729922,
        "name": "Isoko North",
        "children": [
            
        ]
    },
    {
        "geonameId": 7729923,
        "name": "Isoko South",
        "children": [
            
        ]
    },
    {
        "geonameId": 7729925,
        "name": "Ndokwa East",
        "children": [
            
        ]
    },
    {
        "geonameId": 7729927,
        "name": "Ndokwa West",
        "children": [
            
        ]
    },
    {
        "geonameId": 8637984,
        "name": "Okpe",
        "children": [
            
        ]
    },
    {
        "geonameId": 7729931,
        "name": "Oshimili North",
        "children": [
            
        ]
    },
    {
        "geonameId": 7729934,
        "name": "Oshimili South",
        "children": [
            
        ]
    },
    {
        "geonameId": 8638007,
        "name": "Patani",
        "children": [
            
        ]
    },
    {
        "geonameId": 8637981,
        "name": "Sapele",
        "children": [
            
        ]
    },
    {
        "geonameId": 7729936,
        "name": "Udu",
        "children": [
            
        ]
    },
    {
        "geonameId": 7729938,
        "name": "Ughelli North",
        "children": [
            
        ]
    },
    {
        "geonameId": 7729939,
        "name": "Ughelli South",
        "children": [
            
        ]
    },
    {
        "geonameId": 7729940,
        "name": "Ukwuani",
        "children": [
            
        ]
    },
    {
        "geonameId": 7729945,
        "name": "Uvwie",
        "children": [
            
        ]
    },
    {
        "geonameId": 7729942,
        "name": "Warri North",
        "children": [
            
        ]
    },
    {
        "geonameId": 7729943,
        "name": "Warri South",
        "children": [
            
        ]
    },
    {
        "geonameId": 7729946,
        "name": "Warri South-West",
        "children": [
            
        ]
    }
]