[
    {
        "geonameId": 2278890,
        "name": "Barclayville",
        "children": [
            
        ]
    },
    {
        "geonameId": 9645228,
        "name": "Bleebo District",
        "children": [
            
        ]
    },
    {
        "geonameId": 2278361,
        "name": "Bolloh District",
        "children": [
            
        ]
    },
    {
        "geonameId": 2278169,
        "name": "Buah",
        "children": [
            
        ]
    },
    {
        "geonameId": 9645223,
        "name": "Dorbor District",
        "children": [
            
        ]
    },
    {
        "geonameId": 9645221,
        "name": "Dweh District",
        "children": [
            
        ]
    },
    {
        "geonameId": 9645227,
        "name": "Felo-Jekwi District",
        "children": [
            
        ]
    },
    {
        "geonameId": 9645224,
        "name": "Fenetoe District",
        "children": [
            
        ]
    },
    {
        "geonameId": 9645219,
        "name": "Forpoh District",
        "children": [
            
        ]
    },
    {
        "geonameId": 2277191,
        "name": "Garraway",
        "children": [
            
        ]
    },
    {
        "geonameId": 2276626,
        "name": "Grand Cess Wedabo",
        "children": [
            
        ]
    },
    {
        "geonameId": 9645222,
        "name": "Kpi District",
        "children": [
            
        ]
    },
    {
        "geonameId": 2276161,
        "name": "Lower Jloh",
        "children": [
            
        ]
    },
    {
        "geonameId": 9645226,
        "name": "Nrokwia-Wesldow District",
        "children": [
            
        ]
    },
    {
        "geonameId": 2274101,
        "name": "Sasstown",
        "children": [
            
        ]
    },
    {
        "geonameId": 9645229,
        "name": "Trenbo District",
        "children": [
            
        ]
    },
    {
        "geonameId": 9645225,
        "name": "Upper Jloh District",
        "children": [
            
        ]
    },
    {
        "geonameId": 2273190,
        "name": "Webado",
        "children": [
            
        ]
    },
    {
        "geonameId": 9645220,
        "name": "Wlogba District",
        "children": [
            
        ]
    }
]