[
    {
        "geonameId": 2448246,
        "name": "Abala",
        "children": [
            
        ]
    },
    {
        "geonameId": 2447416,
        "name": "Ayorou",
        "children": [
            
        ]
    },
    {
        "geonameId": 2447047,
        "name": "Baboussay",
        "children": [
            
        ]
    },
    {
        "geonameId": 2441650,
        "name": "Bala Rima\u00efb\u00e9",
        "children": [
            
        ]
    },
    {
        "geonameId": 2447078,
        "name": "Bankilar\u00e9",
        "children": [
            
        ]
    },
    {
        "geonameId": 2446989,
        "name": "Barkiawal B\u00e9ri",
        "children": [
            
        ]
    },
    {
        "geonameId": 2446990,
        "name": "Barkiawal Ka\u00efna",
        "children": [
            
        ]
    },
    {
        "geonameId": 2446569,
        "name": "Boukari Koyr\u00e9",
        "children": [
            
        ]
    },
    {
        "geonameId": 2446389,
        "name": "Chikal Chinyasou",
        "children": [
            
        ]
    },
    {
        "geonameId": 2445915,
        "name": "Dantiandou",
        "children": [
            
        ]
    },
    {
        "geonameId": 2445842,
        "name": "Dargol",
        "children": [
            
        ]
    },
    {
        "geonameId": 2445390,
        "name": "Diagorou",
        "children": [
            
        ]
    },
    {
        "geonameId": 2445379,
        "name": "Diayel",
        "children": [
            
        ]
    },
    {
        "geonameId": 2445606,
        "name": "Dibilo",
        "children": [
            
        ]
    },
    {
        "geonameId": 2445647,
        "name": "Diont\u00e9 Koyr\u00e9",
        "children": [
            
        ]
    },
    {
        "geonameId": 2445369,
        "name": "Dioubourga",
        "children": [
            
        ]
    },
    {
        "geonameId": 2445367,
        "name": "Diri Bangou",
        "children": [
            
        ]
    },
    {
        "geonameId": 2445633,
        "name": "Dissirid\u00e9",
        "children": [
            
        ]
    },
    {
        "geonameId": 2445370,
        "name": "Di\u00e9ban\u00e9",
        "children": [
            
        ]
    },
    {
        "geonameId": 2445596,
        "name": "Djiliki Foulb\u00e9",
        "children": [
            
        ]
    },
    {
        "geonameId": 2445474,
        "name": "Dougou Saro",
        "children": [
            
        ]
    },
    {
        "geonameId": 2445463,
        "name": "Doulgou",
        "children": [
            
        ]
    },
    {
        "geonameId": 2445462,
        "name": "Doulsou",
        "children": [
            
        ]
    },
    {
        "geonameId": 2445359,
        "name": "Dyongor\u00e9",
        "children": [
            
        ]
    },
    {
        "geonameId": 2445788,
        "name": "D\u00e9li Tondi Atou Kouara",
        "children": [
            
        ]
    },
    {
        "geonameId": 2445771,
        "name": "D\u00e9ssa",
        "children": [
            
        ]
    },
    {
        "geonameId": 2438525,
        "name": "Fada",
        "children": [
            
        ]
    },
    {
        "geonameId": 2445151,
        "name": "Falink\u00e9 B\u00e9ri",
        "children": [
            
        ]
    },
    {
        "geonameId": 2445127,
        "name": "Fandou Banda",
        "children": [
            
        ]
    },
    {
        "geonameId": 2445126,
        "name": "Fandou B\u00e9ri",
        "children": [
            
        ]
    },
    {
        "geonameId": 2445120,
        "name": "Fandou Ka\u00efna",
        "children": [
            
        ]
    },
    {
        "geonameId": 2445116,
        "name": "Fandou Mayaki",
        "children": [
            
        ]
    },
    {
        "geonameId": 2445112,
        "name": "Fantoufaouta",
        "children": [
            
        ]
    },
    {
        "geonameId": 2445076,
        "name": "Fari\u00e9 H.",
        "children": [
            
        ]
    },
    {
        "geonameId": 2445043,
        "name": "Fatomanga",
        "children": [
            
        ]
    },
    {
        "geonameId": 2444995,
        "name": "Filingu\u00e9",
        "children": [
            
        ]
    },
    {
        "geonameId": 2444988,
        "name": "Firgoun",
        "children": [
            
        ]
    },
    {
        "geonameId": 2444984,
        "name": "Firiniar\u00e9",
        "children": [
            
        ]
    },
    {
        "geonameId": 2444958,
        "name": "Foltiangou",
        "children": [
            
        ]
    },
    {
        "geonameId": 2444930,
        "name": "Foulanw\u00e9gorou",
        "children": [
            
        ]
    },
    {
        "geonameId": 2445015,
        "name": "F\u00e9to Banoy",
        "children": [
            
        ]
    },
    {
        "geonameId": 2440742,
        "name": "Gabo Baba Kouara",
        "children": [
            
        ]
    },
    {
        "geonameId": 2444903,
        "name": "Gabo Goura",
        "children": [
            
        ]
    },
    {
        "geonameId": 2444880,
        "name": "Gadabo Kouara",
        "children": [
            
        ]
    },
    {
        "geonameId": 2444834,
        "name": "Gala B\u00e9ri",
        "children": [
            
        ]
    },
    {
        "geonameId": 2444168,
        "name": "Ganguikogo",
        "children": [
            
        ]
    },
    {
        "geonameId": 2444741,
        "name": "Gao Tawey",
        "children": [
            
        ]
    },
    {
        "geonameId": 2444729,
        "name": "Garbey Tombo",
        "children": [
            
        ]
    },
    {
        "geonameId": 2444702,
        "name": "Garbougoua",
        "children": [
            
        ]
    },
    {
        "geonameId": 2444700,
        "name": "Gardama Kouara",
        "children": [
            
        ]
    },
    {
        "geonameId": 2443499,
        "name": "Giliman",
        "children": [
            
        ]
    },
    {
        "geonameId": 2444429,
        "name": "Gogui\u00e9iz\u00e9 Kouara",
        "children": [
            
        ]
    },
    {
        "geonameId": 2444403,
        "name": "Gomnangou",
        "children": [
            
        ]
    },
    {
        "geonameId": 2444214,
        "name": "Goria",
        "children": [
            
        ]
    },
    {
        "geonameId": 2444228,
        "name": "Goro",
        "children": [
            
        ]
    },
    {
        "geonameId": 2444303,
        "name": "Gorou",
        "children": [
            
        ]
    },
    {
        "geonameId": 2444329,
        "name": "Goth\u00e8ye",
        "children": [
            
        ]
    },
    {
        "geonameId": 2444319,
        "name": "Goubey Kir\u00e9",
        "children": [
            
        ]
    },
    {
        "geonameId": 2444244,
        "name": "Gounti Kouara",
        "children": [
            
        ]
    },
    {
        "geonameId": 2444193,
        "name": "Goutoumbou",
        "children": [
            
        ]
    },
    {
        "geonameId": 2444136,
        "name": "Guessel Bodi Yo Koy Kouara",
        "children": [
            
        ]
    },
    {
        "geonameId": 2443469,
        "name": "Guilawa",
        "children": [
            
        ]
    },
    {
        "geonameId": 2441963,
        "name": "Guirguel",
        "children": [
            
        ]
    },
    {
        "geonameId": 2444180,
        "name": "Gu\u00e9gorou",
        "children": [
            
        ]
    },
    {
        "geonameId": 2443435,
        "name": "Hamdallay",
        "children": [
            
        ]
    },
    {
        "geonameId": 2443419,
        "name": "Haoussank\u00e9",
        "children": [
            
        ]
    },
    {
        "geonameId": 2441764,
        "name": "Hondou B\u00e9ri-Zarma Gand\u00e9",
        "children": [
            
        ]
    },
    {
        "geonameId": 2443067,
        "name": "I-n-Tikilat\u00e8n",
        "children": [
            
        ]
    },
    {
        "geonameId": 2443057,
        "name": "I-n-Tousa",
        "children": [
            
        ]
    },
    {
        "geonameId": 2443365,
        "name": "Iboy",
        "children": [
            
        ]
    },
    {
        "geonameId": 2443294,
        "name": "Iloa Missan",
        "children": [
            
        ]
    },
    {
        "geonameId": 2441779,
        "name": "Kaba",
        "children": [
            
        ]
    },
    {
        "geonameId": 2442718,
        "name": "Kantchi Kouara",
        "children": [
            
        ]
    },
    {
        "geonameId": 2442700,
        "name": "Kanya",
        "children": [
            
        ]
    },
    {
        "geonameId": 2442585,
        "name": "Karab\u00e9ji",
        "children": [
            
        ]
    },
    {
        "geonameId": 2442459,
        "name": "Karey Gorou",
        "children": [
            
        ]
    },
    {
        "geonameId": 2442593,
        "name": "Karma",
        "children": [
            
        ]
    },
    {
        "geonameId": 2442407,
        "name": "Kirib B\u00e9ri",
        "children": [
            
        ]
    },
    {
        "geonameId": 2442394,
        "name": "Kirtachi Seybou",
        "children": [
            
        ]
    },
    {
        "geonameId": 2441754,
        "name": "Ki\u00e9k\u00e9ssobon",
        "children": [
            
        ]
    },
    {
        "geonameId": 2442269,
        "name": "Ko Kouarey Peul",
        "children": [
            
        ]
    },
    {
        "geonameId": 2442270,
        "name": "Ko Kouarey Zarma",
        "children": [
            
        ]
    },
    {
        "geonameId": 2442351,
        "name": "Kob\u00e9ri Kouara",
        "children": [
            
        ]
    },
    {
        "geonameId": 2442062,
        "name": "Kodjiri Bani Kouara",
        "children": [
            
        ]
    },
    {
        "geonameId": 2442314,
        "name": "Kofouno",
        "children": [
            
        ]
    },
    {
        "geonameId": 2442120,
        "name": "Kokoloukou",
        "children": [
            
        ]
    },
    {
        "geonameId": 2442275,
        "name": "Kokorb\u00e9 Fandou",
        "children": [
            
        ]
    },
    {
        "geonameId": 2442248,
        "name": "Kollo",
        "children": [
            
        ]
    },
    {
        "geonameId": 2442214,
        "name": "Koma Koukou",
        "children": [
            
        ]
    },
    {
        "geonameId": 2442005,
        "name": "Kongou Zarma",
        "children": [
            
        ]
    },
    {
        "geonameId": 2442201,
        "name": "Kon\u00e9 B\u00e9ri",
        "children": [
            
        ]
    },
    {
        "geonameId": 2442112,
        "name": "Korogoussou",
        "children": [
            
        ]
    },
    {
        "geonameId": 2442089,
        "name": "Kossawa",
        "children": [
            
        ]
    },
    {
        "geonameId": 2442083,
        "name": "Kos\u00e8y",
        "children": [
            
        ]
    },
    {
        "geonameId": 2441818,
        "name": "Kouara Lami",
        "children": [
            
        ]
    },
    {
        "geonameId": 2441791,
        "name": "Kouara T\u00e9gui",
        "children": [
            
        ]
    },
    {
        "geonameId": 2441794,
        "name": "Kouara T\u00e9gui",
        "children": [
            
        ]
    },
    {
        "geonameId": 2441785,
        "name": "Kouar\u00e9 Lami",
        "children": [
            
        ]
    },
    {
        "geonameId": 2441960,
        "name": "Kouli Kouara",
        "children": [
            
        ]
    },
    {
        "geonameId": 2441952,
        "name": "Koulou Kouara",
        "children": [
            
        ]
    },
    {
        "geonameId": 2441902,
        "name": "Kour\u00e9",
        "children": [
            
        ]
    },
    {
        "geonameId": 2441816,
        "name": "Koyria",
        "children": [
            
        ]
    },
    {
        "geonameId": 2442613,
        "name": "K\u00e2rey Bangou",
        "children": [
            
        ]
    },
    {
        "geonameId": 2439129,
        "name": "La Tapoa",
        "children": [
            
        ]
    },
    {
        "geonameId": 2441729,
        "name": "Lagar\u00e9",
        "children": [
            
        ]
    },
    {
        "geonameId": 2441704,
        "name": "Lawey",
        "children": [
            
        ]
    },
    {
        "geonameId": 2441656,
        "name": "Libo Atou Kouara",
        "children": [
            
        ]
    },
    {
        "geonameId": 2568994,
        "name": "Libor\u00e9",
        "children": [
            
        ]
    },
    {
        "geonameId": 2441653,
        "name": "Libor\u00e9 Zarma",
        "children": [
            
        ]
    },
    {
        "geonameId": 2443277,
        "name": "Lmoudaka Kogan\u00e9",
        "children": [
            
        ]
    },
    {
        "geonameId": 2441609,
        "name": "Londiodi",
        "children": [
            
        ]
    },
    {
        "geonameId": 2441671,
        "name": "L\u00e9l\u00e9 Koynounga",
        "children": [
            
        ]
    },
    {
        "geonameId": 2441434,
        "name": "Makalondi",
        "children": [
            
        ]
    },
    {
        "geonameId": 2441346,
        "name": "Mamassey",
        "children": [
            
        ]
    },
    {
        "geonameId": 2438323,
        "name": "Manga Kouara",
        "children": [
            
        ]
    },
    {
        "geonameId": 2440873,
        "name": "Mansar\u00e9 Boura",
        "children": [
            
        ]
    },
    {
        "geonameId": 2441284,
        "name": "Marafa Kouara",
        "children": [
            
        ]
    },
    {
        "geonameId": 2441185,
        "name": "Mayaki Kouara",
        "children": [
            
        ]
    },
    {
        "geonameId": 2441184,
        "name": "Mayanga Gourmantch\u00e9",
        "children": [
            
        ]
    },
    {
        "geonameId": 2440909,
        "name": "Mogodyougou",
        "children": [
            
        ]
    },
    {
        "geonameId": 2440871,
        "name": "Motagata",
        "children": [
            
        ]
    },
    {
        "geonameId": 2440977,
        "name": "M\u00e9hana",
        "children": [
            
        ]
    },
    {
        "geonameId": 2440806,
        "name": "Nagouel",
        "children": [
            
        ]
    },
    {
        "geonameId": 2440778,
        "name": "Namaro",
        "children": [
            
        ]
    },
    {
        "geonameId": 2440734,
        "name": "Ndiay\u00e9",
        "children": [
            
        ]
    },
    {
        "geonameId": 2445433,
        "name": "Ndounga",
        "children": [
            
        ]
    },
    {
        "geonameId": 2445432,
        "name": "Ndounga Tarey",
        "children": [
            
        ]
    },
    {
        "geonameId": 2440489,
        "name": "Niab\u00e9ri Kouara",
        "children": [
            
        ]
    },
    {
        "geonameId": 2440464,
        "name": "Nodir\u00e9 B\u00e9nafar\u00e9",
        "children": [
            
        ]
    },
    {
        "geonameId": 2440728,
        "name": "N\u00e9yniko\u00efdam\u00e9",
        "children": [
            
        ]
    },
    {
        "geonameId": 2440371,
        "name": "Ouallam",
        "children": [
            
        ]
    },
    {
        "geonameId": 2440248,
        "name": "Ouro Gu\u00e9ladio",
        "children": [
            
        ]
    },
    {
        "geonameId": 2440245,
        "name": "Ouro Mousa Banaba",
        "children": [
            
        ]
    },
    {
        "geonameId": 2440241,
        "name": "Ouro Sawab\u00e9",
        "children": [
            
        ]
    },
    {
        "geonameId": 2440317,
        "name": "Ouro Soldou",
        "children": [
            
        ]
    },
    {
        "geonameId": 2440236,
        "name": "Ouro Timba",
        "children": [
            
        ]
    },
    {
        "geonameId": 2439965,
        "name": "Sakoyra",
        "children": [
            
        ]
    },
    {
        "geonameId": 2439904,
        "name": "Sanam",
        "children": [
            
        ]
    },
    {
        "geonameId": 2439621,
        "name": "Sansan\u00e9 Haoussa",
        "children": [
            
        ]
    },
    {
        "geonameId": 2439812,
        "name": "Say",
        "children": [
            
        ]
    },
    {
        "geonameId": 2439713,
        "name": "Simiri",
        "children": [
            
        ]
    },
    {
        "geonameId": 2439705,
        "name": "Sind\u00e8r",
        "children": [
            
        ]
    },
    {
        "geonameId": 2439619,
        "name": "Sorbon Haoussa",
        "children": [
            
        ]
    },
    {
        "geonameId": 2439596,
        "name": "Soudour\u00e9",
        "children": [
            
        ]
    },
    {
        "geonameId": 2439557,
        "name": "Sounga Dossado",
        "children": [
            
        ]
    },
    {
        "geonameId": 2439493,
        "name": "Tabla",
        "children": [
            
        ]
    },
    {
        "geonameId": 2439445,
        "name": "Tafa Kouara",
        "children": [
            
        ]
    },
    {
        "geonameId": 2439442,
        "name": "Tagabati",
        "children": [
            
        ]
    },
    {
        "geonameId": 2439343,
        "name": "Takawat Deux",
        "children": [
            
        ]
    },
    {
        "geonameId": 2439344,
        "name": "Takawat Un",
        "children": [
            
        ]
    },
    {
        "geonameId": 2439263,
        "name": "Talkadabey",
        "children": [
            
        ]
    },
    {
        "geonameId": 2439205,
        "name": "Tamou",
        "children": [
            
        ]
    },
    {
        "geonameId": 2439094,
        "name": "Tarkasa",
        "children": [
            
        ]
    },
    {
        "geonameId": 2439090,
        "name": "Taroum",
        "children": [
            
        ]
    },
    {
        "geonameId": 2438205,
        "name": "Tassi Kouara",
        "children": [
            
        ]
    },
    {
        "geonameId": 2438195,
        "name": "Tchakawa",
        "children": [
            
        ]
    },
    {
        "geonameId": 2438799,
        "name": "Tiagal",
        "children": [
            
        ]
    },
    {
        "geonameId": 2438185,
        "name": "Tiaptey Tondo",
        "children": [
            
        ]
    },
    {
        "geonameId": 2438735,
        "name": "Tientienga",
        "children": [
            
        ]
    },
    {
        "geonameId": 2438737,
        "name": "Tientiergou",
        "children": [
            
        ]
    },
    {
        "geonameId": 2438711,
        "name": "Tig\u00e9z\u00e9fen Safongari",
        "children": [
            
        ]
    },
    {
        "geonameId": 2438678,
        "name": "Tillab\u00e9ri",
        "children": [
            
        ]
    },
    {
        "geonameId": 2438659,
        "name": "Timborane Hata",
        "children": [
            
        ]
    },
    {
        "geonameId": 2438658,
        "name": "Timborane Soli",
        "children": [
            
        ]
    },
    {
        "geonameId": 2438574,
        "name": "Tiombango",
        "children": [
            
        ]
    },
    {
        "geonameId": 2438687,
        "name": "Tirboy",
        "children": [
            
        ]
    },
    {
        "geonameId": 2438171,
        "name": "Ti\u00e9la Doundoudi\u00e9",
        "children": [
            
        ]
    },
    {
        "geonameId": 2438175,
        "name": "Ti\u00e9lel",
        "children": [
            
        ]
    },
    {
        "geonameId": 2438174,
        "name": "Ti\u00e9l\u00e9l",
        "children": [
            
        ]
    },
    {
        "geonameId": 2439264,
        "name": "Tolkoboy Koara Tegi",
        "children": [
            
        ]
    },
    {
        "geonameId": 2438455,
        "name": "Tondi Darey",
        "children": [
            
        ]
    },
    {
        "geonameId": 2438438,
        "name": "Tondi Kiboro",
        "children": [
            
        ]
    },
    {
        "geonameId": 2438435,
        "name": "Tondi Kirey",
        "children": [
            
        ]
    },
    {
        "geonameId": 2438443,
        "name": "Tondi Kiwindi",
        "children": [
            
        ]
    },
    {
        "geonameId": 2438439,
        "name": "Tondi Kouarey",
        "children": [
            
        ]
    },
    {
        "geonameId": 2438432,
        "name": "Tondi Tir\u00e9",
        "children": [
            
        ]
    },
    {
        "geonameId": 2438459,
        "name": "Tondibia",
        "children": [
            
        ]
    },
    {
        "geonameId": 2438440,
        "name": "Tondikoir\u00e9",
        "children": [
            
        ]
    },
    {
        "geonameId": 2438409,
        "name": "Torodi",
        "children": [
            
        ]
    },
    {
        "geonameId": 2438313,
        "name": "Toulou Ndam\u00e9sa",
        "children": [
            
        ]
    },
    {
        "geonameId": 2438328,
        "name": "Touloua Kouarey",
        "children": [
            
        ]
    },
    {
        "geonameId": 2438310,
        "name": "Toulouar\u00e9",
        "children": [
            
        ]
    },
    {
        "geonameId": 2438286,
        "name": "Tounfaliz",
        "children": [
            
        ]
    },
    {
        "geonameId": 2438199,
        "name": "Tuiz\u00e9gorou",
        "children": [
            
        ]
    },
    {
        "geonameId": 2438899,
        "name": "T\u00e9ko Baba Kouara",
        "children": [
            
        ]
    },
    {
        "geonameId": 2438898,
        "name": "T\u00e9kou Foundi",
        "children": [
            
        ]
    },
    {
        "geonameId": 2438855,
        "name": "T\u00e9ra",
        "children": [
            
        ]
    },
    {
        "geonameId": 2440375,
        "name": "Wark\u00e9r\u00e9",
        "children": [
            
        ]
    },
    {
        "geonameId": 2438078,
        "name": "Wind\u00e9 Ka\u00efna",
        "children": [
            
        ]
    },
    {
        "geonameId": 2440321,
        "name": "W\u00e8lla Sofon Gari",
        "children": [
            
        ]
    },
    {
        "geonameId": 2437990,
        "name": "Yelwani",
        "children": [
            
        ]
    },
    {
        "geonameId": 2437940,
        "name": "Yor\u00e9iz\u00e9 Kouara",
        "children": [
            
        ]
    },
    {
        "geonameId": 2437941,
        "name": "You Kouara",
        "children": [
            
        ]
    },
    {
        "geonameId": 2437934,
        "name": "Youri Kourt\u00e9r\u00e9",
        "children": [
            
        ]
    },
    {
        "geonameId": 2437960,
        "name": "Y\u00e9t\u00e9 Kouara",
        "children": [
            
        ]
    },
    {
        "geonameId": 2437897,
        "name": "Zama Kouara T\u00e9gui",
        "children": [
            
        ]
    },
    {
        "geonameId": 2437898,
        "name": "Zama Kouara Z\u00e9no",
        "children": [
            
        ]
    },
    {
        "geonameId": 2445619,
        "name": "Zan\u00e9",
        "children": [
            
        ]
    },
    {
        "geonameId": 2437805,
        "name": "Ziguida",
        "children": [
            
        ]
    },
    {
        "geonameId": 2437754,
        "name": "Zouragane",
        "children": [
            
        ]
    }
]