[
    {
        "geonameId": 2444994,
        "name": "D\u00e9partement de Filingu\u00e9",
        "children": [
            
        ]
    },
    {
        "geonameId": 2440482,
        "name": "D\u00e9partement de Niamey",
        "children": [
            
        ]
    },
    {
        "geonameId": 2440370,
        "name": "D\u00e9partement de Ouallam",
        "children": [
            
        ]
    },
    {
        "geonameId": 2439811,
        "name": "D\u00e9partement de Say",
        "children": [
            
        ]
    },
    {
        "geonameId": 2438677,
        "name": "D\u00e9partement de Tillab\u00e9ri",
        "children": [
            
        ]
    },
    {
        "geonameId": 2438854,
        "name": "D\u00e9partement de T\u00e9ra",
        "children": [
            
        ]
    },
    {
        "geonameId": 8334578,
        "name": "Kollo Department",
        "children": [
            
        ]
    },
    {
        "geonameId": 8334577,
        "name": "Tera Department",
        "children": [
            
        ]
    },
    {
        "geonameId": 8334576,
        "name": "Tillaberi Department",
        "children": [
            
        ]
    }
]