[
    {
        "geonameId": 2367567,
        "name": "Pr\u00e9fecture de Bassar",
        "children": [
            {
                "geonameId": 2367568,
                "name": "Bassar",
                "children": [
                    
                ]
            }
        ]
    },
    {
        "geonameId": 2597446,
        "name": "Pr\u00e9fecture de Dankpen",
        "children": [
            
        ]
    },
    {
        "geonameId": 2364811,
        "name": "Pr\u00e9fecture de Doufelgou",
        "children": [
            
        ]
    },
    {
        "geonameId": 2366167,
        "name": "Pr\u00e9fecture de K\u00e9ran",
        "children": [
            
        ]
    },
    {
        "geonameId": 2365570,
        "name": "Pr\u00e9fecture de la Binah",
        "children": [
            
        ]
    },
    {
        "geonameId": 2365382,
        "name": "Pr\u00e9fecture de la Kozah",
        "children": [
            
        ]
    },
    {
        "geonameId": 2367655,
        "name": "Pr\u00e9fecture d\u2019Assoli",
        "children": [
            
        ]
    }
]