[
    {
        "geonameId": 2595339,
        "name": "D\u00e9partement de Dabou",
        "children": [
            
        ]
    },
    {
        "geonameId": 2595340,
        "name": "D\u00e9partement de Grand-Bassam",
        "children": [
            
        ]
    },
    {
        "geonameId": 2288104,
        "name": "D\u00e9partement de Grand-Lahou",
        "children": [
            
        ]
    },
    {
        "geonameId": 2595341,
        "name": "D\u00e9partement de Jacqueville",
        "children": [
            
        ]
    },
    {
        "geonameId": 2280760,
        "name": "D\u00e9partement de Tiassal\u00e9",
        "children": [
            
        ]
    },
    {
        "geonameId": 2293537,
        "name": "D\u00e9partement d\u2019 Abidjan",
        "children": [
            
        ]
    },
    {
        "geonameId": 2293341,
        "name": "D\u00e9partement d\u2019Adzop\u00e9",
        "children": [
            
        ]
    },
    {
        "geonameId": 2293267,
        "name": "D\u00e9partement d\u2019Agboville",
        "children": [
            
        ]
    },
    {
        "geonameId": 2595337,
        "name": "D\u00e9partement d\u2019Al\u00e9p\u00e9",
        "children": [
            
        ]
    }
]