[
    {
        "geonameId": 2595338,
        "name": "D\u00e9partement de Bocanda",
        "children": [
            
        ]
    },
    {
        "geonameId": 2291112,
        "name": "D\u00e9partement de Bongouanou",
        "children": [
            
        ]
    },
    {
        "geonameId": 2290410,
        "name": "D\u00e9partement de Daoukro",
        "children": [
            
        ]
    },
    {
        "geonameId": 2289981,
        "name": "D\u00e9partement de Dimbokro",
        "children": [
            
        ]
    },
    {
        "geonameId": 2284488,
        "name": "D\u00e9partement de M\u2019bahiakro",
        "children": [
            
        ]
    },
    {
        "geonameId": 2595342,
        "name": "D\u00e9partement de Ti\u00e9bissou",
        "children": [
            
        ]
    },
    {
        "geonameId": 2280314,
        "name": "D\u00e9partement de Toumodi",
        "children": [
            
        ]
    },
    {
        "geonameId": 2279754,
        "name": "D\u00e9partement de Yamoussoukro",
        "children": [
            
        ]
    }
]