[
    {
        "geonameId": 3351379,
        "name": "Munic\u00edpio Caconda",
        "children": [
            
        ]
    },
    {
        "geonameId": 3351021,
        "name": "Munic\u00edpio Caluquembe",
        "children": [
            
        ]
    },
    {
        "geonameId": 3350009,
        "name": "Munic\u00edpio Chiange",
        "children": [
            
        ]
    },
    {
        "geonameId": 3349996,
        "name": "Munic\u00edpio Chibia",
        "children": [
            {
                "geonameId": 3349997,
                "name": "Chibia",
                "children": [
                    
                ]
            }
        ]
    },
    {
        "geonameId": 3349949,
        "name": "Munic\u00edpio Chicomba",
        "children": [
            
        ]
    },
    {
        "geonameId": 3349647,
        "name": "Munic\u00edpio Chipindo",
        "children": [
            
        ]
    },
    {
        "geonameId": 3348286,
        "name": "Munic\u00edpio Humpata",
        "children": [
            
        ]
    },
    {
        "geonameId": 3348165,
        "name": "Munic\u00edpio Jamba",
        "children": [
            
        ]
    },
    {
        "geonameId": 3348075,
        "name": "Munic\u00edpio Kuvango",
        "children": [
            
        ]
    },
    {
        "geonameId": 3347760,
        "name": "Munic\u00edpio Lubango",
        "children": [
            {
                "geonameId": 3348916,
                "name": "Dinde",
                "children": [
                    
                ]
            },
            {
                "geonameId": 3346562,
                "name": "Quilemba",
                "children": [
                    
                ]
            }
        ]
    },
    {
        "geonameId": 3347423,
        "name": "Munic\u00edpio Matala",
        "children": [
            
        ]
    },
    {
        "geonameId": 3346556,
        "name": "Munic\u00edpio Quilengues",
        "children": [
            
        ]
    },
    {
        "geonameId": 3346496,
        "name": "Munic\u00edpio Quipungo",
        "children": [
            {
                "geonameId": 3348882,
                "name": "Dondo",
                "children": [
                    
                ]
            }
        ]
    }
]