[
    {
        "geonameId": 3351758,
        "name": "Munic\u00edpio Balombo",
        "children": [
            
        ]
    },
    {
        "geonameId": 3351760,
        "name": "Munic\u00edpio Balombo",
        "children": [
            
        ]
    },
    {
        "geonameId": 3351785,
        "name": "Munic\u00edpio Ba\u00eda Farta",
        "children": [
            
        ]
    },
    {
        "geonameId": 3351661,
        "name": "Munic\u00edpio Benguela",
        "children": [
            
        ]
    },
    {
        "geonameId": 3351597,
        "name": "Munic\u00edpio Bocoio",
        "children": [
            {
                "geonameId": 3372425,
                "name": "Dondo",
                "children": [
                    
                ]
            }
        ]
    },
    {
        "geonameId": 3351267,
        "name": "Munic\u00edpio Caimbambo",
        "children": [
            
        ]
    },
    {
        "geonameId": 3349404,
        "name": "Munic\u00edpio Chongoroi",
        "children": [
            
        ]
    },
    {
        "geonameId": 3349225,
        "name": "Munic\u00edpio Cubal",
        "children": [
            
        ]
    },
    {
        "geonameId": 3348578,
        "name": "Munic\u00edpio Ganda",
        "children": [
            {
                "geonameId": 3351921,
                "name": "Alto Catumbela",
                "children": [
                    
                ]
            }
        ]
    },
    {
        "geonameId": 3347937,
        "name": "Munic\u00edpio Lobito",
        "children": [
            {
                "geonameId": 3371627,
                "name": "Evale",
                "children": [
                    
                ]
            }
        ]
    }
]