[
    {
        "geonameId": 9212598,
        "name": "Barkeol",
        "children": [
            
        ]
    },
    {
        "geonameId": 3351013,
        "name": "Concelho de Camacupa",
        "children": [
            
        ]
    },
    {
        "geonameId": 3351882,
        "name": "Munic\u00edpio Andulo",
        "children": [
            
        ]
    },
    {
        "geonameId": 3351012,
        "name": "Munic\u00edpio Camacupa",
        "children": [
            
        ]
    },
    {
        "geonameId": 3350370,
        "name": "Munic\u00edpio Catabola",
        "children": [
            
        ]
    },
    {
        "geonameId": 3349722,
        "name": "Munic\u00edpio Chinguar",
        "children": [
            
        ]
    },
    {
        "geonameId": 3349514,
        "name": "Munic\u00edpio Chitembo",
        "children": [
            
        ]
    },
    {
        "geonameId": 3349179,
        "name": "Munic\u00edpio Cuemba",
        "children": [
            
        ]
    },
    {
        "geonameId": 3349078,
        "name": "Munic\u00edpio Cunhinga",
        "children": [
            
        ]
    },
    {
        "geonameId": 3348077,
        "name": "Munic\u00edpio Kuito",
        "children": [
            
        ]
    },
    {
        "geonameId": 3346941,
        "name": "Munic\u00edpio N\u2019harea",
        "children": [
            
        ]
    }
]