[
    {
        "geonameId": 3358772,
        "name": "Akweenyanga",
        "children": [
            
        ]
    },
    {
        "geonameId": 3358715,
        "name": "Amutanga",
        "children": [
            
        ]
    },
    {
        "geonameId": 3358708,
        "name": "Amweepele",
        "children": [
            
        ]
    },
    {
        "geonameId": 3358671,
        "name": "Arabia",
        "children": [
            
        ]
    },
    {
        "geonameId": 3357781,
        "name": "Ehangano",
        "children": [
            
        ]
    },
    {
        "geonameId": 3357782,
        "name": "Ehangano",
        "children": [
            
        ]
    },
    {
        "geonameId": 3357687,
        "name": "Emonso",
        "children": [
            
        ]
    },
    {
        "geonameId": 3357640,
        "name": "Epyalyiipundu",
        "children": [
            
        ]
    },
    {
        "geonameId": 3357616,
        "name": "Esati",
        "children": [
            
        ]
    },
    {
        "geonameId": 3357598,
        "name": "Etale Lyeenguwa",
        "children": [
            
        ]
    },
    {
        "geonameId": 3356621,
        "name": "Iikelo",
        "children": [
            
        ]
    },
    {
        "geonameId": 3356618,
        "name": "Iindangungu",
        "children": [
            
        ]
    },
    {
        "geonameId": 3355716,
        "name": "Limbandalunga",
        "children": [
            
        ]
    },
    {
        "geonameId": 3355356,
        "name": "Nakamwandi",
        "children": [
            
        ]
    },
    {
        "geonameId": 3354945,
        "name": "Ohambungu",
        "children": [
            
        ]
    },
    {
        "geonameId": 3354930,
        "name": "Ohaziwa",
        "children": [
            
        ]
    },
    {
        "geonameId": 3354868,
        "name": "Okaku",
        "children": [
            
        ]
    },
    {
        "geonameId": 3354856,
        "name": "Okalimbo",
        "children": [
            
        ]
    },
    {
        "geonameId": 3354759,
        "name": "Okatana",
        "children": [
            
        ]
    },
    {
        "geonameId": 3354721,
        "name": "Okatyali",
        "children": [
            
        ]
    },
    {
        "geonameId": 3354576,
        "name": "Omaalala",
        "children": [
            
        ]
    },
    {
        "geonameId": 3354569,
        "name": "Omahahi",
        "children": [
            
        ]
    },
    {
        "geonameId": 3354565,
        "name": "Omahini",
        "children": [
            
        ]
    },
    {
        "geonameId": 3354537,
        "name": "Omashaka",
        "children": [
            
        ]
    },
    {
        "geonameId": 3354458,
        "name": "Omege",
        "children": [
            
        ]
    },
    {
        "geonameId": 3354431,
        "name": "Ompandakani",
        "children": [
            
        ]
    },
    {
        "geonameId": 3354429,
        "name": "Ompunda",
        "children": [
            
        ]
    },
    {
        "geonameId": 3354428,
        "name": "Ompundja",
        "children": [
            
        ]
    },
    {
        "geonameId": 3354413,
        "name": "Omukundagwana",
        "children": [
            
        ]
    },
    {
        "geonameId": 3354391,
        "name": "Omupanda",
        "children": [
            
        ]
    },
    {
        "geonameId": 3354373,
        "name": "Omusimboti",
        "children": [
            
        ]
    },
    {
        "geonameId": 3354372,
        "name": "Omutala",
        "children": [
            
        ]
    },
    {
        "geonameId": 3354310,
        "name": "Onamayo",
        "children": [
            
        ]
    },
    {
        "geonameId": 3354288,
        "name": "Onamutai",
        "children": [
            
        ]
    },
    {
        "geonameId": 3354247,
        "name": "Ondangwa",
        "children": [
            
        ]
    },
    {
        "geonameId": 3354224,
        "name": "Ondjondjo",
        "children": [
            
        ]
    },
    {
        "geonameId": 3354147,
        "name": "Ongwediva",
        "children": [
            
        ]
    },
    {
        "geonameId": 3354131,
        "name": "Oniimwandi",
        "children": [
            
        ]
    },
    {
        "geonameId": 3354122,
        "name": "Onkumbwiimbwi",
        "children": [
            
        ]
    },
    {
        "geonameId": 3354104,
        "name": "Onyeka",
        "children": [
            
        ]
    },
    {
        "geonameId": 3354098,
        "name": "Onzinzi",
        "children": [
            
        ]
    },
    {
        "geonameId": 3354024,
        "name": "Oshaakondwa",
        "children": [
            
        ]
    },
    {
        "geonameId": 3354021,
        "name": "Oshakati",
        "children": [
            
        ]
    },
    {
        "geonameId": 3354002,
        "name": "Oshekasheka",
        "children": [
            
        ]
    },
    {
        "geonameId": 3353992,
        "name": "Oshikondiilongo",
        "children": [
            
        ]
    },
    {
        "geonameId": 3353993,
        "name": "Oshikondiilongo",
        "children": [
            
        ]
    },
    {
        "geonameId": 3353973,
        "name": "Oshipumbu",
        "children": [
            
        ]
    },
    {
        "geonameId": 3353969,
        "name": "Oshitayi",
        "children": [
            
        ]
    },
    {
        "geonameId": 3352447,
        "name": "Uukwiwongwe",
        "children": [
            
        ]
    },
    {
        "geonameId": 3352446,
        "name": "Uukwiyu",
        "children": [
            
        ]
    },
    {
        "geonameId": 3352445,
        "name": "Uulungawaanayaangolo",
        "children": [
            
        ]
    }
]