[
    {
        "geonameId": 3358773,
        "name": "Akutsima",
        "children": [
            
        ]
    },
    {
        "geonameId": 3358748,
        "name": "Amaadhala",
        "children": [
            
        ]
    },
    {
        "geonameId": 3358737,
        "name": "Amarika",
        "children": [
            
        ]
    },
    {
        "geonameId": 3358709,
        "name": "Amwaanda",
        "children": [
            
        ]
    },
    {
        "geonameId": 3358704,
        "name": "Anamulenge",
        "children": [
            
        ]
    },
    {
        "geonameId": 3357813,
        "name": "Eehama",
        "children": [
            
        ]
    },
    {
        "geonameId": 3357809,
        "name": "Eendombe",
        "children": [
            
        ]
    },
    {
        "geonameId": 3357806,
        "name": "Eengolo",
        "children": [
            
        ]
    },
    {
        "geonameId": 3357780,
        "name": "Eheke",
        "children": [
            
        ]
    },
    {
        "geonameId": 3357779,
        "name": "Eholongo",
        "children": [
            
        ]
    },
    {
        "geonameId": 3357755,
        "name": "Ekamba",
        "children": [
            
        ]
    },
    {
        "geonameId": 3357739,
        "name": "Ekwili",
        "children": [
            
        ]
    },
    {
        "geonameId": 3357737,
        "name": "Elalangali",
        "children": [
            
        ]
    },
    {
        "geonameId": 3357716,
        "name": "Elim",
        "children": [
            
        ]
    },
    {
        "geonameId": 3357699,
        "name": "Elondo",
        "children": [
            
        ]
    },
    {
        "geonameId": 3357675,
        "name": "Enkundi",
        "children": [
            
        ]
    },
    {
        "geonameId": 3357672,
        "name": "Enoleu",
        "children": [
            
        ]
    },
    {
        "geonameId": 3357669,
        "name": "Enongo",
        "children": [
            
        ]
    },
    {
        "geonameId": 3357670,
        "name": "Enongo",
        "children": [
            
        ]
    },
    {
        "geonameId": 3357655,
        "name": "Epato",
        "children": [
            
        ]
    },
    {
        "geonameId": 3357649,
        "name": "Epoko",
        "children": [
            
        ]
    },
    {
        "geonameId": 3357609,
        "name": "Esheshete",
        "children": [
            
        ]
    },
    {
        "geonameId": 3357592,
        "name": "Etayi",
        "children": [
            
        ]
    },
    {
        "geonameId": 3357587,
        "name": "Etilyasa",
        "children": [
            
        ]
    },
    {
        "geonameId": 3357574,
        "name": "Etshinga",
        "children": [
            
        ]
    },
    {
        "geonameId": 3357570,
        "name": "Etunda",
        "children": [
            
        ]
    },
    {
        "geonameId": 3357568,
        "name": "Eunda",
        "children": [
            
        ]
    },
    {
        "geonameId": 3356625,
        "name": "Iihamyongwe",
        "children": [
            
        ]
    },
    {
        "geonameId": 3356624,
        "name": "Iihanguti",
        "children": [
            
        ]
    },
    {
        "geonameId": 3356622,
        "name": "Iikango",
        "children": [
            
        ]
    },
    {
        "geonameId": 3356619,
        "name": "Iilambo",
        "children": [
            
        ]
    },
    {
        "geonameId": 3356617,
        "name": "Iipanda",
        "children": [
            
        ]
    },
    {
        "geonameId": 3356613,
        "name": "Iitapa",
        "children": [
            
        ]
    },
    {
        "geonameId": 3356599,
        "name": "Ingururu",
        "children": [
            
        ]
    },
    {
        "geonameId": 3355355,
        "name": "Nakayale",
        "children": [
            
        ]
    },
    {
        "geonameId": 3354972,
        "name": "Odimbwa",
        "children": [
            
        ]
    },
    {
        "geonameId": 3354965,
        "name": "Ogongo",
        "children": [
            
        ]
    },
    {
        "geonameId": 3354897,
        "name": "Okahao",
        "children": [
            
        ]
    },
    {
        "geonameId": 3354875,
        "name": "Okakekete",
        "children": [
            
        ]
    },
    {
        "geonameId": 3354874,
        "name": "Okakewa",
        "children": [
            
        ]
    },
    {
        "geonameId": 3354857,
        "name": "Okalili",
        "children": [
            
        ]
    },
    {
        "geonameId": 3354851,
        "name": "Okalondo",
        "children": [
            
        ]
    },
    {
        "geonameId": 3354850,
        "name": "Okalongo",
        "children": [
            
        ]
    },
    {
        "geonameId": 3354833,
        "name": "Okambebe",
        "children": [
            
        ]
    },
    {
        "geonameId": 3354811,
        "name": "Okando",
        "children": [
            
        ]
    },
    {
        "geonameId": 3354777,
        "name": "Okapya",
        "children": [
            
        ]
    },
    {
        "geonameId": 3354765,
        "name": "Okashidi",
        "children": [
            
        ]
    },
    {
        "geonameId": 3354756,
        "name": "Okathima",
        "children": [
            
        ]
    },
    {
        "geonameId": 3354754,
        "name": "Okathitu",
        "children": [
            
        ]
    },
    {
        "geonameId": 3354755,
        "name": "Okathitu",
        "children": [
            
        ]
    },
    {
        "geonameId": 3354753,
        "name": "Okathutu",
        "children": [
            
        ]
    },
    {
        "geonameId": 3354752,
        "name": "Okatitu",
        "children": [
            
        ]
    },
    {
        "geonameId": 3354698,
        "name": "Okazimba",
        "children": [
            
        ]
    },
    {
        "geonameId": 3354695,
        "name": "Okeholongo",
        "children": [
            
        ]
    },
    {
        "geonameId": 3354599,
        "name": "Olukonda",
        "children": [
            
        ]
    },
    {
        "geonameId": 3354593,
        "name": "Olumelengwa",
        "children": [
            
        ]
    },
    {
        "geonameId": 3354588,
        "name": "Olupandu",
        "children": [
            
        ]
    },
    {
        "geonameId": 3354587,
        "name": "Olupumbu",
        "children": [
            
        ]
    },
    {
        "geonameId": 3354585,
        "name": "Oluteyi",
        "children": [
            
        ]
    },
    {
        "geonameId": 3354584,
        "name": "Oluvongo",
        "children": [
            
        ]
    },
    {
        "geonameId": 3354582,
        "name": "Olwani",
        "children": [
            
        ]
    },
    {
        "geonameId": 3354578,
        "name": "Olyavahenge",
        "children": [
            
        ]
    },
    {
        "geonameId": 3354552,
        "name": "Omambuumbuu",
        "children": [
            
        ]
    },
    {
        "geonameId": 3354527,
        "name": "Omateleklelo",
        "children": [
            
        ]
    },
    {
        "geonameId": 3354522,
        "name": "Omatwadiva",
        "children": [
            
        ]
    },
    {
        "geonameId": 3354516,
        "name": "Omayulu",
        "children": [
            
        ]
    },
    {
        "geonameId": 3354508,
        "name": "Ombako",
        "children": [
            
        ]
    },
    {
        "geonameId": 3354507,
        "name": "Ombalantu",
        "children": [
            
        ]
    },
    {
        "geonameId": 3354487,
        "name": "Ombonde",
        "children": [
            
        ]
    },
    {
        "geonameId": 3354472,
        "name": "Ombulantu",
        "children": [
            
        ]
    },
    {
        "geonameId": 3354459,
        "name": "Ombwana",
        "children": [
            
        ]
    },
    {
        "geonameId": 3354448,
        "name": "Omindamba",
        "children": [
            
        ]
    },
    {
        "geonameId": 3354436,
        "name": "Omkwa",
        "children": [
            
        ]
    },
    {
        "geonameId": 3354426,
        "name": "Omuditu",
        "children": [
            
        ]
    },
    {
        "geonameId": 3354416,
        "name": "Omukondo",
        "children": [
            
        ]
    },
    {
        "geonameId": 3354370,
        "name": "Omuthima",
        "children": [
            
        ]
    },
    {
        "geonameId": 3354369,
        "name": "Omuthitu",
        "children": [
            
        ]
    },
    {
        "geonameId": 3354368,
        "name": "Omuthitugwonyama",
        "children": [
            
        ]
    },
    {
        "geonameId": 3354357,
        "name": "Omutundungu",
        "children": [
            
        ]
    },
    {
        "geonameId": 3354343,
        "name": "Onaanda",
        "children": [
            
        ]
    },
    {
        "geonameId": 3354307,
        "name": "Onambashu",
        "children": [
            
        ]
    },
    {
        "geonameId": 3354302,
        "name": "Onamhindi",
        "children": [
            
        ]
    },
    {
        "geonameId": 3354294,
        "name": "Onamundindi",
        "children": [
            
        ]
    },
    {
        "geonameId": 3354282,
        "name": "Onandjo",
        "children": [
            
        ]
    },
    {
        "geonameId": 3354278,
        "name": "Onangalo",
        "children": [
            
        ]
    },
    {
        "geonameId": 3354271,
        "name": "Onangombe",
        "children": [
            
        ]
    },
    {
        "geonameId": 3354270,
        "name": "Onanguwo",
        "children": [
            
        ]
    },
    {
        "geonameId": 3354263,
        "name": "Onanyalala",
        "children": [
            
        ]
    },
    {
        "geonameId": 3354223,
        "name": "Ondjungurume",
        "children": [
            
        ]
    },
    {
        "geonameId": 3354210,
        "name": "Ondudu",
        "children": [
            
        ]
    },
    {
        "geonameId": 3354200,
        "name": "Oneeya",
        "children": [
            
        ]
    },
    {
        "geonameId": 3354198,
        "name": "Oneheke",
        "children": [
            
        ]
    },
    {
        "geonameId": 3354195,
        "name": "Onekukumo",
        "children": [
            
        ]
    },
    {
        "geonameId": 3354191,
        "name": "Onelago",
        "children": [
            
        ]
    },
    {
        "geonameId": 3354190,
        "name": "Onembaba",
        "children": [
            
        ]
    },
    {
        "geonameId": 3354183,
        "name": "Onesi",
        "children": [
            
        ]
    },
    {
        "geonameId": 3354178,
        "name": "Ongandjera",
        "children": [
            
        ]
    },
    {
        "geonameId": 3354164,
        "name": "Ongolo",
        "children": [
            
        ]
    },
    {
        "geonameId": 3354146,
        "name": "Onheleiwa",
        "children": [
            
        ]
    },
    {
        "geonameId": 3354136,
        "name": "Oniihati",
        "children": [
            
        ]
    },
    {
        "geonameId": 3354132,
        "name": "Oniimwandi",
        "children": [
            
        ]
    },
    {
        "geonameId": 3354020,
        "name": "Oshali",
        "children": [
            
        ]
    },
    {
        "geonameId": 3353995,
        "name": "Oshikiyu",
        "children": [
            
        ]
    },
    {
        "geonameId": 3353989,
        "name": "Oshikuku",
        "children": [
            
        ]
    },
    {
        "geonameId": 3353985,
        "name": "Oshikushashipya",
        "children": [
            
        ]
    },
    {
        "geonameId": 3353984,
        "name": "Oshikushomunkete",
        "children": [
            
        ]
    },
    {
        "geonameId": 3353980,
        "name": "Oshilulu",
        "children": [
            
        ]
    },
    {
        "geonameId": 3353978,
        "name": "Oshimanya",
        "children": [
            
        ]
    },
    {
        "geonameId": 3353974,
        "name": "Oshipaya",
        "children": [
            
        ]
    },
    {
        "geonameId": 3353970,
        "name": "Oshitalamesho",
        "children": [
            
        ]
    },
    {
        "geonameId": 3353966,
        "name": "Oshiteyatemo",
        "children": [
            
        ]
    },
    {
        "geonameId": 3353959,
        "name": "Oshukwa",
        "children": [
            
        ]
    },
    {
        "geonameId": 3353954,
        "name": "Oshuuli",
        "children": [
            
        ]
    },
    {
        "geonameId": 3353953,
        "name": "Oshuungu",
        "children": [
            
        ]
    },
    {
        "geonameId": 3353937,
        "name": "Otamanzi",
        "children": [
            
        ]
    },
    {
        "geonameId": 3353938,
        "name": "Otamanzi",
        "children": [
            
        ]
    },
    {
        "geonameId": 3353935,
        "name": "Otapatapa",
        "children": [
            
        ]
    },
    {
        "geonameId": 3353928,
        "name": "Othika",
        "children": [
            
        ]
    },
    {
        "geonameId": 3353755,
        "name": "Otsalindi",
        "children": [
            
        ]
    },
    {
        "geonameId": 3371197,
        "name": "Outapi",
        "children": [
            
        ]
    },
    {
        "geonameId": 3352636,
        "name": "Tsandi",
        "children": [
            
        ]
    },
    {
        "geonameId": 3352452,
        "name": "Uukwanatshikale",
        "children": [
            
        ]
    },
    {
        "geonameId": 3352450,
        "name": "Uukwandongo",
        "children": [
            
        ]
    },
    {
        "geonameId": 3352451,
        "name": "Uukwandongo",
        "children": [
            
        ]
    },
    {
        "geonameId": 3352448,
        "name": "Uukwangula",
        "children": [
            
        ]
    },
    {
        "geonameId": 3352443,
        "name": "Uuningu",
        "children": [
            
        ]
    },
    {
        "geonameId": 3352441,
        "name": "Uutsathima",
        "children": [
            
        ]
    },
    {
        "geonameId": 3352440,
        "name": "Uutsima",
        "children": [
            
        ]
    },
    {
        "geonameId": 3352439,
        "name": "Uuvudhiya",
        "children": [
            
        ]
    },
    {
        "geonameId": 3352274,
        "name": "Wakashamane",
        "children": [
            
        ]
    }
]