[
    {
        "geonameId": 3358732,
        "name": "Ambende",
        "children": [
            
        ]
    },
    {
        "geonameId": 3358725,
        "name": "Amilema",
        "children": [
            
        ]
    },
    {
        "geonameId": 3358716,
        "name": "Amukulungundju",
        "children": [
            
        ]
    },
    {
        "geonameId": 3358711,
        "name": "Amuteya",
        "children": [
            
        ]
    },
    {
        "geonameId": 3358712,
        "name": "Amuteya",
        "children": [
            
        ]
    },
    {
        "geonameId": 3358713,
        "name": "Amuteya",
        "children": [
            
        ]
    },
    {
        "geonameId": 3358714,
        "name": "Amuteya",
        "children": [
            
        ]
    },
    {
        "geonameId": 3357885,
        "name": "Driehoek",
        "children": [
            
        ]
    },
    {
        "geonameId": 3357818,
        "name": "Edilanghono",
        "children": [
            
        ]
    },
    {
        "geonameId": 3357776,
        "name": "Ehongo",
        "children": [
            
        ]
    },
    {
        "geonameId": 3357747,
        "name": "Ekoko",
        "children": [
            
        ]
    },
    {
        "geonameId": 3357654,
        "name": "Epeke",
        "children": [
            
        ]
    },
    {
        "geonameId": 3357645,
        "name": "Epumbu",
        "children": [
            
        ]
    },
    {
        "geonameId": 3357608,
        "name": "Esheshete",
        "children": [
            
        ]
    },
    {
        "geonameId": 3357596,
        "name": "Etambo",
        "children": [
            
        ]
    },
    {
        "geonameId": 3357597,
        "name": "Etambo",
        "children": [
            
        ]
    },
    {
        "geonameId": 3357595,
        "name": "Etaneno",
        "children": [
            
        ]
    },
    {
        "geonameId": 3357585,
        "name": "Etjapa",
        "children": [
            
        ]
    },
    {
        "geonameId": 3357186,
        "name": "Gorooab Ost",
        "children": [
            
        ]
    },
    {
        "geonameId": 3357185,
        "name": "Gorooab West",
        "children": [
            
        ]
    },
    {
        "geonameId": 3356623,
        "name": "Iihongo",
        "children": [
            
        ]
    },
    {
        "geonameId": 3356620,
        "name": "Iikokla",
        "children": [
            
        ]
    },
    {
        "geonameId": 3356616,
        "name": "Iipanda",
        "children": [
            
        ]
    },
    {
        "geonameId": 3356615,
        "name": "Iipopo",
        "children": [
            
        ]
    },
    {
        "geonameId": 3356611,
        "name": "Iithindi",
        "children": [
            
        ]
    },
    {
        "geonameId": 3356612,
        "name": "Iithindi",
        "children": [
            
        ]
    },
    {
        "geonameId": 3356084,
        "name": "Kliprand",
        "children": [
            
        ]
    },
    {
        "geonameId": 3355936,
        "name": "Kreta",
        "children": [
            
        ]
    },
    {
        "geonameId": 3355787,
        "name": "Last Hope",
        "children": [
            
        ]
    },
    {
        "geonameId": 3355653,
        "name": "Lyakahani",
        "children": [
            
        ]
    },
    {
        "geonameId": 3355310,
        "name": "Namutoni Gate",
        "children": [
            
        ]
    },
    {
        "geonameId": 3355001,
        "name": "Oab",
        "children": [
            
        ]
    },
    {
        "geonameId": 3354974,
        "name": "Odilayafyenota",
        "children": [
            
        ]
    },
    {
        "geonameId": 3354964,
        "name": "Ohahati",
        "children": [
            
        ]
    },
    {
        "geonameId": 3354963,
        "name": "Ohaihai",
        "children": [
            
        ]
    },
    {
        "geonameId": 3354936,
        "name": "Ohaufiku-Renine",
        "children": [
            
        ]
    },
    {
        "geonameId": 3354919,
        "name": "Ohumbula",
        "children": [
            
        ]
    },
    {
        "geonameId": 3354906,
        "name": "Okadhiya",
        "children": [
            
        ]
    },
    {
        "geonameId": 3354872,
        "name": "Okakololo",
        "children": [
            
        ]
    },
    {
        "geonameId": 3354873,
        "name": "Okakololo",
        "children": [
            
        ]
    },
    {
        "geonameId": 3354863,
        "name": "Okakunda",
        "children": [
            
        ]
    },
    {
        "geonameId": 3354858,
        "name": "Okakwiyu",
        "children": [
            
        ]
    },
    {
        "geonameId": 3354859,
        "name": "Okakwiyu",
        "children": [
            
        ]
    },
    {
        "geonameId": 3354854,
        "name": "Okaloko",
        "children": [
            
        ]
    },
    {
        "geonameId": 3354853,
        "name": "Okalolo",
        "children": [
            
        ]
    },
    {
        "geonameId": 3354848,
        "name": "Okalumpa",
        "children": [
            
        ]
    },
    {
        "geonameId": 3354849,
        "name": "Okalumpa",
        "children": [
            
        ]
    },
    {
        "geonameId": 3354844,
        "name": "Okamakaku",
        "children": [
            
        ]
    },
    {
        "geonameId": 3354829,
        "name": "Okambogo",
        "children": [
            
        ]
    },
    {
        "geonameId": 3354815,
        "name": "Okanaya",
        "children": [
            
        ]
    },
    {
        "geonameId": 3354800,
        "name": "Okankolo",
        "children": [
            
        ]
    },
    {
        "geonameId": 3354790,
        "name": "Okaonde",
        "children": [
            
        ]
    },
    {
        "geonameId": 3354780,
        "name": "Okapuka",
        "children": [
            
        ]
    },
    {
        "geonameId": 3354731,
        "name": "Okatope",
        "children": [
            
        ]
    },
    {
        "geonameId": 3354726,
        "name": "Okatumbo",
        "children": [
            
        ]
    },
    {
        "geonameId": 3354701,
        "name": "Okayala",
        "children": [
            
        ]
    },
    {
        "geonameId": 3354598,
        "name": "Olukonda",
        "children": [
            
        ]
    },
    {
        "geonameId": 3354594,
        "name": "Olukupa",
        "children": [
            
        ]
    },
    {
        "geonameId": 3354591,
        "name": "Oluno",
        "children": [
            
        ]
    },
    {
        "geonameId": 3354577,
        "name": "Olyuulaye",
        "children": [
            
        ]
    },
    {
        "geonameId": 3354570,
        "name": "Omadhiya",
        "children": [
            
        ]
    },
    {
        "geonameId": 3354571,
        "name": "Omadhiya",
        "children": [
            
        ]
    },
    {
        "geonameId": 3354572,
        "name": "Omadhiya",
        "children": [
            
        ]
    },
    {
        "geonameId": 3354573,
        "name": "Omadhiya",
        "children": [
            
        ]
    },
    {
        "geonameId": 3354568,
        "name": "Omahai",
        "children": [
            
        ]
    },
    {
        "geonameId": 3354559,
        "name": "Omako",
        "children": [
            
        ]
    },
    {
        "geonameId": 3354556,
        "name": "Omalambo",
        "children": [
            
        ]
    },
    {
        "geonameId": 3354548,
        "name": "Omangundu",
        "children": [
            
        ]
    },
    {
        "geonameId": 3354549,
        "name": "Omangundu",
        "children": [
            
        ]
    },
    {
        "geonameId": 3354550,
        "name": "Omangundu",
        "children": [
            
        ]
    },
    {
        "geonameId": 3354534,
        "name": "Omatale",
        "children": [
            
        ]
    },
    {
        "geonameId": 3354517,
        "name": "Omayi",
        "children": [
            
        ]
    },
    {
        "geonameId": 3354469,
        "name": "Ombumbu",
        "children": [
            
        ]
    },
    {
        "geonameId": 3354432,
        "name": "Ompanda",
        "children": [
            
        ]
    },
    {
        "geonameId": 3354430,
        "name": "Ompangela",
        "children": [
            
        ]
    },
    {
        "geonameId": 3354402,
        "name": "Omunduungio",
        "children": [
            
        ]
    },
    {
        "geonameId": 3354396,
        "name": "Omunkayi",
        "children": [
            
        ]
    },
    {
        "geonameId": 3354395,
        "name": "Omuntele",
        "children": [
            
        ]
    },
    {
        "geonameId": 3354393,
        "name": "Omunyankwe",
        "children": [
            
        ]
    },
    {
        "geonameId": 3354390,
        "name": "Omupanda",
        "children": [
            
        ]
    },
    {
        "geonameId": 3354385,
        "name": "Omupumba",
        "children": [
            
        ]
    },
    {
        "geonameId": 3354367,
        "name": "Omuthiya",
        "children": [
            
        ]
    },
    {
        "geonameId": 3354359,
        "name": "Omutsegwombandje",
        "children": [
            
        ]
    },
    {
        "geonameId": 3354351,
        "name": "Omutwrwomedi",
        "children": [
            
        ]
    },
    {
        "geonameId": 3354342,
        "name": "Onahenene",
        "children": [
            
        ]
    },
    {
        "geonameId": 3354341,
        "name": "Onahi",
        "children": [
            
        ]
    },
    {
        "geonameId": 3354340,
        "name": "Onahima",
        "children": [
            
        ]
    },
    {
        "geonameId": 3354334,
        "name": "Onakalunga",
        "children": [
            
        ]
    },
    {
        "geonameId": 3354333,
        "name": "Onakandi",
        "children": [
            
        ]
    },
    {
        "geonameId": 3354332,
        "name": "Onakandjangi",
        "children": [
            
        ]
    },
    {
        "geonameId": 3354330,
        "name": "Onakasino",
        "children": [
            
        ]
    },
    {
        "geonameId": 3354328,
        "name": "Onakiidhi",
        "children": [
            
        ]
    },
    {
        "geonameId": 3354327,
        "name": "Onakuku",
        "children": [
            
        ]
    },
    {
        "geonameId": 3354325,
        "name": "Onalunike",
        "children": [
            
        ]
    },
    {
        "geonameId": 3354326,
        "name": "Onalunike",
        "children": [
            
        ]
    },
    {
        "geonameId": 3354322,
        "name": "Onalusheshete",
        "children": [
            
        ]
    },
    {
        "geonameId": 3354323,
        "name": "Onalusheshete",
        "children": [
            
        ]
    },
    {
        "geonameId": 3354321,
        "name": "Onamagwena",
        "children": [
            
        ]
    },
    {
        "geonameId": 3354312,
        "name": "Onamatende",
        "children": [
            
        ]
    },
    {
        "geonameId": 3354311,
        "name": "Onamavo",
        "children": [
            
        ]
    },
    {
        "geonameId": 3354306,
        "name": "Onambeke",
        "children": [
            
        ]
    },
    {
        "geonameId": 3354300,
        "name": "Onamhombo",
        "children": [
            
        ]
    },
    {
        "geonameId": 3354298,
        "name": "Onampengu",
        "children": [
            
        ]
    },
    {
        "geonameId": 3354291,
        "name": "Onamungundo",
        "children": [
            
        ]
    },
    {
        "geonameId": 3354287,
        "name": "Onamutene",
        "children": [
            
        ]
    },
    {
        "geonameId": 3354286,
        "name": "Onamutenya",
        "children": [
            
        ]
    },
    {
        "geonameId": 3354285,
        "name": "Onandi",
        "children": [
            
        ]
    },
    {
        "geonameId": 3354283,
        "name": "Onandjamba",
        "children": [
            
        ]
    },
    {
        "geonameId": 3354281,
        "name": "Onandjokwe",
        "children": [
            
        ]
    },
    {
        "geonameId": 3354279,
        "name": "Onandomba",
        "children": [
            
        ]
    },
    {
        "geonameId": 3354265,
        "name": "Onankali",
        "children": [
            
        ]
    },
    {
        "geonameId": 3354264,
        "name": "Onanona",
        "children": [
            
        ]
    },
    {
        "geonameId": 3354262,
        "name": "Onanyama",
        "children": [
            
        ]
    },
    {
        "geonameId": 3354261,
        "name": "Onashikookaya",
        "children": [
            
        ]
    },
    {
        "geonameId": 3354259,
        "name": "Onathinge",
        "children": [
            
        ]
    },
    {
        "geonameId": 3354252,
        "name": "Ondaakula",
        "children": [
            
        ]
    },
    {
        "geonameId": 3354249,
        "name": "Ondando",
        "children": [
            
        ]
    },
    {
        "geonameId": 3354229,
        "name": "Ondjamba",
        "children": [
            
        ]
    },
    {
        "geonameId": 3354230,
        "name": "Ondjamba",
        "children": [
            
        ]
    },
    {
        "geonameId": 3354219,
        "name": "Ondombeyoshaale",
        "children": [
            
        ]
    },
    {
        "geonameId": 3354197,
        "name": "Onehongo",
        "children": [
            
        ]
    },
    {
        "geonameId": 3354189,
        "name": "Onembenge",
        "children": [
            
        ]
    },
    {
        "geonameId": 3354187,
        "name": "Onepandagulu",
        "children": [
            
        ]
    },
    {
        "geonameId": 3354185,
        "name": "Oneputa",
        "children": [
            
        ]
    },
    {
        "geonameId": 3354182,
        "name": "Ongala",
        "children": [
            
        ]
    },
    {
        "geonameId": 3354179,
        "name": "Ongali",
        "children": [
            
        ]
    },
    {
        "geonameId": 3354169,
        "name": "Ongenga",
        "children": [
            
        ]
    },
    {
        "geonameId": 3354161,
        "name": "Ongombesa",
        "children": [
            
        ]
    },
    {
        "geonameId": 3354152,
        "name": "Onguma",
        "children": [
            
        ]
    },
    {
        "geonameId": 3354150,
        "name": "Ongundi",
        "children": [
            
        ]
    },
    {
        "geonameId": 3354137,
        "name": "Oniihandi",
        "children": [
            
        ]
    },
    {
        "geonameId": 3354134,
        "name": "Oniihwa",
        "children": [
            
        ]
    },
    {
        "geonameId": 3354130,
        "name": "Oniipa",
        "children": [
            
        ]
    },
    {
        "geonameId": 3354128,
        "name": "Oniiwe",
        "children": [
            
        ]
    },
    {
        "geonameId": 3354129,
        "name": "Oniiwe",
        "children": [
            
        ]
    },
    {
        "geonameId": 3354127,
        "name": "Onikila",
        "children": [
            
        ]
    },
    {
        "geonameId": 3354121,
        "name": "Onkwinkwiti",
        "children": [
            
        ]
    },
    {
        "geonameId": 3354114,
        "name": "Ontananga",
        "children": [
            
        ]
    },
    {
        "geonameId": 3354113,
        "name": "Ontuli",
        "children": [
            
        ]
    },
    {
        "geonameId": 3354112,
        "name": "Ontunda",
        "children": [
            
        ]
    },
    {
        "geonameId": 3354109,
        "name": "Onyaanya",
        "children": [
            
        ]
    },
    {
        "geonameId": 3354106,
        "name": "Onyati",
        "children": [
            
        ]
    },
    {
        "geonameId": 3354107,
        "name": "Onyati",
        "children": [
            
        ]
    },
    {
        "geonameId": 3354105,
        "name": "Onyawanyawa",
        "children": [
            
        ]
    },
    {
        "geonameId": 3354101,
        "name": "Onyuulaye",
        "children": [
            
        ]
    },
    {
        "geonameId": 3354096,
        "name": "Oongodhi",
        "children": [
            
        ]
    },
    {
        "geonameId": 3354016,
        "name": "Oshali",
        "children": [
            
        ]
    },
    {
        "geonameId": 3354015,
        "name": "Oshalongo",
        "children": [
            
        ]
    },
    {
        "geonameId": 3354006,
        "name": "Oshanyata",
        "children": [
            
        ]
    },
    {
        "geonameId": 3354001,
        "name": "Oshidundumbe",
        "children": [
            
        ]
    },
    {
        "geonameId": 3353997,
        "name": "Oshigambo",
        "children": [
            
        ]
    },
    {
        "geonameId": 3353991,
        "name": "Oshikondiilongo",
        "children": [
            
        ]
    },
    {
        "geonameId": 3353988,
        "name": "Oshikulu",
        "children": [
            
        ]
    },
    {
        "geonameId": 3353979,
        "name": "Oshilungi",
        "children": [
            
        ]
    },
    {
        "geonameId": 3353968,
        "name": "Oshitayi",
        "children": [
            
        ]
    },
    {
        "geonameId": 3353967,
        "name": "Oshiteni",
        "children": [
            
        ]
    },
    {
        "geonameId": 3353964,
        "name": "Oshityoshikukutu",
        "children": [
            
        ]
    },
    {
        "geonameId": 3353962,
        "name": "Oshivelo",
        "children": [
            
        ]
    },
    {
        "geonameId": 3353961,
        "name": "Oshiya",
        "children": [
            
        ]
    },
    {
        "geonameId": 3353927,
        "name": "Othile",
        "children": [
            
        ]
    },
    {
        "geonameId": 3353698,
        "name": "Oyovu",
        "children": [
            
        ]
    },
    {
        "geonameId": 3353556,
        "name": "Randeier",
        "children": [
            
        ]
    },
    {
        "geonameId": 3352912,
        "name": "Stilhoek",
        "children": [
            
        ]
    },
    {
        "geonameId": 3352604,
        "name": "Tsintsabis",
        "children": [
            
        ]
    },
    {
        "geonameId": 3352593,
        "name": "Tsumeb",
        "children": [
            
        ]
    },
    {
        "geonameId": 3352588,
        "name": "Tsutsab",
        "children": [
            
        ]
    },
    {
        "geonameId": 3352457,
        "name": "Utilo",
        "children": [
            
        ]
    },
    {
        "geonameId": 3352453,
        "name": "Uukwanambwa",
        "children": [
            
        ]
    },
    {
        "geonameId": 3352442,
        "name": "Uuntyaye",
        "children": [
            
        ]
    },
    {
        "geonameId": 3352152,
        "name": "Wildernis",
        "children": [
            
        ]
    },
    {
        "geonameId": 3352153,
        "name": "Wildernis",
        "children": [
            
        ]
    },
    {
        "geonameId": 3352154,
        "name": "Wildernis",
        "children": [
            
        ]
    }
]