[
    {
        "geonameId": 3358822,
        "name": "Abenab",
        "children": [
            
        ]
    },
    {
        "geonameId": 3358681,
        "name": "Anker",
        "children": [
            
        ]
    },
    {
        "geonameId": 3358682,
        "name": "Anker",
        "children": [
            
        ]
    },
    {
        "geonameId": 3358651,
        "name": "Arbeidsloon",
        "children": [
            
        ]
    },
    {
        "geonameId": 3358433,
        "name": "Bergquell",
        "children": [
            
        ]
    },
    {
        "geonameId": 3358289,
        "name": "Boomplaas",
        "children": [
            
        ]
    },
    {
        "geonameId": 3358225,
        "name": "Bulhoek",
        "children": [
            
        ]
    },
    {
        "geonameId": 3358222,
        "name": "Bulskop",
        "children": [
            
        ]
    },
    {
        "geonameId": 3358223,
        "name": "Bulskop",
        "children": [
            
        ]
    },
    {
        "geonameId": 3358131,
        "name": "Coblenz",
        "children": [
            
        ]
    },
    {
        "geonameId": 3358027,
        "name": "De Start",
        "children": [
            
        ]
    },
    {
        "geonameId": 3358040,
        "name": "Denarius",
        "children": [
            
        ]
    },
    {
        "geonameId": 3358035,
        "name": "Deo-Volente",
        "children": [
            
        ]
    },
    {
        "geonameId": 3358005,
        "name": "Die End",
        "children": [
            
        ]
    },
    {
        "geonameId": 3357996,
        "name": "Die Park",
        "children": [
            
        ]
    },
    {
        "geonameId": 3357884,
        "name": "Driemaal",
        "children": [
            
        ]
    },
    {
        "geonameId": 3357867,
        "name": "Duinekraal",
        "children": [
            
        ]
    },
    {
        "geonameId": 3357848,
        "name": "Dusternbrook",
        "children": [
            
        ]
    },
    {
        "geonameId": 3357843,
        "name": "Duwib",
        "children": [
            
        ]
    },
    {
        "geonameId": 3357740,
        "name": "Ekwenye",
        "children": [
            
        ]
    },
    {
        "geonameId": 3357731,
        "name": "Elandspan",
        "children": [
            
        ]
    },
    {
        "geonameId": 3357690,
        "name": "Emmanuel",
        "children": [
            
        ]
    },
    {
        "geonameId": 3357643,
        "name": "Epupa",
        "children": [
            
        ]
    },
    {
        "geonameId": 3357639,
        "name": "Erakarombi",
        "children": [
            
        ]
    },
    {
        "geonameId": 3357553,
        "name": "Fairview",
        "children": [
            
        ]
    },
    {
        "geonameId": 1089464,
        "name": "Gam",
        "children": [
            
        ]
    },
    {
        "geonameId": 3357282,
        "name": "Gkamboro Settlement",
        "children": [
            
        ]
    },
    {
        "geonameId": 3357265,
        "name": "Goabis",
        "children": [
            
        ]
    },
    {
        "geonameId": 3357114,
        "name": "Grootfontein",
        "children": [
            
        ]
    },
    {
        "geonameId": 3357087,
        "name": "Gross Barmen",
        "children": [
            
        ]
    },
    {
        "geonameId": 3357031,
        "name": "Gunib",
        "children": [
            
        ]
    },
    {
        "geonameId": 3356939,
        "name": "Hantam",
        "children": [
            
        ]
    },
    {
        "geonameId": 3356862,
        "name": "Heidehof",
        "children": [
            
        ]
    },
    {
        "geonameId": 3356833,
        "name": "Henta",
        "children": [
            
        ]
    },
    {
        "geonameId": 3356786,
        "name": "Hochfeld",
        "children": [
            
        ]
    },
    {
        "geonameId": 3356702,
        "name": "Horison",
        "children": [
            
        ]
    },
    {
        "geonameId": 3356652,
        "name": "Hulde",
        "children": [
            
        ]
    },
    {
        "geonameId": 3356608,
        "name": "Imkerhof",
        "children": [
            
        ]
    },
    {
        "geonameId": 3356487,
        "name": "Kalkfeld",
        "children": [
            
        ]
    },
    {
        "geonameId": 3356258,
        "name": "Keibeb",
        "children": [
            
        ]
    },
    {
        "geonameId": 3356211,
        "name": "Khorusepa",
        "children": [
            
        ]
    },
    {
        "geonameId": 3356018,
        "name": "Kombat",
        "children": [
            
        ]
    },
    {
        "geonameId": 3355962,
        "name": "Koukuas",
        "children": [
            
        ]
    },
    {
        "geonameId": 3355821,
        "name": "Kyalami",
        "children": [
            
        ]
    },
    {
        "geonameId": 3355602,
        "name": "Maria Bronn",
        "children": [
            
        ]
    },
    {
        "geonameId": 3355583,
        "name": "Maroelaboom",
        "children": [
            
        ]
    },
    {
        "geonameId": 3355513,
        "name": "Middelbult",
        "children": [
            
        ]
    },
    {
        "geonameId": 3355469,
        "name": "Mooibome",
        "children": [
            
        ]
    },
    {
        "geonameId": 3355470,
        "name": "Mooibome",
        "children": [
            
        ]
    },
    {
        "geonameId": 3355397,
        "name": "Mylpaal",
        "children": [
            
        ]
    },
    {
        "geonameId": 3355110,
        "name": "Non Dimenticar",
        "children": [
            
        ]
    },
    {
        "geonameId": 3355092,
        "name": "Nore",
        "children": [
            
        ]
    },
    {
        "geonameId": 3354955,
        "name": "Ohakane",
        "children": [
            
        ]
    },
    {
        "geonameId": 3354943,
        "name": "Ohamuheke",
        "children": [
            
        ]
    },
    {
        "geonameId": 3354905,
        "name": "Okaepe",
        "children": [
            
        ]
    },
    {
        "geonameId": 3354898,
        "name": "Okahandja",
        "children": [
            
        ]
    },
    {
        "geonameId": 3354893,
        "name": "Okahitanda",
        "children": [
            
        ]
    },
    {
        "geonameId": 3354892,
        "name": "Okahitwa",
        "children": [
            
        ]
    },
    {
        "geonameId": 3354883,
        "name": "Okahumba",
        "children": [
            
        ]
    },
    {
        "geonameId": 3354876,
        "name": "Okakarara",
        "children": [
            
        ]
    },
    {
        "geonameId": 3354838,
        "name": "Okamatapati",
        "children": [
            
        ]
    },
    {
        "geonameId": 3354827,
        "name": "Okamboro",
        "children": [
            
        ]
    },
    {
        "geonameId": 3354824,
        "name": "Okambukonde",
        "children": [
            
        ]
    },
    {
        "geonameId": 3354822,
        "name": "Okamita",
        "children": [
            
        ]
    },
    {
        "geonameId": 3354814,
        "name": "Okandjira Settlement",
        "children": [
            
        ]
    },
    {
        "geonameId": 3354807,
        "name": "Okangeama",
        "children": [
            
        ]
    },
    {
        "geonameId": 3354806,
        "name": "Okangoho",
        "children": [
            
        ]
    },
    {
        "geonameId": 3354804,
        "name": "Okangwindi",
        "children": [
            
        ]
    },
    {
        "geonameId": 3354798,
        "name": "Okanungu",
        "children": [
            
        ]
    },
    {
        "geonameId": 3354791,
        "name": "Okaokongwinya",
        "children": [
            
        ]
    },
    {
        "geonameId": 3354750,
        "name": "Okatjaveva",
        "children": [
            
        ]
    },
    {
        "geonameId": 3354741,
        "name": "Okatjiparango",
        "children": [
            
        ]
    },
    {
        "geonameId": 3354737,
        "name": "Okatjongwa",
        "children": [
            
        ]
    },
    {
        "geonameId": 3354736,
        "name": "Okatjoruu",
        "children": [
            
        ]
    },
    {
        "geonameId": 3354734,
        "name": "Okatjsoroi",
        "children": [
            
        ]
    },
    {
        "geonameId": 3354729,
        "name": "Okatoto",
        "children": [
            
        ]
    },
    {
        "geonameId": 3354725,
        "name": "Okatumwama",
        "children": [
            
        ]
    },
    {
        "geonameId": 3354724,
        "name": "Okatuwo",
        "children": [
            
        ]
    },
    {
        "geonameId": 3354722,
        "name": "Okatwakoverwa",
        "children": [
            
        ]
    },
    {
        "geonameId": 3354718,
        "name": "Okaue",
        "children": [
            
        ]
    },
    {
        "geonameId": 3354714,
        "name": "Okaundja",
        "children": [
            
        ]
    },
    {
        "geonameId": 3354697,
        "name": "Okazize",
        "children": [
            
        ]
    },
    {
        "geonameId": 3354688,
        "name": "Okeserahi",
        "children": [
            
        ]
    },
    {
        "geonameId": 3354687,
        "name": "Okeserahi Number Two",
        "children": [
            
        ]
    },
    {
        "geonameId": 3354659,
        "name": "Okomuparara",
        "children": [
            
        ]
    },
    {
        "geonameId": 3354654,
        "name": "Okondjatu",
        "children": [
            
        ]
    },
    {
        "geonameId": 3354634,
        "name": "Okotjitundu",
        "children": [
            
        ]
    },
    {
        "geonameId": 3354627,
        "name": "Okoutjove",
        "children": [
            
        ]
    },
    {
        "geonameId": 3354622,
        "name": "Okozonduzu",
        "children": [
            
        ]
    },
    {
        "geonameId": 3354615,
        "name": "Okumumbonde",
        "children": [
            
        ]
    },
    {
        "geonameId": 3354563,
        "name": "Omaihi",
        "children": [
            
        ]
    },
    {
        "geonameId": 3354560,
        "name": "Omakande",
        "children": [
            
        ]
    },
    {
        "geonameId": 3354544,
        "name": "Omapumba",
        "children": [
            
        ]
    },
    {
        "geonameId": 3354531,
        "name": "Omatanga",
        "children": [
            
        ]
    },
    {
        "geonameId": 3354526,
        "name": "Omatjatjeva",
        "children": [
            
        ]
    },
    {
        "geonameId": 3354514,
        "name": "Omazera",
        "children": [
            
        ]
    },
    {
        "geonameId": 3354515,
        "name": "Omazera",
        "children": [
            
        ]
    },
    {
        "geonameId": 3354497,
        "name": "Ombinda",
        "children": [
            
        ]
    },
    {
        "geonameId": 3354485,
        "name": "Omboora",
        "children": [
            
        ]
    },
    {
        "geonameId": 3354484,
        "name": "Ombora",
        "children": [
            
        ]
    },
    {
        "geonameId": 3354462,
        "name": "Ombu Yomenye",
        "children": [
            
        ]
    },
    {
        "geonameId": 3354461,
        "name": "Ombu Yomumbonde",
        "children": [
            
        ]
    },
    {
        "geonameId": 3354460,
        "name": "Ombu Yovakuru",
        "children": [
            
        ]
    },
    {
        "geonameId": 3354466,
        "name": "Ombungurur",
        "children": [
            
        ]
    },
    {
        "geonameId": 3354446,
        "name": "Omingondo",
        "children": [
            
        ]
    },
    {
        "geonameId": 3354441,
        "name": "Omitjete",
        "children": [
            
        ]
    },
    {
        "geonameId": 3354389,
        "name": "Omupanda",
        "children": [
            
        ]
    },
    {
        "geonameId": 3354365,
        "name": "Omutima",
        "children": [
            
        ]
    },
    {
        "geonameId": 3354160,
        "name": "Ongombombonde",
        "children": [
            
        ]
    },
    {
        "geonameId": 3354157,
        "name": "Ongongora",
        "children": [
            
        ]
    },
    {
        "geonameId": 3354119,
        "name": "Onreg",
        "children": [
            
        ]
    },
    {
        "geonameId": 3354047,
        "name": "Oruaku",
        "children": [
            
        ]
    },
    {
        "geonameId": 3354036,
        "name": "Orunahi",
        "children": [
            
        ]
    },
    {
        "geonameId": 3354031,
        "name": "Oruuwa",
        "children": [
            
        ]
    },
    {
        "geonameId": 3354028,
        "name": "Oruware",
        "children": [
            
        ]
    },
    {
        "geonameId": 3353945,
        "name": "Osona",
        "children": [
            
        ]
    },
    {
        "geonameId": 3353946,
        "name": "Osona",
        "children": [
            
        ]
    },
    {
        "geonameId": 3353934,
        "name": "Otavi",
        "children": [
            
        ]
    },
    {
        "geonameId": 3353920,
        "name": "Otjatjingenge",
        "children": [
            
        ]
    },
    {
        "geonameId": 3353893,
        "name": "Otjikango",
        "children": [
            
        ]
    },
    {
        "geonameId": 3353880,
        "name": "Otjikoto",
        "children": [
            
        ]
    },
    {
        "geonameId": 3353870,
        "name": "Otjimikambo",
        "children": [
            
        ]
    },
    {
        "geonameId": 3353851,
        "name": "Otjisepa",
        "children": [
            
        ]
    },
    {
        "geonameId": 3353850,
        "name": "Otjiserandu",
        "children": [
            
        ]
    },
    {
        "geonameId": 3353811,
        "name": "Otjiwarongo",
        "children": [
            
        ]
    },
    {
        "geonameId": 3353787,
        "name": "Otjomupanda",
        "children": [
            
        ]
    },
    {
        "geonameId": 3353778,
        "name": "Otjongombe Settlement",
        "children": [
            
        ]
    },
    {
        "geonameId": 3353747,
        "name": "Otumborombonga",
        "children": [
            
        ]
    },
    {
        "geonameId": 3353742,
        "name": "Otuvinga",
        "children": [
            
        ]
    },
    {
        "geonameId": 3353711,
        "name": "Ovanduvongwe",
        "children": [
            
        ]
    },
    {
        "geonameId": 3353687,
        "name": "Ozongarongombe",
        "children": [
            
        ]
    },
    {
        "geonameId": 3353682,
        "name": "Ozonvanga",
        "children": [
            
        ]
    },
    {
        "geonameId": 3353662,
        "name": "Paradys",
        "children": [
            
        ]
    },
    {
        "geonameId": 3353513,
        "name": "Rietfontein",
        "children": [
            
        ]
    },
    {
        "geonameId": 3353134,
        "name": "Shunem",
        "children": [
            
        ]
    },
    {
        "geonameId": 3352969,
        "name": "Spitzkop",
        "children": [
            
        ]
    },
    {
        "geonameId": 3352909,
        "name": "Stilte",
        "children": [
            
        ]
    },
    {
        "geonameId": 3352858,
        "name": "Sukkelsoek",
        "children": [
            
        ]
    },
    {
        "geonameId": 3352711,
        "name": "Tiervlei",
        "children": [
            
        ]
    },
    {
        "geonameId": 3352677,
        "name": "Toevlug",
        "children": [
            
        ]
    },
    {
        "geonameId": 3352676,
        "name": "Toggekry",
        "children": [
            
        ]
    },
    {
        "geonameId": 3352663,
        "name": "Tranedal",
        "children": [
            
        ]
    },
    {
        "geonameId": 876747,
        "name": "Tsumkwe",
        "children": [
            
        ]
    },
    {
        "geonameId": 3352556,
        "name": "Twyfelspoort",
        "children": [
            
        ]
    },
    {
        "geonameId": 3352494,
        "name": "Uitsig",
        "children": [
            
        ]
    },
    {
        "geonameId": 3352491,
        "name": "Uitspan",
        "children": [
            
        ]
    },
    {
        "geonameId": 3352401,
        "name": "Veddersdal",
        "children": [
            
        ]
    },
    {
        "geonameId": 3352398,
        "name": "Veldduin",
        "children": [
            
        ]
    },
    {
        "geonameId": 3352306,
        "name": "Vooruit",
        "children": [
            
        ]
    },
    {
        "geonameId": 3352303,
        "name": "Voorwaarts",
        "children": [
            
        ]
    },
    {
        "geonameId": 3352301,
        "name": "Vorstershoop",
        "children": [
            
        ]
    },
    {
        "geonameId": 3352275,
        "name": "Wag-\ufffd\ufffd\ufffdn-bietjie",
        "children": [
            
        ]
    },
    {
        "geonameId": 3352247,
        "name": "Waterberg",
        "children": [
            
        ]
    },
    {
        "geonameId": 3352206,
        "name": "Welkom",
        "children": [
            
        ]
    },
    {
        "geonameId": 3352162,
        "name": "Wildacker",
        "children": [
            
        ]
    },
    {
        "geonameId": 3352139,
        "name": "Wilmardi",
        "children": [
            
        ]
    },
    {
        "geonameId": 3352140,
        "name": "Wilmardi",
        "children": [
            
        ]
    }
]