[
    {
        "geonameId": 3357815,
        "name": "Edundja",
        "children": [
            
        ]
    },
    {
        "geonameId": 3357804,
        "name": "Eenhana",
        "children": [
            
        ]
    },
    {
        "geonameId": 3357658,
        "name": "Epangwe",
        "children": [
            
        ]
    },
    {
        "geonameId": 3357657,
        "name": "Epasha",
        "children": [
            
        ]
    },
    {
        "geonameId": 3357653,
        "name": "Epembe",
        "children": [
            
        ]
    },
    {
        "geonameId": 3357651,
        "name": "Epinga",
        "children": [
            
        ]
    },
    {
        "geonameId": 3357646,
        "name": "Epuku",
        "children": [
            
        ]
    },
    {
        "geonameId": 3357610,
        "name": "Eshakeno",
        "children": [
            
        ]
    },
    {
        "geonameId": 3357607,
        "name": "Eshosho",
        "children": [
            
        ]
    },
    {
        "geonameId": 3357601,
        "name": "Etakaya",
        "children": [
            
        ]
    },
    {
        "geonameId": 3357600,
        "name": "Etale",
        "children": [
            
        ]
    },
    {
        "geonameId": 3357582,
        "name": "Etomba",
        "children": [
            
        ]
    },
    {
        "geonameId": 3357573,
        "name": "Etudilondjaba",
        "children": [
            
        ]
    },
    {
        "geonameId": 3356614,
        "name": "Iiputu",
        "children": [
            
        ]
    },
    {
        "geonameId": 3355809,
        "name": "Lamhedi",
        "children": [
            
        ]
    },
    {
        "geonameId": 3354973,
        "name": "Odimbo",
        "children": [
            
        ]
    },
    {
        "geonameId": 3354969,
        "name": "Ofaitumbo",
        "children": [
            
        ]
    },
    {
        "geonameId": 3354962,
        "name": "Ohaihana",
        "children": [
            
        ]
    },
    {
        "geonameId": 3354961,
        "name": "Ohaikedi",
        "children": [
            
        ]
    },
    {
        "geonameId": 3354960,
        "name": "Ohailinda",
        "children": [
            
        ]
    },
    {
        "geonameId": 3354959,
        "name": "Ohainengena",
        "children": [
            
        ]
    },
    {
        "geonameId": 3354958,
        "name": "Ohaingu",
        "children": [
            
        ]
    },
    {
        "geonameId": 3354957,
        "name": "Ohaipetekwa",
        "children": [
            
        ]
    },
    {
        "geonameId": 3354952,
        "name": "Ohakayale",
        "children": [
            
        ]
    },
    {
        "geonameId": 3354950,
        "name": "Ohakuyela",
        "children": [
            
        ]
    },
    {
        "geonameId": 3354951,
        "name": "Ohakuyela",
        "children": [
            
        ]
    },
    {
        "geonameId": 3354949,
        "name": "Ohalushu",
        "children": [
            
        ]
    },
    {
        "geonameId": 3354947,
        "name": "Ohamakanga",
        "children": [
            
        ]
    },
    {
        "geonameId": 3354944,
        "name": "Ohamevainini",
        "children": [
            
        ]
    },
    {
        "geonameId": 3354942,
        "name": "Ohamviimbi",
        "children": [
            
        ]
    },
    {
        "geonameId": 3354938,
        "name": "Ohangwena",
        "children": [
            
        ]
    },
    {
        "geonameId": 3354939,
        "name": "Ohangwena",
        "children": [
            
        ]
    },
    {
        "geonameId": 3354934,
        "name": "Ohauwanga",
        "children": [
            
        ]
    },
    {
        "geonameId": 3354933,
        "name": "Ohauwangakukutu",
        "children": [
            
        ]
    },
    {
        "geonameId": 3354931,
        "name": "Ohauyave",
        "children": [
            
        ]
    },
    {
        "geonameId": 3354929,
        "name": "Ohehonge",
        "children": [
            
        ]
    },
    {
        "geonameId": 3354918,
        "name": "Ohuukewo",
        "children": [
            
        ]
    },
    {
        "geonameId": 3354916,
        "name": "Oidimba",
        "children": [
            
        ]
    },
    {
        "geonameId": 3354915,
        "name": "Oidiva",
        "children": [
            
        ]
    },
    {
        "geonameId": 3354914,
        "name": "Oikoto",
        "children": [
            
        ]
    },
    {
        "geonameId": 3354913,
        "name": "Oikuku",
        "children": [
            
        ]
    },
    {
        "geonameId": 3354912,
        "name": "Oininive",
        "children": [
            
        ]
    },
    {
        "geonameId": 3354904,
        "name": "Okahahauyavwena",
        "children": [
            
        ]
    },
    {
        "geonameId": 3354896,
        "name": "Okahauwangwena",
        "children": [
            
        ]
    },
    {
        "geonameId": 3354870,
        "name": "Okakongwena",
        "children": [
            
        ]
    },
    {
        "geonameId": 3354852,
        "name": "Okalondo",
        "children": [
            
        ]
    },
    {
        "geonameId": 3354847,
        "name": "Okalunga",
        "children": [
            
        ]
    },
    {
        "geonameId": 3354841,
        "name": "Okamanya",
        "children": [
            
        ]
    },
    {
        "geonameId": 3354836,
        "name": "Okambabwena",
        "children": [
            
        ]
    },
    {
        "geonameId": 3354793,
        "name": "Okanyanona",
        "children": [
            
        ]
    },
    {
        "geonameId": 3354785,
        "name": "Okapashona",
        "children": [
            
        ]
    },
    {
        "geonameId": 3354732,
        "name": "Okatope",
        "children": [
            
        ]
    },
    {
        "geonameId": 3354712,
        "name": "Okauva",
        "children": [
            
        ]
    },
    {
        "geonameId": 3354702,
        "name": "Okawe",
        "children": [
            
        ]
    },
    {
        "geonameId": 3354650,
        "name": "Okongo",
        "children": [
            
        ]
    },
    {
        "geonameId": 3354614,
        "name": "Okwatiwalunga",
        "children": [
            
        ]
    },
    {
        "geonameId": 3354600,
        "name": "Oluhapa",
        "children": [
            
        ]
    },
    {
        "geonameId": 3354597,
        "name": "Olukula",
        "children": [
            
        ]
    },
    {
        "geonameId": 3354595,
        "name": "Olukumwa",
        "children": [
            
        ]
    },
    {
        "geonameId": 3354592,
        "name": "Olunkono",
        "children": [
            
        ]
    },
    {
        "geonameId": 3354590,
        "name": "Olupale",
        "children": [
            
        ]
    },
    {
        "geonameId": 3354586,
        "name": "Olupundi",
        "children": [
            
        ]
    },
    {
        "geonameId": 3354583,
        "name": "Oluwaya",
        "children": [
            
        ]
    },
    {
        "geonameId": 3354574,
        "name": "Omadano",
        "children": [
            
        ]
    },
    {
        "geonameId": 3354558,
        "name": "Omakondo",
        "children": [
            
        ]
    },
    {
        "geonameId": 3354555,
        "name": "Omalundudu",
        "children": [
            
        ]
    },
    {
        "geonameId": 3354530,
        "name": "Omatangela",
        "children": [
            
        ]
    },
    {
        "geonameId": 3354512,
        "name": "Ombaba",
        "children": [
            
        ]
    },
    {
        "geonameId": 3354511,
        "name": "Ombabi",
        "children": [
            
        ]
    },
    {
        "geonameId": 3354506,
        "name": "Ombalayamumbwenge",
        "children": [
            
        ]
    },
    {
        "geonameId": 3354492,
        "name": "Omboloka",
        "children": [
            
        ]
    },
    {
        "geonameId": 3354478,
        "name": "Ombugayamupolo",
        "children": [
            
        ]
    },
    {
        "geonameId": 3354468,
        "name": "Ombundiya",
        "children": [
            
        ]
    },
    {
        "geonameId": 3354454,
        "name": "Omhangela",
        "children": [
            
        ]
    },
    {
        "geonameId": 3354453,
        "name": "Omhedi",
        "children": [
            
        ]
    },
    {
        "geonameId": 3354449,
        "name": "Omikwa",
        "children": [
            
        ]
    },
    {
        "geonameId": 3354423,
        "name": "Omufiya",
        "children": [
            
        ]
    },
    {
        "geonameId": 3354414,
        "name": "Omukukutu",
        "children": [
            
        ]
    },
    {
        "geonameId": 3354415,
        "name": "Omukukutu",
        "children": [
            
        ]
    },
    {
        "geonameId": 3354410,
        "name": "Omulamba",
        "children": [
            
        ]
    },
    {
        "geonameId": 3354407,
        "name": "Omulonga",
        "children": [
            
        ]
    },
    {
        "geonameId": 3354408,
        "name": "Omulonga",
        "children": [
            
        ]
    },
    {
        "geonameId": 3354409,
        "name": "Omulonga",
        "children": [
            
        ]
    },
    {
        "geonameId": 3354404,
        "name": "Omundaungilo",
        "children": [
            
        ]
    },
    {
        "geonameId": 3354403,
        "name": "Omundudu",
        "children": [
            
        ]
    },
    {
        "geonameId": 3354401,
        "name": "Omungholyo",
        "children": [
            
        ]
    },
    {
        "geonameId": 3354399,
        "name": "Omungwelume",
        "children": [
            
        ]
    },
    {
        "geonameId": 3354392,
        "name": "Omunyekadi",
        "children": [
            
        ]
    },
    {
        "geonameId": 3354387,
        "name": "Omupembe",
        "children": [
            
        ]
    },
    {
        "geonameId": 3354386,
        "name": "Omupini",
        "children": [
            
        ]
    },
    {
        "geonameId": 3354379,
        "name": "Omushakala",
        "children": [
            
        ]
    },
    {
        "geonameId": 3354378,
        "name": "Omusheshe",
        "children": [
            
        ]
    },
    {
        "geonameId": 3354376,
        "name": "Omushigo",
        "children": [
            
        ]
    },
    {
        "geonameId": 3354374,
        "name": "Omushilawombadje",
        "children": [
            
        ]
    },
    {
        "geonameId": 3354356,
        "name": "Omutuni",
        "children": [
            
        ]
    },
    {
        "geonameId": 3354355,
        "name": "Omutwewomunhu",
        "children": [
            
        ]
    },
    {
        "geonameId": 3354353,
        "name": "Omutwewondjaba",
        "children": [
            
        ]
    },
    {
        "geonameId": 3354354,
        "name": "Omutwewondjaba",
        "children": [
            
        ]
    },
    {
        "geonameId": 3354352,
        "name": "Omutwewonime",
        "children": [
            
        ]
    },
    {
        "geonameId": 3354350,
        "name": "Omuulu",
        "children": [
            
        ]
    },
    {
        "geonameId": 3354348,
        "name": "Omuwike",
        "children": [
            
        ]
    },
    {
        "geonameId": 3354347,
        "name": "Omvil",
        "children": [
            
        ]
    },
    {
        "geonameId": 3354346,
        "name": "Omwandi",
        "children": [
            
        ]
    },
    {
        "geonameId": 3354339,
        "name": "Onaimbungu",
        "children": [
            
        ]
    },
    {
        "geonameId": 3354335,
        "name": "Onakalunga",
        "children": [
            
        ]
    },
    {
        "geonameId": 3354331,
        "name": "Onakankunzi",
        "children": [
            
        ]
    },
    {
        "geonameId": 3354320,
        "name": "Onamahoka",
        "children": [
            
        ]
    },
    {
        "geonameId": 3354319,
        "name": "Onamasila",
        "children": [
            
        ]
    },
    {
        "geonameId": 3354317,
        "name": "Onamatadiva",
        "children": [
            
        ]
    },
    {
        "geonameId": 3354316,
        "name": "Onamatandiva",
        "children": [
            
        ]
    },
    {
        "geonameId": 3354308,
        "name": "Onambaladi",
        "children": [
            
        ]
    },
    {
        "geonameId": 3354303,
        "name": "Onambutu",
        "children": [
            
        ]
    },
    {
        "geonameId": 3354304,
        "name": "Onambutu",
        "children": [
            
        ]
    },
    {
        "geonameId": 3354301,
        "name": "Onamhombo",
        "children": [
            
        ]
    },
    {
        "geonameId": 3354299,
        "name": "Onamihonga",
        "children": [
            
        ]
    },
    {
        "geonameId": 3354297,
        "name": "Onamudime",
        "children": [
            
        ]
    },
    {
        "geonameId": 3354296,
        "name": "Onamukulo",
        "children": [
            
        ]
    },
    {
        "geonameId": 3354295,
        "name": "Onamundidi",
        "children": [
            
        ]
    },
    {
        "geonameId": 3354293,
        "name": "Onamungodjo",
        "children": [
            
        ]
    },
    {
        "geonameId": 3354290,
        "name": "Onamunhama",
        "children": [
            
        ]
    },
    {
        "geonameId": 3354289,
        "name": "Onamutai",
        "children": [
            
        ]
    },
    {
        "geonameId": 3354284,
        "name": "Onandjaba",
        "children": [
            
        ]
    },
    {
        "geonameId": 3354280,
        "name": "Onandjushi",
        "children": [
            
        ]
    },
    {
        "geonameId": 3354277,
        "name": "Onangama",
        "children": [
            
        ]
    },
    {
        "geonameId": 3354276,
        "name": "Onangava",
        "children": [
            
        ]
    },
    {
        "geonameId": 3354275,
        "name": "Onanghulo",
        "children": [
            
        ]
    },
    {
        "geonameId": 3354274,
        "name": "Onangolo",
        "children": [
            
        ]
    },
    {
        "geonameId": 3354269,
        "name": "Onangwe",
        "children": [
            
        ]
    },
    {
        "geonameId": 3354251,
        "name": "Ondaanda",
        "children": [
            
        ]
    },
    {
        "geonameId": 3354243,
        "name": "Ondema",
        "children": [
            
        ]
    },
    {
        "geonameId": 3354237,
        "name": "Ondeshifiilwa",
        "children": [
            
        ]
    },
    {
        "geonameId": 3354234,
        "name": "Ondiihaluka",
        "children": [
            
        ]
    },
    {
        "geonameId": 3354233,
        "name": "Ondingwanyama",
        "children": [
            
        ]
    },
    {
        "geonameId": 3354231,
        "name": "Ondjaba",
        "children": [
            
        ]
    },
    {
        "geonameId": 3354221,
        "name": "Ondobe",
        "children": [
            
        ]
    },
    {
        "geonameId": 3354209,
        "name": "Onduna",
        "children": [
            
        ]
    },
    {
        "geonameId": 3354201,
        "name": "Ondwi",
        "children": [
            
        ]
    },
    {
        "geonameId": 3354199,
        "name": "Onehanga",
        "children": [
            
        ]
    },
    {
        "geonameId": 3354196,
        "name": "Onehova",
        "children": [
            
        ]
    },
    {
        "geonameId": 3354192,
        "name": "Onekwaya",
        "children": [
            
        ]
    },
    {
        "geonameId": 3354193,
        "name": "Onekwaya",
        "children": [
            
        ]
    },
    {
        "geonameId": 3354194,
        "name": "Onekwaya",
        "children": [
            
        ]
    },
    {
        "geonameId": 3354188,
        "name": "Onengali",
        "children": [
            
        ]
    },
    {
        "geonameId": 3354186,
        "name": "Onepandaulo",
        "children": [
            
        ]
    },
    {
        "geonameId": 3354184,
        "name": "Oneshiyo",
        "children": [
            
        ]
    },
    {
        "geonameId": 3354181,
        "name": "Ongalangobe",
        "children": [
            
        ]
    },
    {
        "geonameId": 3354180,
        "name": "Ongali",
        "children": [
            
        ]
    },
    {
        "geonameId": 3354170,
        "name": "Ongenga",
        "children": [
            
        ]
    },
    {
        "geonameId": 3354167,
        "name": "Onghwiyu",
        "children": [
            
        ]
    },
    {
        "geonameId": 3354163,
        "name": "Ongolongela",
        "children": [
            
        ]
    },
    {
        "geonameId": 3354151,
        "name": "Ongumi",
        "children": [
            
        ]
    },
    {
        "geonameId": 3354145,
        "name": "Onheleiwa",
        "children": [
            
        ]
    },
    {
        "geonameId": 3354144,
        "name": "Onheti",
        "children": [
            
        ]
    },
    {
        "geonameId": 3354143,
        "name": "Onhumba",
        "children": [
            
        ]
    },
    {
        "geonameId": 3354140,
        "name": "Onhunda",
        "children": [
            
        ]
    },
    {
        "geonameId": 3354141,
        "name": "Onhunda",
        "children": [
            
        ]
    },
    {
        "geonameId": 3354142,
        "name": "Onhunda",
        "children": [
            
        ]
    },
    {
        "geonameId": 3354133,
        "name": "Oniimwandi",
        "children": [
            
        ]
    },
    {
        "geonameId": 3354084,
        "name": "Opepela",
        "children": [
            
        ]
    },
    {
        "geonameId": 3354085,
        "name": "Opepela",
        "children": [
            
        ]
    },
    {
        "geonameId": 3354023,
        "name": "Oshaangu",
        "children": [
            
        ]
    },
    {
        "geonameId": 3354022,
        "name": "Oshakati",
        "children": [
            
        ]
    },
    {
        "geonameId": 3354017,
        "name": "Oshali",
        "children": [
            
        ]
    },
    {
        "geonameId": 3354018,
        "name": "Oshali",
        "children": [
            
        ]
    },
    {
        "geonameId": 3354019,
        "name": "Oshali",
        "children": [
            
        ]
    },
    {
        "geonameId": 3354013,
        "name": "Oshamambu",
        "children": [
            
        ]
    },
    {
        "geonameId": 3354012,
        "name": "Oshambada",
        "children": [
            
        ]
    },
    {
        "geonameId": 3354011,
        "name": "Oshanashiwa",
        "children": [
            
        ]
    },
    {
        "geonameId": 3354010,
        "name": "Oshandi",
        "children": [
            
        ]
    },
    {
        "geonameId": 3354005,
        "name": "Oshapwa",
        "children": [
            
        ]
    },
    {
        "geonameId": 3354004,
        "name": "Oshatotwa",
        "children": [
            
        ]
    },
    {
        "geonameId": 3354000,
        "name": "Oshidute",
        "children": [
            
        ]
    },
    {
        "geonameId": 3353999,
        "name": "Oshifitu",
        "children": [
            
        ]
    },
    {
        "geonameId": 3353996,
        "name": "Oshikango",
        "children": [
            
        ]
    },
    {
        "geonameId": 3353987,
        "name": "Oshikunde",
        "children": [
            
        ]
    },
    {
        "geonameId": 3353986,
        "name": "Oshikuni",
        "children": [
            
        ]
    },
    {
        "geonameId": 3353982,
        "name": "Oshikwiyu",
        "children": [
            
        ]
    },
    {
        "geonameId": 3353983,
        "name": "Oshikwiyu",
        "children": [
            
        ]
    },
    {
        "geonameId": 3353981,
        "name": "Oshilambwili",
        "children": [
            
        ]
    },
    {
        "geonameId": 3353977,
        "name": "Oshimwaku",
        "children": [
            
        ]
    },
    {
        "geonameId": 3353976,
        "name": "Oshinge",
        "children": [
            
        ]
    },
    {
        "geonameId": 3353975,
        "name": "Oshipala",
        "children": [
            
        ]
    },
    {
        "geonameId": 3353972,
        "name": "Oshishogolo",
        "children": [
            
        ]
    },
    {
        "geonameId": 3353971,
        "name": "Oshitai",
        "children": [
            
        ]
    },
    {
        "geonameId": 3353960,
        "name": "Oshombwa",
        "children": [
            
        ]
    },
    {
        "geonameId": 3353958,
        "name": "Oshuli",
        "children": [
            
        ]
    },
    {
        "geonameId": 3353955,
        "name": "Oshuudiya",
        "children": [
            
        ]
    },
    {
        "geonameId": 3353757,
        "name": "Otofima",
        "children": [
            
        ]
    },
    {
        "geonameId": 3353746,
        "name": "Otunganga",
        "children": [
            
        ]
    },
    {
        "geonameId": 3353738,
        "name": "Otyaityava",
        "children": [
            
        ]
    },
    {
        "geonameId": 3353732,
        "name": "Oukala",
        "children": [
            
        ]
    },
    {
        "geonameId": 3353727,
        "name": "Oumbada",
        "children": [
            
        ]
    },
    {
        "geonameId": 3353722,
        "name": "Oupili",
        "children": [
            
        ]
    },
    {
        "geonameId": 3353721,
        "name": "Oupongo",
        "children": [
            
        ]
    },
    {
        "geonameId": 3353720,
        "name": "Oupumako",
        "children": [
            
        ]
    },
    {
        "geonameId": 3353719,
        "name": "Oushini",
        "children": [
            
        ]
    },
    {
        "geonameId": 3353713,
        "name": "Outwilo",
        "children": [
            
        ]
    },
    {
        "geonameId": 3352647,
        "name": "Tsamatse",
        "children": [
            
        ]
    },
    {
        "geonameId": 3352454,
        "name": "Uukangowahamalwa",
        "children": [
            
        ]
    },
    {
        "geonameId": 3352024,
        "name": "Yanghandja",
        "children": [
            
        ]
    }
]