[
    {
        "geonameId": 3358723,
        "name": "Aminuis",
        "children": [
            
        ]
    },
    {
        "geonameId": 3358722,
        "name": "Aminuis",
        "children": [
            
        ]
    },
    {
        "geonameId": 3358605,
        "name": "Aroams",
        "children": [
            
        ]
    },
    {
        "geonameId": 3358604,
        "name": "Aroams Oos",
        "children": [
            
        ]
    },
    {
        "geonameId": 3358366,
        "name": "Blignaut",
        "children": [
            
        ]
    },
    {
        "geonameId": 3358226,
        "name": "Buitepos",
        "children": [
            
        ]
    },
    {
        "geonameId": 3357880,
        "name": "Drimiopsis",
        "children": [
            
        ]
    },
    {
        "geonameId": 3357662,
        "name": "Epako",
        "children": [
            
        ]
    },
    {
        "geonameId": 3357656,
        "name": "Epata",
        "children": [
            
        ]
    },
    {
        "geonameId": 3357647,
        "name": "Epukiro",
        "children": [
            
        ]
    },
    {
        "geonameId": 3357632,
        "name": "Erindinoukambe",
        "children": [
            
        ]
    },
    {
        "geonameId": 3357247,
        "name": "Gobabis",
        "children": [
            
        ]
    },
    {
        "geonameId": 3357184,
        "name": "Goroseb",
        "children": [
            
        ]
    },
    {
        "geonameId": 3357028,
        "name": "Gunkas",
        "children": [
            
        ]
    },
    {
        "geonameId": 3356913,
        "name": "Harmse",
        "children": [
            
        ]
    },
    {
        "geonameId": 3356736,
        "name": "Holm",
        "children": [
            
        ]
    },
    {
        "geonameId": 3356657,
        "name": "Hugus",
        "children": [
            
        ]
    },
    {
        "geonameId": 3356187,
        "name": "Kirschberg",
        "children": [
            
        ]
    },
    {
        "geonameId": 3355980,
        "name": "Korridor Pos Dertien",
        "children": [
            
        ]
    },
    {
        "geonameId": 3355924,
        "name": "Kroonster",
        "children": [
            
        ]
    },
    {
        "geonameId": 3355858,
        "name": "Kumu",
        "children": [
            
        ]
    },
    {
        "geonameId": 3355748,
        "name": "Leonardville",
        "children": [
            
        ]
    },
    {
        "geonameId": 3355549,
        "name": "Mc Intyre",
        "children": [
            
        ]
    },
    {
        "geonameId": 3355074,
        "name": "Nossobville",
        "children": [
            
        ]
    },
    {
        "geonameId": 3354997,
        "name": "Oahava",
        "children": [
            
        ]
    },
    {
        "geonameId": 3354894,
        "name": "Okahiokaapa",
        "children": [
            
        ]
    },
    {
        "geonameId": 3354884,
        "name": "Okahumandu",
        "children": [
            
        ]
    },
    {
        "geonameId": 3354862,
        "name": "Okakuvisa",
        "children": [
            
        ]
    },
    {
        "geonameId": 3354767,
        "name": "Okaseta",
        "children": [
            
        ]
    },
    {
        "geonameId": 3354723,
        "name": "Okatuwo",
        "children": [
            
        ]
    },
    {
        "geonameId": 3354705,
        "name": "Okawangwa",
        "children": [
            
        ]
    },
    {
        "geonameId": 3354690,
        "name": "Okeriko",
        "children": [
            
        ]
    },
    {
        "geonameId": 3354689,
        "name": "Okeruru",
        "children": [
            
        ]
    },
    {
        "geonameId": 3354671,
        "name": "Okombepera",
        "children": [
            
        ]
    },
    {
        "geonameId": 3354670,
        "name": "Okomboha",
        "children": [
            
        ]
    },
    {
        "geonameId": 3354661,
        "name": "Okomumbonde",
        "children": [
            
        ]
    },
    {
        "geonameId": 3354662,
        "name": "Okomumbonde",
        "children": [
            
        ]
    },
    {
        "geonameId": 3354660,
        "name": "Okomungondo",
        "children": [
            
        ]
    },
    {
        "geonameId": 3354647,
        "name": "Okongowa",
        "children": [
            
        ]
    },
    {
        "geonameId": 3354641,
        "name": "Okonyama",
        "children": [
            
        ]
    },
    {
        "geonameId": 3354640,
        "name": "Okonyoka",
        "children": [
            
        ]
    },
    {
        "geonameId": 3354628,
        "name": "Okoukambe",
        "children": [
            
        ]
    },
    {
        "geonameId": 3354625,
        "name": "Okovimburu",
        "children": [
            
        ]
    },
    {
        "geonameId": 3354518,
        "name": "Omawewozonyanda",
        "children": [
            
        ]
    },
    {
        "geonameId": 3354445,
        "name": "Omitara",
        "children": [
            
        ]
    },
    {
        "geonameId": 3354442,
        "name": "Omitivine",
        "children": [
            
        ]
    },
    {
        "geonameId": 3354358,
        "name": "Omutumbondudu",
        "children": [
            
        ]
    },
    {
        "geonameId": 3354238,
        "name": "Onderombapa",
        "children": [
            
        ]
    },
    {
        "geonameId": 3354226,
        "name": "Ondjiripumwa",
        "children": [
            
        ]
    },
    {
        "geonameId": 3354214,
        "name": "Ondorozu",
        "children": [
            
        ]
    },
    {
        "geonameId": 3354204,
        "name": "Onduno",
        "children": [
            
        ]
    },
    {
        "geonameId": 3353916,
        "name": "Otjewe",
        "children": [
            
        ]
    },
    {
        "geonameId": 3353900,
        "name": "Otjihitwa",
        "children": [
            
        ]
    },
    {
        "geonameId": 3353883,
        "name": "Otjikorondo",
        "children": [
            
        ]
    },
    {
        "geonameId": 3353873,
        "name": "Otjimanangombe",
        "children": [
            
        ]
    },
    {
        "geonameId": 3353863,
        "name": "Otjinene",
        "children": [
            
        ]
    },
    {
        "geonameId": 3353861,
        "name": "Otjipandjarwa",
        "children": [
            
        ]
    },
    {
        "geonameId": 3353830,
        "name": "Otjiungukwa",
        "children": [
            
        ]
    },
    {
        "geonameId": 3353817,
        "name": "Otjiwaketambo",
        "children": [
            
        ]
    },
    {
        "geonameId": 3353816,
        "name": "Otjiwaneho",
        "children": [
            
        ]
    },
    {
        "geonameId": 3353810,
        "name": "Otjiwarongo",
        "children": [
            
        ]
    },
    {
        "geonameId": 3353807,
        "name": "Otjiwetjombungu",
        "children": [
            
        ]
    },
    {
        "geonameId": 3353805,
        "name": "Otjiyere",
        "children": [
            
        ]
    },
    {
        "geonameId": 3353796,
        "name": "Otjombungu",
        "children": [
            
        ]
    },
    {
        "geonameId": 3353790,
        "name": "Otjomukona",
        "children": [
            
        ]
    },
    {
        "geonameId": 3353788,
        "name": "Otjomungwindi",
        "children": [
            
        ]
    },
    {
        "geonameId": 3353779,
        "name": "Otjongombe",
        "children": [
            
        ]
    },
    {
        "geonameId": 3353775,
        "name": "Otjoruharwi",
        "children": [
            
        ]
    },
    {
        "geonameId": 3353771,
        "name": "Otjovakombe",
        "children": [
            
        ]
    },
    {
        "geonameId": 3353708,
        "name": "Ovinyuru",
        "children": [
            
        ]
    },
    {
        "geonameId": 3353706,
        "name": "Ovivapa",
        "children": [
            
        ]
    },
    {
        "geonameId": 3353689,
        "name": "Ozondjiva",
        "children": [
            
        ]
    },
    {
        "geonameId": 3353686,
        "name": "Ozongaru",
        "children": [
            
        ]
    },
    {
        "geonameId": 876900,
        "name": "Rietfontein",
        "children": [
            
        ]
    },
    {
        "geonameId": 3353503,
        "name": "Rietquelle",
        "children": [
            
        ]
    },
    {
        "geonameId": 3353264,
        "name": "Sarie Mar\ufffd\ufffd",
        "children": [
            
        ]
    },
    {
        "geonameId": 3352919,
        "name": "Steinhausen",
        "children": [
            
        ]
    },
    {
        "geonameId": 3352852,
        "name": "Summerdown",
        "children": [
            
        ]
    },
    {
        "geonameId": 876775,
        "name": "Talismanis",
        "children": [
            
        ]
    },
    {
        "geonameId": 3352582,
        "name": "Tugus",
        "children": [
            
        ]
    },
    {
        "geonameId": 3352690,
        "name": "T\ufffd\ufffdasis I",
        "children": [
            
        ]
    },
    {
        "geonameId": 3352689,
        "name": "T\ufffd\ufffdasis II",
        "children": [
            
        ]
    },
    {
        "geonameId": 3352083,
        "name": "Witvlei",
        "children": [
            
        ]
    }
]