[
    {
        "geonameId": 3374874,
        "name": "Barbasco",
        "children": [
            
        ]
    },
    {
        "geonameId": 3374812,
        "name": "Caculi",
        "children": [
            
        ]
    },
    {
        "geonameId": 3374748,
        "name": "Ch\u00e3 da Igreja",
        "children": [
            
        ]
    },
    {
        "geonameId": 3374744,
        "name": "Ch\u00e3 de Paulo",
        "children": [
            
        ]
    },
    {
        "geonameId": 3374742,
        "name": "Ch\u00e3 de Queimada",
        "children": [
            
        ]
    },
    {
        "geonameId": 3374741,
        "name": "Ch\u00e3 de Vazinha",
        "children": [
            
        ]
    },
    {
        "geonameId": 3374714,
        "name": "Corvo",
        "children": [
            
        ]
    },
    {
        "geonameId": 3374696,
        "name": "Cruzinha",
        "children": [
            
        ]
    },
    {
        "geonameId": 3374693,
        "name": "Curral",
        "children": [
            
        ]
    },
    {
        "geonameId": 3374677,
        "name": "Endriano",
        "children": [
            
        ]
    },
    {
        "geonameId": 3374672,
        "name": "Escabe\u00e7ada",
        "children": [
            
        ]
    },
    {
        "geonameId": 3374671,
        "name": "Escabe\u00e7ada de Baixo",
        "children": [
            
        ]
    },
    {
        "geonameId": 3374666,
        "name": "Esgamaleiro",
        "children": [
            
        ]
    },
    {
        "geonameId": 3374664,
        "name": "Espadan\u00e3",
        "children": [
            
        ]
    },
    {
        "geonameId": 3374650,
        "name": "Faj\u00e3zinha",
        "children": [
            
        ]
    },
    {
        "geonameId": 3374649,
        "name": "Fanade",
        "children": [
            
        ]
    },
    {
        "geonameId": 3374629,
        "name": "Figueiras de Baixo",
        "children": [
            
        ]
    },
    {
        "geonameId": 3374628,
        "name": "Figueiras de Cimas",
        "children": [
            
        ]
    },
    {
        "geonameId": 3374611,
        "name": "Fontainhas",
        "children": [
            
        ]
    },
    {
        "geonameId": 3374497,
        "name": "Lombo de Galinha",
        "children": [
            
        ]
    },
    {
        "geonameId": 3374496,
        "name": "Lombo do Mar",
        "children": [
            
        ]
    },
    {
        "geonameId": 3374466,
        "name": "Meio de Espanha",
        "children": [
            
        ]
    },
    {
        "geonameId": 3374452,
        "name": "Monte Joana",
        "children": [
            
        ]
    },
    {
        "geonameId": 3374476,
        "name": "M\u00e3o para Tr\u00e1s",
        "children": [
            
        ]
    },
    {
        "geonameId": 3374372,
        "name": "Penha de Fran\u00e7a",
        "children": [
            
        ]
    },
    {
        "geonameId": 3374346,
        "name": "Ponta do Sol",
        "children": [
            
        ]
    },
    {
        "geonameId": 3374275,
        "name": "Ribeira Grande",
        "children": [
            
        ]
    },
    {
        "geonameId": 3374193,
        "name": "Selada do Mocho",
        "children": [
            
        ]
    },
    {
        "geonameId": 3374186,
        "name": "Sinagoga",
        "children": [
            
        ]
    },
    {
        "geonameId": 3374158,
        "name": "Tarrafal",
        "children": [
            
        ]
    },
    {
        "geonameId": 3374119,
        "name": "Vila Maria Pia",
        "children": [
            
        ]
    }
]