[
    {
        "geonameId": 3374904,
        "name": "Amador",
        "children": [
            
        ]
    },
    {
        "geonameId": 3374856,
        "name": "Boa Ventura",
        "children": [
            
        ]
    },
    {
        "geonameId": 3374848,
        "name": "Bofareira",
        "children": [
            
        ]
    },
    {
        "geonameId": 3374823,
        "name": "Cabe\u00e7adas",
        "children": [
            
        ]
    },
    {
        "geonameId": 3374819,
        "name": "Cabe\u00e7o dos Tarafes",
        "children": [
            
        ]
    },
    {
        "geonameId": 3374692,
        "name": "Curral Branco",
        "children": [
            
        ]
    },
    {
        "geonameId": 3374688,
        "name": "Curral Velho",
        "children": [
            
        ]
    },
    {
        "geonameId": 3374682,
        "name": "Derrubado",
        "children": [
            
        ]
    },
    {
        "geonameId": 3374660,
        "name": "Espingueira",
        "children": [
            
        ]
    },
    {
        "geonameId": 3374615,
        "name": "Fog\u00e3o",
        "children": [
            
        ]
    },
    {
        "geonameId": 3374594,
        "name": "Fundo das Figueiras",
        "children": [
            
        ]
    },
    {
        "geonameId": 3374578,
        "name": "Gata",
        "children": [
            
        ]
    },
    {
        "geonameId": 3374540,
        "name": "Jo\u00e3o Barrosa",
        "children": [
            
        ]
    },
    {
        "geonameId": 3374535,
        "name": "Jo\u00e3o Galego",
        "children": [
            
        ]
    },
    {
        "geonameId": 3374413,
        "name": "Pai Amaro",
        "children": [
            
        ]
    },
    {
        "geonameId": 3374349,
        "name": "Ponta Adiante",
        "children": [
            
        ]
    },
    {
        "geonameId": 3374334,
        "name": "Povoa\u00e7\u00e3o Velha",
        "children": [
            
        ]
    },
    {
        "geonameId": 3374316,
        "name": "Prazeres",
        "children": [
            
        ]
    },
    {
        "geonameId": 3374301,
        "name": "Rabil",
        "children": [
            
        ]
    },
    {
        "geonameId": 3374235,
        "name": "Sal Rei",
        "children": [
            
        ]
    },
    {
        "geonameId": 3374205,
        "name": "S\u00e3o Jorge",
        "children": [
            
        ]
    }
]