[
    {
        "geonameId": 3374928,
        "name": "Achadinha",
        "children": [
            
        ]
    },
    {
        "geonameId": 3374857,
        "name": "Biscainhos",
        "children": [
            
        ]
    },
    {
        "geonameId": 3374746,
        "name": "Ch\u00e3 de Dentro",
        "children": [
            
        ]
    },
    {
        "geonameId": 3374512,
        "name": "Lapa Cachorro",
        "children": [
            
        ]
    },
    {
        "geonameId": 3374472,
        "name": "Massap\u00e9",
        "children": [
            
        ]
    },
    {
        "geonameId": 3374460,
        "name": "Moer\u00e3o",
        "children": [
            
        ]
    },
    {
        "geonameId": 3374449,
        "name": "Montinho",
        "children": [
            
        ]
    },
    {
        "geonameId": 3374454,
        "name": "Mont\u00e3o",
        "children": [
            
        ]
    },
    {
        "geonameId": 3374341,
        "name": "Portal",
        "children": [
            
        ]
    },
    {
        "geonameId": 3374283,
        "name": "Ribeira da Prata",
        "children": [
            
        ]
    },
    {
        "geonameId": 3374269,
        "name": "Ribeir\u00e3o Sal",
        "children": [
            
        ]
    },
    {
        "geonameId": 3374166,
        "name": "Tarrafal",
        "children": [
            
        ]
    },
    {
        "geonameId": 3374150,
        "name": "Toril",
        "children": [
            
        ]
    },
    {
        "geonameId": 3374146,
        "name": "Tras-os-Montes",
        "children": [
            
        ]
    }
]