[
    {
        "geonameId": 3374892,
        "name": "Areia Branca",
        "children": [
            
        ]
    },
    {
        "geonameId": 3374800,
        "name": "Calhau",
        "children": [
            
        ]
    },
    {
        "geonameId": 3374756,
        "name": "Casa do Cabo Submarino",
        "children": [
            
        ]
    },
    {
        "geonameId": 3374697,
        "name": "Cruz do P\u00e9 do Verde",
        "children": [
            
        ]
    },
    {
        "geonameId": 3374644,
        "name": "Fazenda Real",
        "children": [
            
        ]
    },
    {
        "geonameId": 3374509,
        "name": "Lazareto",
        "children": [
            
        ]
    },
    {
        "geonameId": 3374489,
        "name": "Madeiral",
        "children": [
            
        ]
    },
    {
        "geonameId": 3374470,
        "name": "Mateuzinho",
        "children": [
            
        ]
    },
    {
        "geonameId": 3374462,
        "name": "Mindelo",
        "children": [
            
        ]
    },
    {
        "geonameId": 3374347,
        "name": "Ponta da Cruz",
        "children": [
            
        ]
    },
    {
        "geonameId": 3374247,
        "name": "Salamansa",
        "children": [
            
        ]
    },
    {
        "geonameId": 3374201,
        "name": "S\u00e3o Pedro",
        "children": [
            
        ]
    }
]