[
    {
        "geonameId": 3374930,
        "name": "Achada Grande",
        "children": [
            
        ]
    },
    {
        "geonameId": 3374887,
        "name": "Atalaia",
        "children": [
            
        ]
    },
    {
        "geonameId": 3374715,
        "name": "Corvo",
        "children": [
            
        ]
    },
    {
        "geonameId": 3374651,
        "name": "Faj\u00e3zinha",
        "children": [
            
        ]
    },
    {
        "geonameId": 3374555,
        "name": "Igreja",
        "children": [
            
        ]
    },
    {
        "geonameId": 3374517,
        "name": "Lagoa Atr\u00e1s",
        "children": [
            
        ]
    },
    {
        "geonameId": 3374338,
        "name": "Porto dos Mosteiros",
        "children": [
            
        ]
    },
    {
        "geonameId": 3374291,
        "name": "Relva",
        "children": [
            
        ]
    },
    {
        "geonameId": 3374273,
        "name": "Ribeira Ilh\u00e9u",
        "children": [
            
        ]
    },
    {
        "geonameId": 3374229,
        "name": "Sambango",
        "children": [
            
        ]
    }
]