[
    {
        "geonameId": 7911002,
        "name": "Kafr El Sheikh",
        "children": [
            
        ]
    },
    {
        "geonameId": 358725,
        "name": "Markaz Biyal\u0101",
        "children": [
            
        ]
    },
    {
        "geonameId": 358107,
        "name": "Markaz Dis\u016bq",
        "children": [
            
        ]
    },
    {
        "geonameId": 356805,
        "name": "Markaz Fuwah",
        "children": [
            
        ]
    },
    {
        "geonameId": 354501,
        "name": "Markaz Kafr ash Shaykh",
        "children": [
            
        ]
    },
    {
        "geonameId": 350795,
        "name": "Markaz Qall\u012bn",
        "children": [
            
        ]
    },
    {
        "geonameId": 348095,
        "name": "Markaz S\u012bd\u012b S\u0101lim",
        "children": [
            
        ]
    },
    {
        "geonameId": 361358,
        "name": "Markaz al Burullus",
        "children": [
            
        ]
    },
    {
        "geonameId": 7772238,
        "name": "Markaz al \u1e28\u0101m\u016bl",
        "children": [
            
        ]
    }
]