[
    {
        "geonameId": 7910679,
        "name": "Bahr El Bakar",
        "children": [
            
        ]
    },
    {
        "geonameId": 362484,
        "name": "Markaz Ab\u016b Kab\u012br",
        "children": [
            
        ]
    },
    {
        "geonameId": 362612,
        "name": "Markaz Ab\u016b \u1e28amm\u0101d",
        "children": [
            
        ]
    },
    {
        "geonameId": 358838,
        "name": "Markaz Bilbays",
        "children": [
            
        ]
    },
    {
        "geonameId": 358094,
        "name": "Markaz Diyarb Najm",
        "children": [
            
        ]
    },
    {
        "geonameId": 355938,
        "name": "Markaz Hihy\u0101",
        "children": [
            
        ]
    },
    {
        "geonameId": 352351,
        "name": "Markaz Miny\u0101 al Qam\u1e29",
        "children": [
            
        ]
    },
    {
        "geonameId": 361127,
        "name": "Markaz al \u1e28usayn\u012byah",
        "children": [
            
        ]
    },
    {
        "geonameId": 359494,
        "name": "Markaz az Zaq\u0101z\u012bq",
        "children": [
            
        ]
    }
]