[
    {
        "geonameId": 362276,
        "name": "Markaz Ab\u016b Qurq\u0101\u015f",
        "children": [
            
        ]
    },
    {
        "geonameId": 359211,
        "name": "Markaz Ban\u012b Maz\u0101r",
        "children": [
            
        ]
    },
    {
        "geonameId": 358273,
        "name": "Markaz Dayr Maw\u0101s",
        "children": [
            
        ]
    },
    {
        "geonameId": 352950,
        "name": "Markaz Mallaw\u012b",
        "children": [
            
        ]
    },
    {
        "geonameId": 352626,
        "name": "Markaz Ma\u0163\u0101y",
        "children": [
            
        ]
    },
    {
        "geonameId": 349716,
        "name": "Markaz Sam\u0101l\u016b\u0163",
        "children": [
            
        ]
    },
    {
        "geonameId": 360687,
        "name": "Markaz al Miny\u0101",
        "children": [
            
        ]
    },
    {
        "geonameId": 361099,
        "name": "Markaz al \u2018Idwah",
        "children": [
            
        ]
    }
]