[
    {
        "geonameId": 8146219,
        "name": "Markaz Aws\u012bm",
        "children": [
            
        ]
    },
    {
        "geonameId": 355547,
        "name": "Markaz Imb\u0101bah",
        "children": [
            
        ]
    },
    {
        "geonameId": 361474,
        "name": "Markaz al Badrashayn",
        "children": [
            
        ]
    },
    {
        "geonameId": 360996,
        "name": "Markaz al J\u012bzah",
        "children": [
            
        ]
    },
    {
        "geonameId": 360479,
        "name": "Markaz al W\u0101\u1e29\u0101t al Ba\u1e29r\u012byah",
        "children": [
            
        ]
    },
    {
        "geonameId": 361497,
        "name": "Markaz al \u2018Ayy\u0101\u0163",
        "children": [
            
        ]
    },
    {
        "geonameId": 359901,
        "name": "Markaz a\u015f \u015eaff",
        "children": [
            
        ]
    },
    {
        "geonameId": 9179486,
        "name": "Walikale",
        "children": [
            
        ]
    }
]