[
    {
        "geonameId": 362880,
        "name": "Markaz Ab\u016b al Ma\u0163\u0101m\u012br",
        "children": [
            
        ]
    },
    {
        "geonameId": 362550,
        "name": "Markaz Ab\u016b \u1e28ummu\u015f",
        "children": [
            
        ]
    },
    {
        "geonameId": 358446,
        "name": "Markaz Damanh\u016br",
        "children": [
            
        ]
    },
    {
        "geonameId": 355416,
        "name": "Markaz Ity\u0101y al B\u0101r\u016bd",
        "children": [
            
        ]
    },
    {
        "geonameId": 354773,
        "name": "Markaz Kafr ad Daww\u0101r",
        "children": [
            
        ]
    },
    {
        "geonameId": 350200,
        "name": "Markaz Rash\u012bd",
        "children": [
            
        ]
    },
    {
        "geonameId": 361828,
        "name": "Markaz ad Dilinj\u0101t",
        "children": [
            
        ]
    },
    {
        "geonameId": 360821,
        "name": "Markaz al Ma\u1e29m\u016bd\u012byah",
        "children": [
            
        ]
    },
    {
        "geonameId": 355999,
        "name": "Markaz \u1e28awsh \u2018\u012as\u00e1",
        "children": [
            
        ]
    }
]