[
    {
        "geonameId": 8030659,
        "name": "Abu Ramad",
        "children": [
            
        ]
    },
    {
        "geonameId": 362659,
        "name": "Ab\u016b Ghu\u015f\u016bn",
        "children": [
            
        ]
    },
    {
        "geonameId": 362392,
        "name": "Ab\u016b Mann\u0101\u2018 Qibl\u012b",
        "children": [
            
        ]
    },
    {
        "geonameId": 444511,
        "name": "Ad Dahh\u0101r",
        "children": [
            
        ]
    },
    {
        "geonameId": 361276,
        "name": "Al Ghurayyib",
        "children": [
            
        ]
    },
    {
        "geonameId": 361032,
        "name": "Al Jal\u0101w\u012byah",
        "children": [
            
        ]
    },
    {
        "geonameId": 361022,
        "name": "Al Jar\u0101b\u012b\u2018",
        "children": [
            
        ]
    },
    {
        "geonameId": 361001,
        "name": "Al Jaz\u012brah ash Sharq\u012byah",
        "children": [
            
        ]
    },
    {
        "geonameId": 360970,
        "name": "Al Kan\u0101\u2019is",
        "children": [
            
        ]
    },
    {
        "geonameId": 360909,
        "name": "Al Khaw\u0101lid",
        "children": [
            
        ]
    },
    {
        "geonameId": 360226,
        "name": "Al Kil\u0101b\u0101t ash Sharq\u012byah",
        "children": [
            
        ]
    },
    {
        "geonameId": 360845,
        "name": "Al Ma\u2018\u0101bidah",
        "children": [
            
        ]
    },
    {
        "geonameId": 360677,
        "name": "Al Mi\u0163mar",
        "children": [
            
        ]
    },
    {
        "geonameId": 360531,
        "name": "Al Qu\u015fayr",
        "children": [
            
        ]
    },
    {
        "geonameId": 361218,
        "name": "Al \u1e28amm\u0101m\u012byah",
        "children": [
            
        ]
    },
    {
        "geonameId": 361210,
        "name": "Al \u1e28ar\u0101dinah",
        "children": [
            
        ]
    },
    {
        "geonameId": 361156,
        "name": "Al \u1e28\u012bbah ash Sharq\u012b",
        "children": [
            
        ]
    },
    {
        "geonameId": 361167,
        "name": "Al \u1e28\u016b\u0163\u0101 ash Sharq\u012byah",
        "children": [
            
        ]
    },
    {
        "geonameId": 361606,
        "name": "Al \u2018All\u0101q\u012b",
        "children": [
            
        ]
    },
    {
        "geonameId": 361568,
        "name": "Al \u2018Aqabah al Kab\u012brah",
        "children": [
            
        ]
    },
    {
        "geonameId": 433018,
        "name": "Al \u2018A\u015f\u012by\u0101t",
        "children": [
            
        ]
    },
    {
        "geonameId": 361519,
        "name": "Al \u2018A\u0163f",
        "children": [
            
        ]
    },
    {
        "geonameId": 360494,
        "name": "Al \u2018Uthm\u0101n\u012byah",
        "children": [
            
        ]
    },
    {
        "geonameId": 360340,
        "name": "An Naw\u0101wirah",
        "children": [
            
        ]
    },
    {
        "geonameId": 360334,
        "name": "An Nazlah al Mustajiddah",
        "children": [
            
        ]
    },
    {
        "geonameId": 360159,
        "name": "Ar Rad\u012bs\u012byah Qibl\u012b",
        "children": [
            
        ]
    },
    {
        "geonameId": 360120,
        "name": "Ar Ray\u0101yinah bi al \u1e28\u0101jir",
        "children": [
            
        ]
    },
    {
        "geonameId": 417449,
        "name": "Ar Ruwayj\u0101t",
        "children": [
            
        ]
    },
    {
        "geonameId": 359878,
        "name": "As Salam\u016bn\u012b",
        "children": [
            
        ]
    },
    {
        "geonameId": 433015,
        "name": "As Sal\u0101m",
        "children": [
            
        ]
    },
    {
        "geonameId": 359832,
        "name": "As Saw\u0101lim al Ba\u1e29r\u012byah",
        "children": [
            
        ]
    },
    {
        "geonameId": 360020,
        "name": "Ash Shar\u0101winah al Ba\u1e29r\u012byah",
        "children": [
            
        ]
    },
    {
        "geonameId": 360021,
        "name": "Ash Shar\u0101winah al Qibl\u012byah",
        "children": [
            
        ]
    },
    {
        "geonameId": 445093,
        "name": "Ash Shaykh an Najj\u0101r Ab\u016b \u2018Al\u012b",
        "children": [
            
        ]
    },
    {
        "geonameId": 346201,
        "name": "Az Za\u2018far\u0101nah",
        "children": [
            
        ]
    },
    {
        "geonameId": 359876,
        "name": "A\u015f \u015e\u0101li\u1e29\u012byah",
        "children": [
            
        ]
    },
    {
        "geonameId": 6412823,
        "name": "Bakr",
        "children": [
            
        ]
    },
    {
        "geonameId": 433011,
        "name": "Ban\u012b Kh\u0101lid",
        "children": [
            
        ]
    },
    {
        "geonameId": 359178,
        "name": "Ban\u012b Sulaym\u0101n ash Sharq\u012byah",
        "children": [
            
        ]
    },
    {
        "geonameId": 433441,
        "name": "Ban\u012b Suwayf al Jad\u012bdah",
        "children": [
            
        ]
    },
    {
        "geonameId": 359185,
        "name": "Ban\u012b S\u0101mi\u0163",
        "children": [
            
        ]
    },
    {
        "geonameId": 359073,
        "name": "Barn\u012bs",
        "children": [
            
        ]
    },
    {
        "geonameId": 359050,
        "name": "Barr\u00e2m\u00eeya",
        "children": [
            
        ]
    },
    {
        "geonameId": 433442,
        "name": "Bay\u0101\u1e11 al \u2018Arab",
        "children": [
            
        ]
    },
    {
        "geonameId": 358286,
        "name": "Dayr al Jabr\u0101w\u012b",
        "children": [
            
        ]
    },
    {
        "geonameId": 358255,
        "name": "Dayr al Maym\u016bn",
        "children": [
            
        ]
    },
    {
        "geonameId": 358378,
        "name": "D\u00e2r el-Sal\u00e2m",
        "children": [
            
        ]
    },
    {
        "geonameId": 6692512,
        "name": "El Gouna",
        "children": [
            
        ]
    },
    {
        "geonameId": 357859,
        "name": "El-K\u00f4m el-Ahmar",
        "children": [
            
        ]
    },
    {
        "geonameId": 6692516,
        "name": "Gorayfat Bay",
        "children": [
            
        ]
    },
    {
        "geonameId": 374290,
        "name": "Hala'ib",
        "children": [
            
        ]
    },
    {
        "geonameId": 8354478,
        "name": "Hamata",
        "children": [
            
        ]
    },
    {
        "geonameId": 361291,
        "name": "Hurghada",
        "children": [
            
        ]
    },
    {
        "geonameId": 355198,
        "name": "Jamsah",
        "children": [
            
        ]
    },
    {
        "geonameId": 355120,
        "name": "Jaz\u012brat Ab\u016b \u015e\u0101li\u1e29",
        "children": [
            
        ]
    },
    {
        "geonameId": 355086,
        "name": "Jaz\u012brat Sh\u0101r\u016bnah",
        "children": [
            
        ]
    },
    {
        "geonameId": 353386,
        "name": "Kurusk\u016b",
        "children": [
            
        ]
    },
    {
        "geonameId": 353220,
        "name": "Mad\u012bnat N\u0101\u015fir",
        "children": [
            
        ]
    },
    {
        "geonameId": 6692518,
        "name": "Makadi Bay",
        "children": [
            
        ]
    },
    {
        "geonameId": 352736,
        "name": "Marsa Alam",
        "children": [
            
        ]
    },
    {
        "geonameId": 352776,
        "name": "Mar\u0101kib S\u0101q",
        "children": [
            
        ]
    },
    {
        "geonameId": 352347,
        "name": "Minyat al J\u012bd",
        "children": [
            
        ]
    },
    {
        "geonameId": 351558,
        "name": "Nag \u2018Ibr\u00e2h\u00eem \u1e24asab Rabbu",
        "children": [
            
        ]
    },
    {
        "geonameId": 351666,
        "name": "Nag\u2018 Baql\u00fbweis",
        "children": [
            
        ]
    },
    {
        "geonameId": 351634,
        "name": "Nag\u2018 el-Hagand\u00eeya",
        "children": [
            
        ]
    },
    {
        "geonameId": 351621,
        "name": "Nag\u2018 el-Hubla",
        "children": [
            
        ]
    },
    {
        "geonameId": 351619,
        "name": "Nag\u2018 el-Kagug",
        "children": [
            
        ]
    },
    {
        "geonameId": 351600,
        "name": "Nag\u2018 el-Ruttag",
        "children": [
            
        ]
    },
    {
        "geonameId": 351586,
        "name": "Nag\u2018 el-Shibeika",
        "children": [
            
        ]
    },
    {
        "geonameId": 351677,
        "name": "Nag\u2019 \u2018Arab Abu Turaifiq",
        "children": [
            
        ]
    },
    {
        "geonameId": 434501,
        "name": "Naj\u2018 Ab\u016b al \u1e28asan",
        "children": [
            
        ]
    },
    {
        "geonameId": 351664,
        "name": "Naj\u2018 B\u012br \u2018Ambar",
        "children": [
            
        ]
    },
    {
        "geonameId": 445092,
        "name": "Naj\u2018 Hil\u0101l",
        "children": [
            
        ]
    },
    {
        "geonameId": 351417,
        "name": "Naj\u2018 Kawm Bis\u0101w",
        "children": [
            
        ]
    },
    {
        "geonameId": 351545,
        "name": "Naj\u2018 Ruwayshid",
        "children": [
            
        ]
    },
    {
        "geonameId": 445086,
        "name": "Naj\u2018 ad D\u016bm\u0101r\u012byah",
        "children": [
            
        ]
    },
    {
        "geonameId": 351461,
        "name": "Naj\u2018 al Kall\u0101\u1e29\u012bn",
        "children": [
            
        ]
    },
    {
        "geonameId": 445088,
        "name": "Naj\u2018 al Maf\u0101lisah",
        "children": [
            
        ]
    },
    {
        "geonameId": 434508,
        "name": "Naj\u2018 al \u2018Abb\u016bd\u012b",
        "children": [
            
        ]
    },
    {
        "geonameId": 351661,
        "name": "Naj\u2018 al \u2018Ab\u0101bdah",
        "children": [
            
        ]
    },
    {
        "geonameId": 351507,
        "name": "Naj\u2018 al \u2018Al\u0101limah",
        "children": [
            
        ]
    },
    {
        "geonameId": 434541,
        "name": "Naj\u2018 al \u2018Am\u0101yrah",
        "children": [
            
        ]
    },
    {
        "geonameId": 434512,
        "name": "Naj\u2018 ash Shaykh \u2018Abd ar Ra\u1e29m\u0101n",
        "children": [
            
        ]
    },
    {
        "geonameId": 445087,
        "name": "Naj\u2018 \u015eal\u0101\u1e29 Na\u015fr",
        "children": [
            
        ]
    },
    {
        "geonameId": 417455,
        "name": "Naj\u2018 \u2018Arab Mi\u0163ayr",
        "children": [
            
        ]
    },
    {
        "geonameId": 351153,
        "name": "Nazlat Awl\u0101d ash Shaykh",
        "children": [
            
        ]
    },
    {
        "geonameId": 444206,
        "name": "Nazlat al \u1e28araj\u0101t",
        "children": [
            
        ]
    },
    {
        "geonameId": 351130,
        "name": "Nazlat \u1e28amm\u0101m A\u1e29mad",
        "children": [
            
        ]
    },
    {
        "geonameId": 350994,
        "name": "Noriet Shir\u00eef",
        "children": [
            
        ]
    },
    {
        "geonameId": 350974,
        "name": "Nug\u00fb\u2019 el-Ray\u00e2gna",
        "children": [
            
        ]
    },
    {
        "geonameId": 350959,
        "name": "Nuj\u016b\u2018 \u2018Arab al Mas\u0101\u2019idah",
        "children": [
            
        ]
    },
    {
        "geonameId": 358620,
        "name": "Port Safaga",
        "children": [
            
        ]
    },
    {
        "geonameId": 6692521,
        "name": "Port el Ghalib",
        "children": [
            
        ]
    },
    {
        "geonameId": 350842,
        "name": "Qadd el-Bar\u00fbd",
        "children": [
            
        ]
    },
    {
        "geonameId": 350790,
        "name": "Qalt Umm D\u012bs\u012b",
        "children": [
            
        ]
    },
    {
        "geonameId": 445094,
        "name": "Qaryat W\u0101d\u012b \u2018Abb\u0101d\u012b 1",
        "children": [
            
        ]
    },
    {
        "geonameId": 7802750,
        "name": "Ras Gharib",
        "children": [
            
        ]
    },
    {
        "geonameId": 350207,
        "name": "Ra\u2019s Gh\u0101rib",
        "children": [
            
        ]
    },
    {
        "geonameId": 350213,
        "name": "R\u00e2s Ban\u00e2s",
        "children": [
            
        ]
    },
    {
        "geonameId": 349731,
        "name": "Salw\u00e1 Qibl\u012b",
        "children": [
            
        ]
    },
    {
        "geonameId": 349627,
        "name": "Sannur",
        "children": [
            
        ]
    },
    {
        "geonameId": 8555994,
        "name": "Shalateen",
        "children": [
            
        ]
    },
    {
        "geonameId": 349326,
        "name": "Sh\u0101r\u016bnah",
        "children": [
            
        ]
    },
    {
        "geonameId": 349732,
        "name": "Silwa",
        "children": [
            
        ]
    },
    {
        "geonameId": 6692523,
        "name": "Soma Bay",
        "children": [
            
        ]
    },
    {
        "geonameId": 346986,
        "name": "Umm as S\u0101s",
        "children": [
            
        ]
    },
    {
        "geonameId": 434557,
        "name": "Wad\u012b az Zanbaqah",
        "children": [
            
        ]
    },
    {
        "geonameId": 434558,
        "name": "W\u0101d\u012b Kawlat Ab\u016b Laylah",
        "children": [
            
        ]
    },
    {
        "geonameId": 434556,
        "name": "W\u0101d\u012b al F\u0101w\u012byah",
        "children": [
            
        ]
    },
    {
        "geonameId": 346104,
        "name": "Z\u0101wiyat al Jid\u0101m\u012b",
        "children": [
            
        ]
    },
    {
        "geonameId": 349548,
        "name": "\u015e\u016bl",
        "children": [
            
        ]
    },
    {
        "geonameId": 360220,
        "name": "\u2018Arab Mu\u0163ayr",
        "children": [
            
        ]
    },
    {
        "geonameId": 360245,
        "name": "\u2018Arab al Bakh\u0101\u2019itah",
        "children": [
            
        ]
    },
    {
        "geonameId": 351186,
        "name": "\u2018Arab al Qad\u0101d\u012b\u1e29",
        "children": [
            
        ]
    },
    {
        "geonameId": 360247,
        "name": "\u2018Arab al \u2018Am\u0101rinah",
        "children": [
            
        ]
    },
    {
        "geonameId": 444476,
        "name": "\u2018Arab al \u2018A\u0163\u012by\u0101t",
        "children": [
            
        ]
    },
    {
        "geonameId": 360246,
        "name": "\u2018Arab al \u2018A\u0163\u012by\u0101t al Ba\u1e29r\u012byah",
        "children": [
            
        ]
    },
    {
        "geonameId": 360261,
        "name": "\u2018Arab \u2018Ab\u0101bidah",
        "children": [
            
        ]
    },
    {
        "geonameId": 357640,
        "name": "\u2018Ezbet Ahmad Talat",
        "children": [
            
        ]
    },
    {
        "geonameId": 357584,
        "name": "\u2018Izbat Dayr al \u1e28ad\u012bd",
        "children": [
            
        ]
    },
    {
        "geonameId": 434392,
        "name": "\u2018Izbat Qar\u0101rah",
        "children": [
            
        ]
    },
    {
        "geonameId": 417440,
        "name": "\u2018Izbat ash Shaykh Suwayf",
        "children": [
            
        ]
    }
]