[
    {
        "geonameId": 7910872,
        "name": "Bahr El Bakr",
        "children": [
            
        ]
    },
    {
        "geonameId": 361701,
        "name": "Markaz Aj\u0101",
        "children": [
            
        ]
    },
    {
        "geonameId": 8559275,
        "name": "Markaz Az Zarq\u0101",
        "children": [
            
        ]
    },
    {
        "geonameId": 358824,
        "name": "Markaz Bilq\u0101s",
        "children": [
            
        ]
    },
    {
        "geonameId": 358171,
        "name": "Markaz Dikirnis",
        "children": [
            
        ]
    },
    {
        "geonameId": 356943,
        "name": "Markaz F\u0101risk\u016br",
        "children": [
            
        ]
    },
    {
        "geonameId": 8559274,
        "name": "Markaz Minyat An Na\u015fr",
        "children": [
            
        ]
    },
    {
        "geonameId": 352180,
        "name": "Markaz M\u012bt Ghamr",
        "children": [
            
        ]
    },
    {
        "geonameId": 360756,
        "name": "Markaz al Manzilah",
        "children": [
            
        ]
    },
    {
        "geonameId": 360763,
        "name": "Markaz al Man\u015f\u016brah",
        "children": [
            
        ]
    },
    {
        "geonameId": 7910974,
        "name": "Mit Yazid",
        "children": [
            
        ]
    }
]