[
    {
        "geonameId": 380961,
        "name": "Abu Deiyuta",
        "children": [
            
        ]
    },
    {
        "geonameId": 380881,
        "name": "Abu Guja",
        "children": [
            
        ]
    },
    {
        "geonameId": 380580,
        "name": "Abu Rumeil",
        "children": [
            
        ]
    },
    {
        "geonameId": 380486,
        "name": "Abu Shugeira",
        "children": [
            
        ]
    },
    {
        "geonameId": 380283,
        "name": "Adaluta",
        "children": [
            
        ]
    },
    {
        "geonameId": 379954,
        "name": "Agurra",
        "children": [
            
        ]
    },
    {
        "geonameId": 379210,
        "name": "Al Kuraynik",
        "children": [
            
        ]
    },
    {
        "geonameId": 378914,
        "name": "Amar Djedid",
        "children": [
            
        ]
    },
    {
        "geonameId": 378249,
        "name": "Asuburi",
        "children": [
            
        ]
    },
    {
        "geonameId": 378207,
        "name": "Atmur",
        "children": [
            
        ]
    },
    {
        "geonameId": 377963,
        "name": "Babunus",
        "children": [
            
        ]
    },
    {
        "geonameId": 377794,
        "name": "Bandadito",
        "children": [
            
        ]
    },
    {
        "geonameId": 377684,
        "name": "Bardani",
        "children": [
            
        ]
    },
    {
        "geonameId": 377683,
        "name": "Bardei",
        "children": [
            
        ]
    },
    {
        "geonameId": 377550,
        "name": "Beida",
        "children": [
            
        ]
    },
    {
        "geonameId": 377358,
        "name": "Bir Daqiq",
        "children": [
            
        ]
    },
    {
        "geonameId": 377341,
        "name": "Bir Gedid",
        "children": [
            
        ]
    },
    {
        "geonameId": 377355,
        "name": "Bireigo",
        "children": [
            
        ]
    },
    {
        "geonameId": 377336,
        "name": "Birkat Saira",
        "children": [
            
        ]
    },
    {
        "geonameId": 377335,
        "name": "Birkat \ufffd\ufffdayr",
        "children": [
            
        ]
    },
    {
        "geonameId": 377179,
        "name": "Bugus",
        "children": [
            
        ]
    },
    {
        "geonameId": 8385644,
        "name": "Dambarita",
        "children": [
            
        ]
    },
    {
        "geonameId": 376428,
        "name": "Dingajuri",
        "children": [
            
        ]
    },
    {
        "geonameId": 376342,
        "name": "Dogum",
        "children": [
            
        ]
    },
    {
        "geonameId": 376259,
        "name": "Duhosh",
        "children": [
            
        ]
    },
    {
        "geonameId": 376133,
        "name": "Dumbusa",
        "children": [
            
        ]
    },
    {
        "geonameId": 376130,
        "name": "Dumei",
        "children": [
            
        ]
    },
    {
        "geonameId": 375936,
        "name": "Eishbarra",
        "children": [
            
        ]
    },
    {
        "geonameId": 379302,
        "name": "El Geneina Fort",
        "children": [
            
        ]
    },
    {
        "geonameId": 375779,
        "name": "Erigi",
        "children": [
            
        ]
    },
    {
        "geonameId": 375675,
        "name": "Fagarila",
        "children": [
            
        ]
    },
    {
        "geonameId": 375333,
        "name": "Foro Burunga",
        "children": [
            
        ]
    },
    {
        "geonameId": 375302,
        "name": "Fura",
        "children": [
            
        ]
    },
    {
        "geonameId": 368487,
        "name": "Gafala",
        "children": [
            
        ]
    },
    {
        "geonameId": 379303,
        "name": "Geneina",
        "children": [
            
        ]
    },
    {
        "geonameId": 374861,
        "name": "Ghubaysh\ufffd\ufffdt",
        "children": [
            
        ]
    },
    {
        "geonameId": 373292,
        "name": "Gideiri",
        "children": [
            
        ]
    },
    {
        "geonameId": 374805,
        "name": "Ginfili Ngerma",
        "children": [
            
        ]
    },
    {
        "geonameId": 374631,
        "name": "Gukor",
        "children": [
            
        ]
    },
    {
        "geonameId": 374632,
        "name": "Gukor",
        "children": [
            
        ]
    },
    {
        "geonameId": 374585,
        "name": "Gundo",
        "children": [
            
        ]
    },
    {
        "geonameId": 374577,
        "name": "Gunji",
        "children": [
            
        ]
    },
    {
        "geonameId": 374567,
        "name": "Guranei",
        "children": [
            
        ]
    },
    {
        "geonameId": 374550,
        "name": "Gurri",
        "children": [
            
        ]
    },
    {
        "geonameId": 374539,
        "name": "Guweighina",
        "children": [
            
        ]
    },
    {
        "geonameId": 374468,
        "name": "Habila",
        "children": [
            
        ]
    },
    {
        "geonameId": 374470,
        "name": "Hab\ufffd\ufffdlah",
        "children": [
            
        ]
    },
    {
        "geonameId": 374473,
        "name": "Hab\ufffd\ufffdlah",
        "children": [
            
        ]
    },
    {
        "geonameId": 374335,
        "name": "Hagar Beida",
        "children": [
            
        ]
    },
    {
        "geonameId": 374375,
        "name": "Hagar Jembuh",
        "children": [
            
        ]
    },
    {
        "geonameId": 374332,
        "name": "Hagar Jenadi",
        "children": [
            
        ]
    },
    {
        "geonameId": 374372,
        "name": "Hagel Murra",
        "children": [
            
        ]
    },
    {
        "geonameId": 373712,
        "name": "Hameida",
        "children": [
            
        ]
    },
    {
        "geonameId": 374134,
        "name": "Hamroh",
        "children": [
            
        ]
    },
    {
        "geonameId": 374027,
        "name": "Haruna",
        "children": [
            
        ]
    },
    {
        "geonameId": 373996,
        "name": "Hashaba",
        "children": [
            
        ]
    },
    {
        "geonameId": 373997,
        "name": "Hashaba",
        "children": [
            
        ]
    },
    {
        "geonameId": 374000,
        "name": "Hashaba",
        "children": [
            
        ]
    },
    {
        "geonameId": 374001,
        "name": "Hashaba",
        "children": [
            
        ]
    },
    {
        "geonameId": 373988,
        "name": "Hashabu",
        "children": [
            
        ]
    },
    {
        "geonameId": 373994,
        "name": "Hash\ufffd\ufffdbah",
        "children": [
            
        ]
    },
    {
        "geonameId": 374469,
        "name": "Hebila",
        "children": [
            
        ]
    },
    {
        "geonameId": 373880,
        "name": "Hegliga",
        "children": [
            
        ]
    },
    {
        "geonameId": 373879,
        "name": "Heguga",
        "children": [
            
        ]
    },
    {
        "geonameId": 373805,
        "name": "Hogung",
        "children": [
            
        ]
    },
    {
        "geonameId": 373490,
        "name": "Istereina",
        "children": [
            
        ]
    },
    {
        "geonameId": 373445,
        "name": "Jabun",
        "children": [
            
        ]
    },
    {
        "geonameId": 373439,
        "name": "Jad\ufffd\ufffdd",
        "children": [
            
        ]
    },
    {
        "geonameId": 373420,
        "name": "Jakok",
        "children": [
            
        ]
    },
    {
        "geonameId": 373332,
        "name": "Jirguserei",
        "children": [
            
        ]
    },
    {
        "geonameId": 373164,
        "name": "Kadarang",
        "children": [
            
        ]
    },
    {
        "geonameId": 373137,
        "name": "Kafan\ufffd\ufffd",
        "children": [
            
        ]
    },
    {
        "geonameId": 373117,
        "name": "Kaghiggum",
        "children": [
            
        ]
    },
    {
        "geonameId": 373088,
        "name": "Kaidaba",
        "children": [
            
        ]
    },
    {
        "geonameId": 373061,
        "name": "Kajilkajili",
        "children": [
            
        ]
    },
    {
        "geonameId": 372902,
        "name": "Kanjeika",
        "children": [
            
        ]
    },
    {
        "geonameId": 372831,
        "name": "Kareima",
        "children": [
            
        ]
    },
    {
        "geonameId": 372774,
        "name": "Karwaja",
        "children": [
            
        ]
    },
    {
        "geonameId": 372740,
        "name": "Kataltak",
        "children": [
            
        ]
    },
    {
        "geonameId": 372728,
        "name": "Kathidik",
        "children": [
            
        ]
    },
    {
        "geonameId": 372695,
        "name": "Kawm",
        "children": [
            
        ]
    },
    {
        "geonameId": 372687,
        "name": "Kayrah",
        "children": [
            
        ]
    },
    {
        "geonameId": 372649,
        "name": "Keirno",
        "children": [
            
        ]
    },
    {
        "geonameId": 372591,
        "name": "Kernoya",
        "children": [
            
        ]
    },
    {
        "geonameId": 372301,
        "name": "Kododol",
        "children": [
            
        ]
    },
    {
        "geonameId": 372302,
        "name": "Kododol",
        "children": [
            
        ]
    },
    {
        "geonameId": 372233,
        "name": "Kolongei",
        "children": [
            
        ]
    },
    {
        "geonameId": 372211,
        "name": "Kondobei",
        "children": [
            
        ]
    },
    {
        "geonameId": 372210,
        "name": "Kondola Jeisa",
        "children": [
            
        ]
    },
    {
        "geonameId": 372208,
        "name": "Kondoli",
        "children": [
            
        ]
    },
    {
        "geonameId": 372193,
        "name": "Konga",
        "children": [
            
        ]
    },
    {
        "geonameId": 372204,
        "name": "Konga",
        "children": [
            
        ]
    },
    {
        "geonameId": 372201,
        "name": "Kongakonga",
        "children": [
            
        ]
    },
    {
        "geonameId": 372153,
        "name": "Korenga",
        "children": [
            
        ]
    },
    {
        "geonameId": 372139,
        "name": "Korngonyok",
        "children": [
            
        ]
    },
    {
        "geonameId": 372122,
        "name": "Korra",
        "children": [
            
        ]
    },
    {
        "geonameId": 372113,
        "name": "Kortei",
        "children": [
            
        ]
    },
    {
        "geonameId": 243097,
        "name": "Koulbous",
        "children": [
            
        ]
    },
    {
        "geonameId": 372023,
        "name": "Kudumi",
        "children": [
            
        ]
    },
    {
        "geonameId": 372024,
        "name": "Kudumi",
        "children": [
            
        ]
    },
    {
        "geonameId": 371994,
        "name": "Kukumandi",
        "children": [
            
        ]
    },
    {
        "geonameId": 371906,
        "name": "Kumudi",
        "children": [
            
        ]
    },
    {
        "geonameId": 371891,
        "name": "Kunjuldi",
        "children": [
            
        ]
    },
    {
        "geonameId": 371845,
        "name": "Kurgo",
        "children": [
            
        ]
    },
    {
        "geonameId": 371820,
        "name": "Kurngi",
        "children": [
            
        ]
    },
    {
        "geonameId": 371805,
        "name": "Kurru",
        "children": [
            
        ]
    },
    {
        "geonameId": 371800,
        "name": "Kurrur",
        "children": [
            
        ]
    },
    {
        "geonameId": 372678,
        "name": "K\ufffd\ufffdb\ufffd\ufffdsa",
        "children": [
            
        ]
    },
    {
        "geonameId": 371999,
        "name": "K\ufffd\ufffdkah",
        "children": [
            
        ]
    },
    {
        "geonameId": 371520,
        "name": "La Teguna",
        "children": [
            
        ]
    },
    {
        "geonameId": 371602,
        "name": "Lakia",
        "children": [
            
        ]
    },
    {
        "geonameId": 371485,
        "name": "Leijaina",
        "children": [
            
        ]
    },
    {
        "geonameId": 371371,
        "name": "Liria",
        "children": [
            
        ]
    },
    {
        "geonameId": 371106,
        "name": "Lubana",
        "children": [
            
        ]
    },
    {
        "geonameId": 370981,
        "name": "Maburikei",
        "children": [
            
        ]
    },
    {
        "geonameId": 370929,
        "name": "Magabadi",
        "children": [
            
        ]
    },
    {
        "geonameId": 370899,
        "name": "Magissa",
        "children": [
            
        ]
    },
    {
        "geonameId": 370762,
        "name": "Maku",
        "children": [
            
        ]
    },
    {
        "geonameId": 370644,
        "name": "Mamun",
        "children": [
            
        ]
    },
    {
        "geonameId": 370596,
        "name": "Manganyo",
        "children": [
            
        ]
    },
    {
        "geonameId": 8385044,
        "name": "Mango",
        "children": [
            
        ]
    },
    {
        "geonameId": 370588,
        "name": "Mangonyo",
        "children": [
            
        ]
    },
    {
        "geonameId": 370536,
        "name": "Manzula",
        "children": [
            
        ]
    },
    {
        "geonameId": 370503,
        "name": "Maragibir",
        "children": [
            
        ]
    },
    {
        "geonameId": 370485,
        "name": "Mararit",
        "children": [
            
        ]
    },
    {
        "geonameId": 370464,
        "name": "Margub",
        "children": [
            
        ]
    },
    {
        "geonameId": 370362,
        "name": "Mastegazza",
        "children": [
            
        ]
    },
    {
        "geonameId": 370352,
        "name": "Matalabta",
        "children": [
            
        ]
    },
    {
        "geonameId": 370325,
        "name": "Maun",
        "children": [
            
        ]
    },
    {
        "geonameId": 370217,
        "name": "Meirdaila",
        "children": [
            
        ]
    },
    {
        "geonameId": 370178,
        "name": "Melmelli",
        "children": [
            
        ]
    },
    {
        "geonameId": 369983,
        "name": "Misterei",
        "children": [
            
        ]
    },
    {
        "geonameId": 369821,
        "name": "Mudata",
        "children": [
            
        ]
    },
    {
        "geonameId": 369736,
        "name": "Mulaybidah",
        "children": [
            
        ]
    },
    {
        "geonameId": 369732,
        "name": "Mulkajji",
        "children": [
            
        ]
    },
    {
        "geonameId": 369665,
        "name": "Murdet",
        "children": [
            
        ]
    },
    {
        "geonameId": 369654,
        "name": "Murli",
        "children": [
            
        ]
    },
    {
        "geonameId": 369649,
        "name": "Murnei",
        "children": [
            
        ]
    },
    {
        "geonameId": 369294,
        "name": "Ndimmi",
        "children": [
            
        ]
    },
    {
        "geonameId": 369289,
        "name": "Ndokoru",
        "children": [
            
        ]
    },
    {
        "geonameId": 369139,
        "name": "Njachakei",
        "children": [
            
        ]
    },
    {
        "geonameId": 369135,
        "name": "Njelanga",
        "children": [
            
        ]
    },
    {
        "geonameId": 369136,
        "name": "Njelanga",
        "children": [
            
        ]
    },
    {
        "geonameId": 369131,
        "name": "Njumukul",
        "children": [
            
        ]
    },
    {
        "geonameId": 369058,
        "name": "Nurei",
        "children": [
            
        ]
    },
    {
        "geonameId": 368946,
        "name": "Nyelli",
        "children": [
            
        ]
    },
    {
        "geonameId": 364957,
        "name": "Oum Jakhakhin",
        "children": [
            
        ]
    },
    {
        "geonameId": 368464,
        "name": "Qanatir",
        "children": [
            
        ]
    },
    {
        "geonameId": 368409,
        "name": "Qoz Nginnu",
        "children": [
            
        ]
    },
    {
        "geonameId": 368192,
        "name": "Randi",
        "children": [
            
        ]
    },
    {
        "geonameId": 368032,
        "name": "Ro Fata",
        "children": [
            
        ]
    },
    {
        "geonameId": 367937,
        "name": "Rumaylah",
        "children": [
            
        ]
    },
    {
        "geonameId": 8388160,
        "name": "Sa Nyamu",
        "children": [
            
        ]
    },
    {
        "geonameId": 367662,
        "name": "Sandikoro",
        "children": [
            
        ]
    },
    {
        "geonameId": 367653,
        "name": "Sangir",
        "children": [
            
        ]
    },
    {
        "geonameId": 367648,
        "name": "Sania",
        "children": [
            
        ]
    },
    {
        "geonameId": 367595,
        "name": "Sarat",
        "children": [
            
        ]
    },
    {
        "geonameId": 367136,
        "name": "Shebet Ardu",
        "children": [
            
        ]
    },
    {
        "geonameId": 366900,
        "name": "Sigiba",
        "children": [
            
        ]
    },
    {
        "geonameId": 366880,
        "name": "Simama",
        "children": [
            
        ]
    },
    {
        "geonameId": 366820,
        "name": "Sisi",
        "children": [
            
        ]
    },
    {
        "geonameId": 366665,
        "name": "Sune",
        "children": [
            
        ]
    },
    {
        "geonameId": 366648,
        "name": "Sureif",
        "children": [
            
        ]
    },
    {
        "geonameId": 366624,
        "name": "Surmungu",
        "children": [
            
        ]
    },
    {
        "geonameId": 366573,
        "name": "Tabbi Nyebbei",
        "children": [
            
        ]
    },
    {
        "geonameId": 366579,
        "name": "Tab\ufffd\ufffdr\ufffd\ufffdk",
        "children": [
            
        ]
    },
    {
        "geonameId": 366523,
        "name": "Tahamidta",
        "children": [
            
        ]
    },
    {
        "geonameId": 366424,
        "name": "Tandalt\ufffd\ufffd",
        "children": [
            
        ]
    },
    {
        "geonameId": 366404,
        "name": "Tanjikei",
        "children": [
            
        ]
    },
    {
        "geonameId": 366298,
        "name": "Taziriba",
        "children": [
            
        ]
    },
    {
        "geonameId": 366425,
        "name": "Tendelti",
        "children": [
            
        ]
    },
    {
        "geonameId": 366162,
        "name": "Terchana",
        "children": [
            
        ]
    },
    {
        "geonameId": 366038,
        "name": "Tieri",
        "children": [
            
        ]
    },
    {
        "geonameId": 365961,
        "name": "Tinniyat",
        "children": [
            
        ]
    },
    {
        "geonameId": 365953,
        "name": "Tirei",
        "children": [
            
        ]
    },
    {
        "geonameId": 365942,
        "name": "Tirti",
        "children": [
            
        ]
    },
    {
        "geonameId": 365941,
        "name": "Tirti",
        "children": [
            
        ]
    },
    {
        "geonameId": 365940,
        "name": "Tirto",
        "children": [
            
        ]
    },
    {
        "geonameId": 365771,
        "name": "Tongfuka",
        "children": [
            
        ]
    },
    {
        "geonameId": 365718,
        "name": "Totognei",
        "children": [
            
        ]
    },
    {
        "geonameId": 365711,
        "name": "Towing",
        "children": [
            
        ]
    },
    {
        "geonameId": 365712,
        "name": "Towing",
        "children": [
            
        ]
    },
    {
        "geonameId": 365658,
        "name": "Tukultukul",
        "children": [
            
        ]
    },
    {
        "geonameId": 366413,
        "name": "Tundubai",
        "children": [
            
        ]
    },
    {
        "geonameId": 365559,
        "name": "Turju",
        "children": [
            
        ]
    },
    {
        "geonameId": 365433,
        "name": "Ulang",
        "children": [
            
        ]
    },
    {
        "geonameId": 364453,
        "name": "Umm Dukhn",
        "children": [
            
        ]
    },
    {
        "geonameId": 365145,
        "name": "Umm Dukhn",
        "children": [
            
        ]
    },
    {
        "geonameId": 364517,
        "name": "Umm Tissa",
        "children": [
            
        ]
    },
    {
        "geonameId": 364085,
        "name": "Wad Nyala",
        "children": [
            
        ]
    },
    {
        "geonameId": 364020,
        "name": "Wahed",
        "children": [
            
        ]
    },
    {
        "geonameId": 364013,
        "name": "Wailu",
        "children": [
            
        ]
    },
    {
        "geonameId": 363899,
        "name": "Wastani",
        "children": [
            
        ]
    },
    {
        "geonameId": 363898,
        "name": "Was\ufffd\ufffd\ufffd\ufffdn\ufffd\ufffd",
        "children": [
            
        ]
    },
    {
        "geonameId": 363862,
        "name": "Weigo",
        "children": [
            
        ]
    },
    {
        "geonameId": 381153,
        "name": "\ufffd\ufffd\ufffdAbd All\ufffd\ufffdh",
        "children": [
            
        ]
    },
    {
        "geonameId": 373622,
        "name": "\ufffd\ufffd\ufffdIdd al Kh\ufffd\ufffdla",
        "children": [
            
        ]
    },
    {
        "geonameId": 373613,
        "name": "\ufffd\ufffd\ufffdIdd es Semi",
        "children": [
            
        ]
    },
    {
        "geonameId": 364387,
        "name": "\ufffd\ufffd\ufffdUsharah",
        "children": [
            
        ]
    },
    {
        "geonameId": 8390175,
        "name": "\ufffd\ufffd\ufffdAradeiba",
        "children": [
            
        ]
    }
]