[
    {
        "geonameId": 7670590,
        "name": "Busiga",
        "children": [
            
        ]
    },
    {
        "geonameId": 9072892,
        "name": "Commune of Rutana",
        "children": [
            
        ]
    },
    {
        "geonameId": 7670594,
        "name": "Gashikanwa",
        "children": [
            
        ]
    },
    {
        "geonameId": 9171874,
        "name": "Kiremba",
        "children": [
            
        ]
    },
    {
        "geonameId": 9171867,
        "name": "Marangara",
        "children": [
            
        ]
    },
    {
        "geonameId": 9171858,
        "name": "Mwumba",
        "children": [
            
        ]
    },
    {
        "geonameId": 7670822,
        "name": "Ngozi",
        "children": [
            
        ]
    },
    {
        "geonameId": 9171863,
        "name": "Nyamurenza",
        "children": [
            
        ]
    },
    {
        "geonameId": 7670614,
        "name": "Ruhororo",
        "children": [
            
        ]
    },
    {
        "geonameId": 7670617,
        "name": "Tangara",
        "children": [
            
        ]
    }
]