[
    {
        "geonameId": 9166029,
        "name": "Adi Tekelezan Subregion",
        "children": [
            
        ]
    },
    {
        "geonameId": 9166032,
        "name": "Asmat",
        "children": [
            
        ]
    },
    {
        "geonameId": 9166033,
        "name": "Elabered Subregion",
        "children": [
            
        ]
    },
    {
        "geonameId": 9166040,
        "name": "Habero Subregion",
        "children": [
            
        ]
    },
    {
        "geonameId": 9166038,
        "name": "Hagaz Subregion",
        "children": [
            
        ]
    },
    {
        "geonameId": 9166039,
        "name": "Halhal Subregion",
        "children": [
            
        ]
    },
    {
        "geonameId": 9166043,
        "name": "Keren Subregion",
        "children": [
            
        ]
    },
    {
        "geonameId": 9166042,
        "name": "Kerkebet",
        "children": [
            
        ]
    },
    {
        "geonameId": 9166044,
        "name": "Sela Subregion",
        "children": [
            
        ]
    }
]