[
    {
        "geonameId": 9165816,
        "name": "Af'abet",
        "children": [
            
        ]
    },
    {
        "geonameId": 9166047,
        "name": "Dahlak Subregion",
        "children": [
            
        ]
    },
    {
        "geonameId": 9166048,
        "name": "Ghinda Subregion",
        "children": [
            
        ]
    },
    {
        "geonameId": 9166050,
        "name": "Massawa Subregion",
        "children": [
            
        ]
    },
    {
        "geonameId": 9166052,
        "name": "Nakfa Subregion",
        "children": [
            
        ]
    },
    {
        "geonameId": 9166034,
        "name": "North Eastern Subregion",
        "children": [
            
        ]
    },
    {
        "geonameId": 329423,
        "name": "Sahil \u0100wraja",
        "children": [
            
        ]
    },
    {
        "geonameId": 413929,
        "name": "Semhar \u0100wraja",
        "children": [
            
        ]
    },
    {
        "geonameId": 413930,
        "name": "Senhit \u0100wraja",
        "children": [
            
        ]
    }
]