[
    {
        "geonameId": 2472047,
        "name": "Bordj el Amri",
        "children": [
            
        ]
    },
    {
        "geonameId": 2472044,
        "name": "Borj Aalouine",
        "children": [
            
        ]
    },
    {
        "geonameId": 2471997,
        "name": "Borj Frennj",
        "children": [
            
        ]
    },
    {
        "geonameId": 2584860,
        "name": "Borj el Amri",
        "children": [
            
        ]
    },
    {
        "geonameId": 2472039,
        "name": "Borj el Hafsia",
        "children": [
            
        ]
    },
    {
        "geonameId": 2472689,
        "name": "Brada",
        "children": [
            
        ]
    },
    {
        "geonameId": 2590368,
        "name": "Damous el Laya",
        "children": [
            
        ]
    },
    {
        "geonameId": 2584610,
        "name": "Douar el Guessa",
        "children": [
            
        ]
    },
    {
        "geonameId": 2584536,
        "name": "Douar el Ha\u00efm",
        "children": [
            
        ]
    },
    {
        "geonameId": 2584616,
        "name": "El Aroussia",
        "children": [
            
        ]
    },
    {
        "geonameId": 2473823,
        "name": "El Battan",
        "children": [
            
        ]
    },
    {
        "geonameId": 2584617,
        "name": "El Karouba",
        "children": [
            
        ]
    },
    {
        "geonameId": 2471062,
        "name": "Furna",
        "children": [
            
        ]
    },
    {
        "geonameId": 2590386,
        "name": "Gourbis",
        "children": [
            
        ]
    },
    {
        "geonameId": 2584607,
        "name": "Maherine",
        "children": [
            
        ]
    },
    {
        "geonameId": 2469274,
        "name": "Manouba",
        "children": [
            
        ]
    },
    {
        "geonameId": 2469107,
        "name": "Massicault",
        "children": [
            
        ]
    },
    {
        "geonameId": 2584363,
        "name": "Ouled Fraji",
        "children": [
            
        ]
    },
    {
        "geonameId": 2584916,
        "name": "Ouled el Jema",
        "children": [
            
        ]
    },
    {
        "geonameId": 2473189,
        "name": "Sa\u00efda",
        "children": [
            
        ]
    },
    {
        "geonameId": 2466472,
        "name": "Sidi Ali el Hattab",
        "children": [
            
        ]
    }
]