[
    {
        "geonameId": 7730332,
        "name": "Barren Ground",
        "children": [
            
        ]
    },
    {
        "geonameId": 3371004,
        "name": "Deadwood",
        "children": [
            
        ]
    },
    {
        "geonameId": 3370936,
        "name": "Half Tree Hollow",
        "children": [
            
        ]
    },
    {
        "geonameId": 3370907,
        "name": "Hutts Gate",
        "children": [
            
        ]
    },
    {
        "geonameId": 3370903,
        "name": "Jamestown",
        "children": [
            
        ]
    },
    {
        "geonameId": 3370880,
        "name": "Levelwood",
        "children": [
            
        ]
    },
    {
        "geonameId": 3370867,
        "name": "Longwood",
        "children": [
            
        ]
    },
    {
        "geonameId": 3370831,
        "name": "New Ground",
        "children": [
            
        ]
    },
    {
        "geonameId": 3370695,
        "name": "Taglate",
        "children": [
            
        ]
    }
]