[
    {
        "geonameId": 2254734,
        "name": "Akintou",
        "children": [
            
        ]
    },
    {
        "geonameId": 2254691,
        "name": "Aloute",
        "children": [
            
        ]
    },
    {
        "geonameId": 2254659,
        "name": "Ankobiri",
        "children": [
            
        ]
    },
    {
        "geonameId": 2254542,
        "name": "Badimbour",
        "children": [
            
        ]
    },
    {
        "geonameId": 2254527,
        "name": "Badjikounda",
        "children": [
            
        ]
    },
    {
        "geonameId": 2254528,
        "name": "Badjikounda",
        "children": [
            
        ]
    },
    {
        "geonameId": 2254513,
        "name": "Bafata",
        "children": [
            
        ]
    },
    {
        "geonameId": 2254492,
        "name": "Baghanga",
        "children": [
            
        ]
    },
    {
        "geonameId": 2254246,
        "name": "Bani\u00e8re",
        "children": [
            
        ]
    },
    {
        "geonameId": 2253886,
        "name": "Binbaba",
        "children": [
            
        ]
    },
    {
        "geonameId": 2254294,
        "name": "Bombali",
        "children": [
            
        ]
    },
    {
        "geonameId": 2253695,
        "name": "Bona",
        "children": [
            
        ]
    },
    {
        "geonameId": 2253625,
        "name": "Bougnousse",
        "children": [
            
        ]
    },
    {
        "geonameId": 2253543,
        "name": "Boumouda Soukoutoto",
        "children": [
            
        ]
    },
    {
        "geonameId": 2253521,
        "name": "Bouno",
        "children": [
            
        ]
    },
    {
        "geonameId": 2253492,
        "name": "Boussimballo",
        "children": [
            
        ]
    },
    {
        "geonameId": 2253491,
        "name": "Boussinki",
        "children": [
            
        ]
    },
    {
        "geonameId": 2253447,
        "name": "Brikama",
        "children": [
            
        ]
    },
    {
        "geonameId": 2253953,
        "name": "B\u00e9m\u00e8te Diatakounda",
        "children": [
            
        ]
    },
    {
        "geonameId": 2253952,
        "name": "B\u00e9m\u00e8te Djimand\u00e9",
        "children": [
            
        ]
    },
    {
        "geonameId": 2253951,
        "name": "B\u00e9m\u00e8te Vouti",
        "children": [
            
        ]
    },
    {
        "geonameId": 2253097,
        "name": "Dar Silam\u00e9",
        "children": [
            
        ]
    },
    {
        "geonameId": 2252942,
        "name": "Diafar",
        "children": [
            
        ]
    },
    {
        "geonameId": 2252737,
        "name": "Diana Malari",
        "children": [
            
        ]
    },
    {
        "geonameId": 2252736,
        "name": "Diana Sonkodou",
        "children": [
            
        ]
    },
    {
        "geonameId": 2252738,
        "name": "Dianah Ba",
        "children": [
            
        ]
    },
    {
        "geonameId": 2252728,
        "name": "Diandi\u00e8me",
        "children": [
            
        ]
    },
    {
        "geonameId": 2252693,
        "name": "Diao",
        "children": [
            
        ]
    },
    {
        "geonameId": 2252658,
        "name": "Diar\u00e8ng",
        "children": [
            
        ]
    },
    {
        "geonameId": 2252615,
        "name": "Diattakounda",
        "children": [
            
        ]
    },
    {
        "geonameId": 2252470,
        "name": "Diogn\u00e8re",
        "children": [
            
        ]
    },
    {
        "geonameId": 2252347,
        "name": "Diouking",
        "children": [
            
        ]
    },
    {
        "geonameId": 2252280,
        "name": "Djibabouya",
        "children": [
            
        ]
    },
    {
        "geonameId": 2252220,
        "name": "Djinani II",
        "children": [
            
        ]
    },
    {
        "geonameId": 2252208,
        "name": "Djir\u00e9di",
        "children": [
            
        ]
    },
    {
        "geonameId": 2251951,
        "name": "Farankounda",
        "children": [
            
        ]
    },
    {
        "geonameId": 2251923,
        "name": "Fassane",
        "children": [
            
        ]
    },
    {
        "geonameId": 2251535,
        "name": "Gombol",
        "children": [
            
        ]
    },
    {
        "geonameId": 2251485,
        "name": "Gouba Samba Loum",
        "children": [
            
        ]
    },
    {
        "geonameId": 2251486,
        "name": "Goubanba",
        "children": [
            
        ]
    },
    {
        "geonameId": 2251470,
        "name": "Goudomp",
        "children": [
            
        ]
    },
    {
        "geonameId": 2251364,
        "name": "Goutou Dimba Ba",
        "children": [
            
        ]
    },
    {
        "geonameId": 2251258,
        "name": "Guidinnki",
        "children": [
            
        ]
    },
    {
        "geonameId": 2251251,
        "name": "Guiguiankounda",
        "children": [
            
        ]
    },
    {
        "geonameId": 2251174,
        "name": "Hamdalaye",
        "children": [
            
        ]
    },
    {
        "geonameId": 2251164,
        "name": "Hamdalaye I",
        "children": [
            
        ]
    },
    {
        "geonameId": 2251163,
        "name": "Hamdalaye II",
        "children": [
            
        ]
    },
    {
        "geonameId": 2251099,
        "name": "Inor",
        "children": [
            
        ]
    },
    {
        "geonameId": 2251097,
        "name": "Irassoli",
        "children": [
            
        ]
    },
    {
        "geonameId": 2251062,
        "name": "Kabo\u00e9l",
        "children": [
            
        ]
    },
    {
        "geonameId": 2251041,
        "name": "Kadialin",
        "children": [
            
        ]
    },
    {
        "geonameId": 2251004,
        "name": "Kafoulou",
        "children": [
            
        ]
    },
    {
        "geonameId": 2250924,
        "name": "Kamagouba",
        "children": [
            
        ]
    },
    {
        "geonameId": 2250923,
        "name": "Kamahone",
        "children": [
            
        ]
    },
    {
        "geonameId": 2250911,
        "name": "Kambila",
        "children": [
            
        ]
    },
    {
        "geonameId": 2250908,
        "name": "Kamboudione",
        "children": [
            
        ]
    },
    {
        "geonameId": 2250906,
        "name": "Kambound\u00e9",
        "children": [
            
        ]
    },
    {
        "geonameId": 2250901,
        "name": "Kamoya",
        "children": [
            
        ]
    },
    {
        "geonameId": 2250900,
        "name": "Kampila",
        "children": [
            
        ]
    },
    {
        "geonameId": 2250898,
        "name": "Kampoto",
        "children": [
            
        ]
    },
    {
        "geonameId": 2250897,
        "name": "Kananpar",
        "children": [
            
        ]
    },
    {
        "geonameId": 2250891,
        "name": "Kanboundan",
        "children": [
            
        ]
    },
    {
        "geonameId": 2250881,
        "name": "Kandiadiou",
        "children": [
            
        ]
    },
    {
        "geonameId": 2250876,
        "name": "Kandialon",
        "children": [
            
        ]
    },
    {
        "geonameId": 2250867,
        "name": "Kandimba",
        "children": [
            
        ]
    },
    {
        "geonameId": 2250864,
        "name": "Kandion Dansokounda",
        "children": [
            
        ]
    },
    {
        "geonameId": 2250863,
        "name": "Kandion Mangana",
        "children": [
            
        ]
    },
    {
        "geonameId": 2250859,
        "name": "Kandiounkou",
        "children": [
            
        ]
    },
    {
        "geonameId": 2250860,
        "name": "Kandiounkou",
        "children": [
            
        ]
    },
    {
        "geonameId": 2250869,
        "name": "Kandi\u00e9noug",
        "children": [
            
        ]
    },
    {
        "geonameId": 2250837,
        "name": "Kangodi",
        "children": [
            
        ]
    },
    {
        "geonameId": 2250828,
        "name": "Kaniko",
        "children": [
            
        ]
    },
    {
        "geonameId": 2250819,
        "name": "Kankoulountou",
        "children": [
            
        ]
    },
    {
        "geonameId": 2250847,
        "name": "Kan\u00e9ma",
        "children": [
            
        ]
    },
    {
        "geonameId": 2250790,
        "name": "Kaour",
        "children": [
            
        ]
    },
    {
        "geonameId": 2250782,
        "name": "Kapote",
        "children": [
            
        ]
    },
    {
        "geonameId": 2250781,
        "name": "Kapoundoune",
        "children": [
            
        ]
    },
    {
        "geonameId": 2250766,
        "name": "Karantaba",
        "children": [
            
        ]
    },
    {
        "geonameId": 2250769,
        "name": "Karantaba",
        "children": [
            
        ]
    },
    {
        "geonameId": 2250770,
        "name": "Karantaba",
        "children": [
            
        ]
    },
    {
        "geonameId": 2250751,
        "name": "Karoumbou",
        "children": [
            
        ]
    },
    {
        "geonameId": 2250748,
        "name": "Karsia",
        "children": [
            
        ]
    },
    {
        "geonameId": 2250744,
        "name": "Kasi",
        "children": [
            
        ]
    },
    {
        "geonameId": 2250722,
        "name": "Kataba Guidima",
        "children": [
            
        ]
    },
    {
        "geonameId": 2250719,
        "name": "Katabina",
        "children": [
            
        ]
    },
    {
        "geonameId": 2250655,
        "name": "Kebeum",
        "children": [
            
        ]
    },
    {
        "geonameId": 2250595,
        "name": "Kerel",
        "children": [
            
        ]
    },
    {
        "geonameId": 2249890,
        "name": "Kignine",
        "children": [
            
        ]
    },
    {
        "geonameId": 2249877,
        "name": "Kinndiri",
        "children": [
            
        ]
    },
    {
        "geonameId": 2249876,
        "name": "Kintingourou",
        "children": [
            
        ]
    },
    {
        "geonameId": 2249848,
        "name": "Koboel",
        "children": [
            
        ]
    },
    {
        "geonameId": 2249827,
        "name": "Kodji",
        "children": [
            
        ]
    },
    {
        "geonameId": 2249810,
        "name": "Kohel",
        "children": [
            
        ]
    },
    {
        "geonameId": 2249791,
        "name": "Kokonba",
        "children": [
            
        ]
    },
    {
        "geonameId": 2249787,
        "name": "Kokoung Sobali",
        "children": [
            
        ]
    },
    {
        "geonameId": 2249784,
        "name": "Kolane",
        "children": [
            
        ]
    },
    {
        "geonameId": 2249770,
        "name": "Kolibantang",
        "children": [
            
        ]
    },
    {
        "geonameId": 2249769,
        "name": "Kolikounda",
        "children": [
            
        ]
    },
    {
        "geonameId": 2249766,
        "name": "Koling",
        "children": [
            
        ]
    },
    {
        "geonameId": 2249666,
        "name": "Kouadi Ba\u00efnouk",
        "children": [
            
        ]
    },
    {
        "geonameId": 2249657,
        "name": "Koubone",
        "children": [
            
        ]
    },
    {
        "geonameId": 2249653,
        "name": "Koudib\u00e9kounda",
        "children": [
            
        ]
    },
    {
        "geonameId": 2249648,
        "name": "Koudjini",
        "children": [
            
        ]
    },
    {
        "geonameId": 2249640,
        "name": "Kougne",
        "children": [
            
        ]
    },
    {
        "geonameId": 2249591,
        "name": "Koumbamo",
        "children": [
            
        ]
    },
    {
        "geonameId": 2249569,
        "name": "Kounayan",
        "children": [
            
        ]
    },
    {
        "geonameId": 2249570,
        "name": "Kounayan",
        "children": [
            
        ]
    },
    {
        "geonameId": 2249548,
        "name": "Kouniara Santo",
        "children": [
            
        ]
    },
    {
        "geonameId": 2249546,
        "name": "Kounkali",
        "children": [
            
        ]
    },
    {
        "geonameId": 2249542,
        "name": "Kounounding Dio\u00e9",
        "children": [
            
        ]
    },
    {
        "geonameId": 2249488,
        "name": "Koussaor",
        "children": [
            
        ]
    },
    {
        "geonameId": 2249487,
        "name": "Koussi",
        "children": [
            
        ]
    },
    {
        "geonameId": 2249481,
        "name": "Koutadala",
        "children": [
            
        ]
    },
    {
        "geonameId": 2249459,
        "name": "Koutounta Ali Koli",
        "children": [
            
        ]
    },
    {
        "geonameId": 2249446,
        "name": "Krissime",
        "children": [
            
        ]
    },
    {
        "geonameId": 2250612,
        "name": "K\u00e9n\u00e9wa",
        "children": [
            
        ]
    },
    {
        "geonameId": 2250603,
        "name": "K\u00e9rakounda",
        "children": [
            
        ]
    },
    {
        "geonameId": 2250590,
        "name": "K\u00e9r\u00e9vane",
        "children": [
            
        ]
    },
    {
        "geonameId": 2249290,
        "name": "Li Kounda",
        "children": [
            
        ]
    },
    {
        "geonameId": 2249287,
        "name": "Limane",
        "children": [
            
        ]
    },
    {
        "geonameId": 2249276,
        "name": "Linki\u00e9to",
        "children": [
            
        ]
    },
    {
        "geonameId": 2249058,
        "name": "Madina",
        "children": [
            
        ]
    },
    {
        "geonameId": 2249061,
        "name": "Madina",
        "children": [
            
        ]
    },
    {
        "geonameId": 2249062,
        "name": "Madina",
        "children": [
            
        ]
    },
    {
        "geonameId": 2249063,
        "name": "Madina",
        "children": [
            
        ]
    },
    {
        "geonameId": 2249065,
        "name": "Madina",
        "children": [
            
        ]
    },
    {
        "geonameId": 2249032,
        "name": "Madina Finndif\u00e9to",
        "children": [
            
        ]
    },
    {
        "geonameId": 2249024,
        "name": "Madina Mandingue",
        "children": [
            
        ]
    },
    {
        "geonameId": 2249008,
        "name": "Madina Torodo",
        "children": [
            
        ]
    },
    {
        "geonameId": 2249000,
        "name": "Mafonko",
        "children": [
            
        ]
    },
    {
        "geonameId": 2248982,
        "name": "Maka",
        "children": [
            
        ]
    },
    {
        "geonameId": 2248920,
        "name": "Malandiankounda",
        "children": [
            
        ]
    },
    {
        "geonameId": 2248907,
        "name": "Malifara",
        "children": [
            
        ]
    },
    {
        "geonameId": 2248906,
        "name": "Malifara Brassou",
        "children": [
            
        ]
    },
    {
        "geonameId": 2248885,
        "name": "Mambounkou",
        "children": [
            
        ]
    },
    {
        "geonameId": 2248870,
        "name": "Manbign\u00e9",
        "children": [
            
        ]
    },
    {
        "geonameId": 2248855,
        "name": "Mandin\u00e9 Fod\u00e9 Kaba",
        "children": [
            
        ]
    },
    {
        "geonameId": 2248842,
        "name": "Mangakounda",
        "children": [
            
        ]
    },
    {
        "geonameId": 2248837,
        "name": "Mangaroungou Santo",
        "children": [
            
        ]
    },
    {
        "geonameId": 2248828,
        "name": "Maniora Mandingue",
        "children": [
            
        ]
    },
    {
        "geonameId": 2248825,
        "name": "Mankolikounda",
        "children": [
            
        ]
    },
    {
        "geonameId": 2248824,
        "name": "Mankono Ba",
        "children": [
            
        ]
    },
    {
        "geonameId": 2248823,
        "name": "Mankonondine",
        "children": [
            
        ]
    },
    {
        "geonameId": 2248822,
        "name": "Mankonton",
        "children": [
            
        ]
    },
    {
        "geonameId": 2248820,
        "name": "Mansaba",
        "children": [
            
        ]
    },
    {
        "geonameId": 2248845,
        "name": "Man\u00e9kounda",
        "children": [
            
        ]
    },
    {
        "geonameId": 2248846,
        "name": "Man\u00e9kounda",
        "children": [
            
        ]
    },
    {
        "geonameId": 2248803,
        "name": "Marakissa",
        "children": [
            
        ]
    },
    {
        "geonameId": 2248801,
        "name": "Marandan",
        "children": [
            
        ]
    },
    {
        "geonameId": 2248783,
        "name": "Maronkounda",
        "children": [
            
        ]
    },
    {
        "geonameId": 2248776,
        "name": "Marsassoum Santa",
        "children": [
            
        ]
    },
    {
        "geonameId": 2248760,
        "name": "Massaria",
        "children": [
            
        ]
    },
    {
        "geonameId": 2248731,
        "name": "Mayor",
        "children": [
            
        ]
    },
    {
        "geonameId": 2248330,
        "name": "Missira",
        "children": [
            
        ]
    },
    {
        "geonameId": 2248326,
        "name": "Missira",
        "children": [
            
        ]
    },
    {
        "geonameId": 2248332,
        "name": "Missira",
        "children": [
            
        ]
    },
    {
        "geonameId": 2248334,
        "name": "Missira",
        "children": [
            
        ]
    },
    {
        "geonameId": 2248314,
        "name": "Missira Bourbon",
        "children": [
            
        ]
    },
    {
        "geonameId": 2248275,
        "name": "Moniam",
        "children": [
            
        ]
    },
    {
        "geonameId": 2248256,
        "name": "Mosgu\u00e9e",
        "children": [
            
        ]
    },
    {
        "geonameId": 2248212,
        "name": "Moyafara",
        "children": [
            
        ]
    },
    {
        "geonameId": 2247953,
        "name": "Ndiama",
        "children": [
            
        ]
    },
    {
        "geonameId": 2252804,
        "name": "Ndiamakouta",
        "children": [
            
        ]
    },
    {
        "geonameId": 2247950,
        "name": "Ndiamakouta",
        "children": [
            
        ]
    },
    {
        "geonameId": 2247720,
        "name": "Ndiolof\u00e8ne",
        "children": [
            
        ]
    },
    {
        "geonameId": 2247327,
        "name": "Niadi\u00e8me",
        "children": [
            
        ]
    },
    {
        "geonameId": 2247577,
        "name": "N\u00e9ma",
        "children": [
            
        ]
    },
    {
        "geonameId": 2247571,
        "name": "N\u00e9ma Diassor",
        "children": [
            
        ]
    },
    {
        "geonameId": 2246810,
        "name": "Pantodosse Diola",
        "children": [
            
        ]
    },
    {
        "geonameId": 2246474,
        "name": "Safane",
        "children": [
            
        ]
    },
    {
        "geonameId": 2246424,
        "name": "Salik\u00e9ni\u00e9",
        "children": [
            
        ]
    },
    {
        "geonameId": 2246420,
        "name": "Saliote",
        "children": [
            
        ]
    },
    {
        "geonameId": 2246322,
        "name": "Samine Escale",
        "children": [
            
        ]
    },
    {
        "geonameId": 2246309,
        "name": "Samtoulou",
        "children": [
            
        ]
    },
    {
        "geonameId": 2246286,
        "name": "Sandini\u00e8r",
        "children": [
            
        ]
    },
    {
        "geonameId": 2246135,
        "name": "Sar\u00e9 Birane",
        "children": [
            
        ]
    },
    {
        "geonameId": 2246111,
        "name": "Sar\u00e9 Damou",
        "children": [
            
        ]
    },
    {
        "geonameId": 2245732,
        "name": "Sassita",
        "children": [
            
        ]
    },
    {
        "geonameId": 2245585,
        "name": "Sifassou",
        "children": [
            
        ]
    },
    {
        "geonameId": 2245578,
        "name": "Sikoum",
        "children": [
            
        ]
    },
    {
        "geonameId": 2245566,
        "name": "Silaya Silakounda",
        "children": [
            
        ]
    },
    {
        "geonameId": 2245552,
        "name": "Simbandi Balant",
        "children": [
            
        ]
    },
    {
        "geonameId": 2245551,
        "name": "Simbandi Brassou",
        "children": [
            
        ]
    },
    {
        "geonameId": 2245534,
        "name": "Sindina",
        "children": [
            
        ]
    },
    {
        "geonameId": 2245509,
        "name": "Singop Tilidji",
        "children": [
            
        ]
    },
    {
        "geonameId": 2245507,
        "name": "Singu\u00e8r",
        "children": [
            
        ]
    },
    {
        "geonameId": 2245505,
        "name": "Singu\u00e8re",
        "children": [
            
        ]
    },
    {
        "geonameId": 2245506,
        "name": "Singu\u00e8re",
        "children": [
            
        ]
    },
    {
        "geonameId": 2245276,
        "name": "Sitaba",
        "children": [
            
        ]
    },
    {
        "geonameId": 2245144,
        "name": "Soumoukounda",
        "children": [
            
        ]
    },
    {
        "geonameId": 2245111,
        "name": "Subikouroto",
        "children": [
            
        ]
    },
    {
        "geonameId": 2245704,
        "name": "S\u00e9dhiou",
        "children": [
            
        ]
    },
    {
        "geonameId": 2245620,
        "name": "S\u00e9rit",
        "children": [
            
        ]
    },
    {
        "geonameId": 2245025,
        "name": "Takon",
        "children": [
            
        ]
    },
    {
        "geonameId": 2244983,
        "name": "Tambakounda",
        "children": [
            
        ]
    },
    {
        "geonameId": 2244979,
        "name": "Tanaf",
        "children": [
            
        ]
    },
    {
        "geonameId": 2244833,
        "name": "Teranbassi",
        "children": [
            
        ]
    },
    {
        "geonameId": 2244472,
        "name": "Tintinkome",
        "children": [
            
        ]
    },
    {
        "geonameId": 2244297,
        "name": "Touba Morikounda",
        "children": [
            
        ]
    },
    {
        "geonameId": 2243989,
        "name": "Y\u00e9ra Dioula",
        "children": [
            
        ]
    }
]