[
    {
        "geonameId": 2254672,
        "name": "Anabiko",
        "children": [
            
        ]
    },
    {
        "geonameId": 2254590,
        "name": "Bab\u00e9l",
        "children": [
            
        ]
    },
    {
        "geonameId": 2254279,
        "name": "Badioula",
        "children": [
            
        ]
    },
    {
        "geonameId": 2254521,
        "name": "Badon",
        "children": [
            
        ]
    },
    {
        "geonameId": 2254490,
        "name": "Bagni-Bagni",
        "children": [
            
        ]
    },
    {
        "geonameId": 2254295,
        "name": "Bambadji",
        "children": [
            
        ]
    },
    {
        "geonameId": 2254291,
        "name": "Bamboya",
        "children": [
            
        ]
    },
    {
        "geonameId": 2254292,
        "name": "Bamboya",
        "children": [
            
        ]
    },
    {
        "geonameId": 2254289,
        "name": "Bandafassi",
        "children": [
            
        ]
    },
    {
        "geonameId": 2254288,
        "name": "Band\u00e9mba",
        "children": [
            
        ]
    },
    {
        "geonameId": 2252070,
        "name": "Banfarato",
        "children": [
            
        ]
    },
    {
        "geonameId": 2254489,
        "name": "Baniomba",
        "children": [
            
        ]
    },
    {
        "geonameId": 2254185,
        "name": "Baraboye",
        "children": [
            
        ]
    },
    {
        "geonameId": 2254186,
        "name": "Barab\u00e9ri",
        "children": [
            
        ]
    },
    {
        "geonameId": 2254182,
        "name": "Barafout\u00e9",
        "children": [
            
        ]
    },
    {
        "geonameId": 2254603,
        "name": "Barandoufari",
        "children": [
            
        ]
    },
    {
        "geonameId": 2254092,
        "name": "Batimba",
        "children": [
            
        ]
    },
    {
        "geonameId": 2254085,
        "name": "Batrank\u00e9",
        "children": [
            
        ]
    },
    {
        "geonameId": 2254457,
        "name": "Baytilaye",
        "children": [
            
        ]
    },
    {
        "geonameId": 2253954,
        "name": "Bembou",
        "children": [
            
        ]
    },
    {
        "geonameId": 2253947,
        "name": "Benndiguira\u00eflo",
        "children": [
            
        ]
    },
    {
        "geonameId": 2253891,
        "name": "Bil\u00e9l",
        "children": [
            
        ]
    },
    {
        "geonameId": 2253753,
        "name": "Bokar Diakank\u00e9",
        "children": [
            
        ]
    },
    {
        "geonameId": 2253712,
        "name": "Bokodi",
        "children": [
            
        ]
    },
    {
        "geonameId": 2253679,
        "name": "Bonmadigui",
        "children": [
            
        ]
    },
    {
        "geonameId": 2253656,
        "name": "Boto",
        "children": [
            
        ]
    },
    {
        "geonameId": 2250602,
        "name": "Bougnanta K\u00e9r\u00e9wane",
        "children": [
            
        ]
    },
    {
        "geonameId": 2246983,
        "name": "Boundoukondi",
        "children": [
            
        ]
    },
    {
        "geonameId": 2253520,
        "name": "Bounsankhoba",
        "children": [
            
        ]
    },
    {
        "geonameId": 2253509,
        "name": "Bour\u00e9ya",
        "children": [
            
        ]
    },
    {
        "geonameId": 2253449,
        "name": "Bransan",
        "children": [
            
        ]
    },
    {
        "geonameId": 2253930,
        "name": "B\u00e9rola",
        "children": [
            
        ]
    },
    {
        "geonameId": 2253347,
        "name": "Dakat\u00e9li",
        "children": [
            
        ]
    },
    {
        "geonameId": 2253336,
        "name": "Dalafing",
        "children": [
            
        ]
    },
    {
        "geonameId": 2253335,
        "name": "Dalaoul\u00e9",
        "children": [
            
        ]
    },
    {
        "geonameId": 2253331,
        "name": "Daloto",
        "children": [
            
        ]
    },
    {
        "geonameId": 2253312,
        "name": "Dand\u00e9",
        "children": [
            
        ]
    },
    {
        "geonameId": 2253287,
        "name": "Daorala",
        "children": [
            
        ]
    },
    {
        "geonameId": 2253112,
        "name": "Dar Salam",
        "children": [
            
        ]
    },
    {
        "geonameId": 2253111,
        "name": "Dar Salam",
        "children": [
            
        ]
    },
    {
        "geonameId": 2253108,
        "name": "Darsalam",
        "children": [
            
        ]
    },
    {
        "geonameId": 2253039,
        "name": "Dembala B\u00e9rola",
        "children": [
            
        ]
    },
    {
        "geonameId": 2253027,
        "name": "Dendifa",
        "children": [
            
        ]
    },
    {
        "geonameId": 2252477,
        "name": "Diabi",
        "children": [
            
        ]
    },
    {
        "geonameId": 2252977,
        "name": "Diab\u00e9ri",
        "children": [
            
        ]
    },
    {
        "geonameId": 2252901,
        "name": "Diakha Madina",
        "children": [
            
        ]
    },
    {
        "geonameId": 2252914,
        "name": "Diakhaba",
        "children": [
            
        ]
    },
    {
        "geonameId": 2252910,
        "name": "Diakhaling",
        "children": [
            
        ]
    },
    {
        "geonameId": 2252862,
        "name": "Dialakatoba",
        "children": [
            
        ]
    },
    {
        "geonameId": 2252645,
        "name": "Diaro",
        "children": [
            
        ]
    },
    {
        "geonameId": 2252590,
        "name": "Dibia",
        "children": [
            
        ]
    },
    {
        "geonameId": 2252589,
        "name": "Dibiko",
        "children": [
            
        ]
    },
    {
        "geonameId": 2252498,
        "name": "Dindiari",
        "children": [
            
        ]
    },
    {
        "geonameId": 2252499,
        "name": "Dind\u00e9f\u00e9llo",
        "children": [
            
        ]
    },
    {
        "geonameId": 2252494,
        "name": "Dingala",
        "children": [
            
        ]
    },
    {
        "geonameId": 2252355,
        "name": "Diougol",
        "children": [
            
        ]
    },
    {
        "geonameId": 2252356,
        "name": "Diougol Diara",
        "children": [
            
        ]
    },
    {
        "geonameId": 2252580,
        "name": "Dj\u00e9gou",
        "children": [
            
        ]
    },
    {
        "geonameId": 2252143,
        "name": "Doubel Badiel",
        "children": [
            
        ]
    },
    {
        "geonameId": 2252147,
        "name": "Dounkita",
        "children": [
            
        ]
    },
    {
        "geonameId": 2252076,
        "name": "Edal\u00e9",
        "children": [
            
        ]
    },
    {
        "geonameId": 2252059,
        "name": "Ekess",
        "children": [
            
        ]
    },
    {
        "geonameId": 2252081,
        "name": "Fadiga",
        "children": [
            
        ]
    },
    {
        "geonameId": 2251990,
        "name": "Falombo",
        "children": [
            
        ]
    },
    {
        "geonameId": 2251962,
        "name": "Faraba",
        "children": [
            
        ]
    },
    {
        "geonameId": 2251889,
        "name": "Fess\u00e9n\u00e9",
        "children": [
            
        ]
    },
    {
        "geonameId": 2251837,
        "name": "Fitaba",
        "children": [
            
        ]
    },
    {
        "geonameId": 2251834,
        "name": "Fod\u00e9 Bin\u00e9ya",
        "children": [
            
        ]
    },
    {
        "geonameId": 2251833,
        "name": "Fod\u00e9kounda",
        "children": [
            
        ]
    },
    {
        "geonameId": 2251821,
        "name": "Fongolembi",
        "children": [
            
        ]
    },
    {
        "geonameId": 2251227,
        "name": "Gangara",
        "children": [
            
        ]
    },
    {
        "geonameId": 2251641,
        "name": "Gasikitt",
        "children": [
            
        ]
    },
    {
        "geonameId": 2251749,
        "name": "Ga\u00e9gui",
        "children": [
            
        ]
    },
    {
        "geonameId": 2251432,
        "name": "Goumbamb\u00e9r\u00e9",
        "children": [
            
        ]
    },
    {
        "geonameId": 2251306,
        "name": "Goumo",
        "children": [
            
        ]
    },
    {
        "geonameId": 2249745,
        "name": "Gour\u00e9n\u00e9t\u00e9r\u00e9",
        "children": [
            
        ]
    },
    {
        "geonameId": 2251175,
        "name": "Hamdalla\u00ef",
        "children": [
            
        ]
    },
    {
        "geonameId": 2251134,
        "name": "Hor\u00e9 Bova",
        "children": [
            
        ]
    },
    {
        "geonameId": 2251123,
        "name": "Ibel",
        "children": [
            
        ]
    },
    {
        "geonameId": 2252021,
        "name": "Itato",
        "children": [
            
        ]
    },
    {
        "geonameId": 2251073,
        "name": "Kabat\u00e9k\u00e9nda",
        "children": [
            
        ]
    },
    {
        "geonameId": 2251026,
        "name": "Kadior\u00e9",
        "children": [
            
        ]
    },
    {
        "geonameId": 2250970,
        "name": "Kakanba",
        "children": [
            
        ]
    },
    {
        "geonameId": 2250832,
        "name": "Kanianbali",
        "children": [
            
        ]
    },
    {
        "geonameId": 2250846,
        "name": "Kanoum\u00e9ring",
        "children": [
            
        ]
    },
    {
        "geonameId": 2250851,
        "name": "Kan\u00e9kar\u00e9",
        "children": [
            
        ]
    },
    {
        "geonameId": 2250777,
        "name": "Karaka\u00e9n\u00e9",
        "children": [
            
        ]
    },
    {
        "geonameId": 2250742,
        "name": "Kassagu\u00e9ri",
        "children": [
            
        ]
    },
    {
        "geonameId": 2249881,
        "name": "Kinemmba",
        "children": [
            
        ]
    },
    {
        "geonameId": 2249845,
        "name": "Kobokoto",
        "children": [
            
        ]
    },
    {
        "geonameId": 2249846,
        "name": "Kobokoto",
        "children": [
            
        ]
    },
    {
        "geonameId": 2249840,
        "name": "Koboye",
        "children": [
            
        ]
    },
    {
        "geonameId": 2249735,
        "name": "Kondokhou",
        "children": [
            
        ]
    },
    {
        "geonameId": 2249696,
        "name": "Korolo",
        "children": [
            
        ]
    },
    {
        "geonameId": 2249898,
        "name": "Kossanto",
        "children": [
            
        ]
    },
    {
        "geonameId": 2249681,
        "name": "Kot\u00e9",
        "children": [
            
        ]
    },
    {
        "geonameId": 2249601,
        "name": "Koumaf\u00e9l\u00e9",
        "children": [
            
        ]
    },
    {
        "geonameId": 2249581,
        "name": "Koumboutourou",
        "children": [
            
        ]
    },
    {
        "geonameId": 2249565,
        "name": "Koundaya",
        "children": [
            
        ]
    },
    {
        "geonameId": 2250649,
        "name": "K\u00e9dio",
        "children": [
            
        ]
    },
    {
        "geonameId": 2250645,
        "name": "K\u00e9dougou",
        "children": [
            
        ]
    },
    {
        "geonameId": 2250646,
        "name": "K\u00e9dougou",
        "children": [
            
        ]
    },
    {
        "geonameId": 2250643,
        "name": "K\u00e9kokoto",
        "children": [
            
        ]
    },
    {
        "geonameId": 2250642,
        "name": "K\u00e9kr\u00e9ti",
        "children": [
            
        ]
    },
    {
        "geonameId": 2250610,
        "name": "K\u00e9niassou",
        "children": [
            
        ]
    },
    {
        "geonameId": 2250596,
        "name": "K\u00e9r\u00e9kounda",
        "children": [
            
        ]
    },
    {
        "geonameId": 2250591,
        "name": "K\u00e9r\u00e9vane",
        "children": [
            
        ]
    },
    {
        "geonameId": 2249939,
        "name": "K\u00e9woye",
        "children": [
            
        ]
    },
    {
        "geonameId": 2249435,
        "name": "Lagord\u00e9",
        "children": [
            
        ]
    },
    {
        "geonameId": 2249427,
        "name": "Lakanta",
        "children": [
            
        ]
    },
    {
        "geonameId": 2249404,
        "name": "Laminia",
        "children": [
            
        ]
    },
    {
        "geonameId": 2249386,
        "name": "Landi\u00e9ni",
        "children": [
            
        ]
    },
    {
        "geonameId": 2249387,
        "name": "Land\u00e9 Baytil",
        "children": [
            
        ]
    },
    {
        "geonameId": 2249389,
        "name": "Lomb\u00e9l",
        "children": [
            
        ]
    },
    {
        "geonameId": 2249205,
        "name": "Lougu\u00e9niani",
        "children": [
            
        ]
    },
    {
        "geonameId": 2249353,
        "name": "L\u00e9bar\u00e9 Tianni\u00e9to",
        "children": [
            
        ]
    },
    {
        "geonameId": 2249348,
        "name": "L\u00e9f\u00e9llo",
        "children": [
            
        ]
    },
    {
        "geonameId": 2249337,
        "name": "L\u00e9lou",
        "children": [
            
        ]
    },
    {
        "geonameId": 2249342,
        "name": "L\u00e9sf\u00e9llo",
        "children": [
            
        ]
    },
    {
        "geonameId": 2249059,
        "name": "Madina",
        "children": [
            
        ]
    },
    {
        "geonameId": 2249047,
        "name": "Madina Baf\u00e9",
        "children": [
            
        ]
    },
    {
        "geonameId": 2249041,
        "name": "Madina Dantilia",
        "children": [
            
        ]
    },
    {
        "geonameId": 2249033,
        "name": "Madina Faroto",
        "children": [
            
        ]
    },
    {
        "geonameId": 2249007,
        "name": "Madina Toubacouta",
        "children": [
            
        ]
    },
    {
        "geonameId": 2249005,
        "name": "Madiou",
        "children": [
            
        ]
    },
    {
        "geonameId": 2249067,
        "name": "Madi\u00e9ri",
        "children": [
            
        ]
    },
    {
        "geonameId": 2248947,
        "name": "Makana",
        "children": [
            
        ]
    },
    {
        "geonameId": 2248929,
        "name": "Mako",
        "children": [
            
        ]
    },
    {
        "geonameId": 2248917,
        "name": "Mal\u00e9ko",
        "children": [
            
        ]
    },
    {
        "geonameId": 2248895,
        "name": "Mamadou Boundou",
        "children": [
            
        ]
    },
    {
        "geonameId": 2248891,
        "name": "Mamakono",
        "children": [
            
        ]
    },
    {
        "geonameId": 2248831,
        "name": "Mamankanti",
        "children": [
            
        ]
    },
    {
        "geonameId": 2248791,
        "name": "Margou",
        "children": [
            
        ]
    },
    {
        "geonameId": 2248782,
        "name": "Marougou",
        "children": [
            
        ]
    },
    {
        "geonameId": 2248805,
        "name": "Marougoukoto",
        "children": [
            
        ]
    },
    {
        "geonameId": 2248780,
        "name": "Marougoundi",
        "children": [
            
        ]
    },
    {
        "geonameId": 2248652,
        "name": "Mbass",
        "children": [
            
        ]
    },
    {
        "geonameId": 2248519,
        "name": "Mbon Bassari",
        "children": [
            
        ]
    },
    {
        "geonameId": 2248520,
        "name": "Mbon Peul",
        "children": [
            
        ]
    },
    {
        "geonameId": 2248580,
        "name": "Mb\u00e9ma",
        "children": [
            
        ]
    },
    {
        "geonameId": 2248343,
        "name": "Miliou",
        "children": [
            
        ]
    },
    {
        "geonameId": 2248311,
        "name": "Missira Dantilia",
        "children": [
            
        ]
    },
    {
        "geonameId": 2248328,
        "name": "Missira Sirimana",
        "children": [
            
        ]
    },
    {
        "geonameId": 2248262,
        "name": "Moro\u00efafara",
        "children": [
            
        ]
    },
    {
        "geonameId": 2248241,
        "name": "Moulounga",
        "children": [
            
        ]
    },
    {
        "geonameId": 2248230,
        "name": "Mouran",
        "children": [
            
        ]
    },
    {
        "geonameId": 2248439,
        "name": "M\u00e9dina Bo\u00e9ni",
        "children": [
            
        ]
    },
    {
        "geonameId": 2248185,
        "name": "Nafadji",
        "children": [
            
        ]
    },
    {
        "geonameId": 2248169,
        "name": "Nam\u00e9l",
        "children": [
            
        ]
    },
    {
        "geonameId": 2248161,
        "name": "Nandoumari",
        "children": [
            
        ]
    },
    {
        "geonameId": 2248154,
        "name": "Nangar",
        "children": [
            
        ]
    },
    {
        "geonameId": 2248152,
        "name": "Nango",
        "children": [
            
        ]
    },
    {
        "geonameId": 2248133,
        "name": "Natia",
        "children": [
            
        ]
    },
    {
        "geonameId": 2248049,
        "name": "Nd\u00e9bou",
        "children": [
            
        ]
    },
    {
        "geonameId": 2247424,
        "name": "Ngoppou",
        "children": [
            
        ]
    },
    {
        "geonameId": 2247286,
        "name": "Niamaya",
        "children": [
            
        ]
    },
    {
        "geonameId": 2247249,
        "name": "Nianguimoni",
        "children": [
            
        ]
    },
    {
        "geonameId": 2247203,
        "name": "Ni\u00e9m\u00e9nik\u00e9",
        "children": [
            
        ]
    },
    {
        "geonameId": 2247123,
        "name": "Noumoufoukha",
        "children": [
            
        ]
    },
    {
        "geonameId": 2247585,
        "name": "N\u00e9godi\u00e9",
        "children": [
            
        ]
    },
    {
        "geonameId": 2247578,
        "name": "N\u00e9ma",
        "children": [
            
        ]
    },
    {
        "geonameId": 2247558,
        "name": "N\u00e9pen Diakha",
        "children": [
            
        ]
    },
    {
        "geonameId": 2247557,
        "name": "N\u00e9pen Peul",
        "children": [
            
        ]
    },
    {
        "geonameId": 2247010,
        "name": "Ouinndiou",
        "children": [
            
        ]
    },
    {
        "geonameId": 2246899,
        "name": "Outioumb\u00e9l",
        "children": [
            
        ]
    },
    {
        "geonameId": 2246471,
        "name": "Sagaridji",
        "children": [
            
        ]
    },
    {
        "geonameId": 2246435,
        "name": "Sakhouya",
        "children": [
            
        ]
    },
    {
        "geonameId": 2246440,
        "name": "Sakhouya",
        "children": [
            
        ]
    },
    {
        "geonameId": 2246301,
        "name": "Sambagal",
        "children": [
            
        ]
    },
    {
        "geonameId": 2246333,
        "name": "Sam\u00e9khoto",
        "children": [
            
        ]
    },
    {
        "geonameId": 2246296,
        "name": "Sanbaranbougou",
        "children": [
            
        ]
    },
    {
        "geonameId": 2246249,
        "name": "Sanigourou",
        "children": [
            
        ]
    },
    {
        "geonameId": 2245604,
        "name": "Sibikiling",
        "children": [
            
        ]
    },
    {
        "geonameId": 2245573,
        "name": "Sillakounda",
        "children": [
            
        ]
    },
    {
        "geonameId": 2245571,
        "name": "Sillakounda Diakha",
        "children": [
            
        ]
    },
    {
        "geonameId": 2245317,
        "name": "Sintiouroudissi",
        "children": [
            
        ]
    },
    {
        "geonameId": 2245141,
        "name": "Soundoutourou",
        "children": [
            
        ]
    },
    {
        "geonameId": 2246509,
        "name": "S\u00e2mouka",
        "children": [
            
        ]
    },
    {
        "geonameId": 2245691,
        "name": "S\u00e8gu\u00e8ko",
        "children": [
            
        ]
    },
    {
        "geonameId": 2245683,
        "name": "S\u00e9khoto",
        "children": [
            
        ]
    },
    {
        "geonameId": 2244972,
        "name": "Tambanoumouya",
        "children": [
            
        ]
    },
    {
        "geonameId": 2244652,
        "name": "Tiaramal\u00e9l",
        "children": [
            
        ]
    },
    {
        "geonameId": 2244524,
        "name": "Tikankali",
        "children": [
            
        ]
    },
    {
        "geonameId": 2244455,
        "name": "Tiok\u00e9tian",
        "children": [
            
        ]
    },
    {
        "geonameId": 2244353,
        "name": "Tomboronkoto",
        "children": [
            
        ]
    },
    {
        "geonameId": 2244307,
        "name": "Toubakouta",
        "children": [
            
        ]
    },
    {
        "geonameId": 2244241,
        "name": "Touman\u00e9a",
        "children": [
            
        ]
    },
    {
        "geonameId": 6586393,
        "name": "T\u00e9mb\u00e9ri",
        "children": [
            
        ]
    },
    {
        "geonameId": 2244180,
        "name": "V\u00e9lingara",
        "children": [
            
        ]
    },
    {
        "geonameId": 2244078,
        "name": "Wallan Kindi",
        "children": [
            
        ]
    },
    {
        "geonameId": 2245318,
        "name": "Wallan Sintiou",
        "children": [
            
        ]
    },
    {
        "geonameId": 2244075,
        "name": "Wamba",
        "children": [
            
        ]
    },
    {
        "geonameId": 2244063,
        "name": "Wondio",
        "children": [
            
        ]
    },
    {
        "geonameId": 2252080,
        "name": "\u00c9barakh",
        "children": [
            
        ]
    },
    {
        "geonameId": 2252071,
        "name": "\u00c9dine",
        "children": [
            
        ]
    },
    {
        "geonameId": 2252064,
        "name": "\u00c9gaty\u00e9",
        "children": [
            
        ]
    },
    {
        "geonameId": 2252063,
        "name": "\u00c9nyissara",
        "children": [
            
        ]
    },
    {
        "geonameId": 2252016,
        "name": "\u00c9pengu\u00e9",
        "children": [
            
        ]
    },
    {
        "geonameId": 2252017,
        "name": "\u00c9tiolo",
        "children": [
            
        ]
    },
    {
        "geonameId": 2252019,
        "name": "\u00c9ti\u00e9s",
        "children": [
            
        ]
    }
]