[
    {
        "geonameId": 2254712,
        "name": "Ali Gane",
        "children": [
            
        ]
    },
    {
        "geonameId": 2254290,
        "name": "Band",
        "children": [
            
        ]
    },
    {
        "geonameId": 2254173,
        "name": "Barakounda",
        "children": [
            
        ]
    },
    {
        "geonameId": 2254454,
        "name": "Ba\u00eftit",
        "children": [
            
        ]
    },
    {
        "geonameId": 2253844,
        "name": "Birkelane",
        "children": [
            
        ]
    },
    {
        "geonameId": 2253738,
        "name": "Boki Baga Pui",
        "children": [
            
        ]
    },
    {
        "geonameId": 2253688,
        "name": "Bondi\u00e9",
        "children": [
            
        ]
    },
    {
        "geonameId": 2253564,
        "name": "Boulogne Diavandou",
        "children": [
            
        ]
    },
    {
        "geonameId": 2253589,
        "name": "Boul\u00e9l",
        "children": [
            
        ]
    },
    {
        "geonameId": 2253452,
        "name": "Boye Gnibi",
        "children": [
            
        ]
    },
    {
        "geonameId": 2254057,
        "name": "B\u00e9la",
        "children": [
            
        ]
    },
    {
        "geonameId": 2253965,
        "name": "B\u00e9logne",
        "children": [
            
        ]
    },
    {
        "geonameId": 2253387,
        "name": "Dagabiram",
        "children": [
            
        ]
    },
    {
        "geonameId": 2253304,
        "name": "Dangane",
        "children": [
            
        ]
    },
    {
        "geonameId": 2252933,
        "name": "Diagl\u00e9",
        "children": [
            
        ]
    },
    {
        "geonameId": 2252907,
        "name": "Diak\u00e9",
        "children": [
            
        ]
    },
    {
        "geonameId": 2252769,
        "name": "Diamel",
        "children": [
            
        ]
    },
    {
        "geonameId": 2252710,
        "name": "Diank\u00e9kow",
        "children": [
            
        ]
    },
    {
        "geonameId": 2252637,
        "name": "Diassoum",
        "children": [
            
        ]
    },
    {
        "geonameId": 2252635,
        "name": "Diatafaka",
        "children": [
            
        ]
    },
    {
        "geonameId": 2252622,
        "name": "Diatmel Dam",
        "children": [
            
        ]
    },
    {
        "geonameId": 2252594,
        "name": "Diay\u00e8ne Vali",
        "children": [
            
        ]
    },
    {
        "geonameId": 2252517,
        "name": "Dimb\u00e9 Korki",
        "children": [
            
        ]
    },
    {
        "geonameId": 2252377,
        "name": "Diot\u00e9 Kelbiram",
        "children": [
            
        ]
    },
    {
        "geonameId": 2252372,
        "name": "Dioub\u00e8ne Ta\u00efba",
        "children": [
            
        ]
    },
    {
        "geonameId": 2252373,
        "name": "Dioub\u00e9ne Diakl\u00e9",
        "children": [
            
        ]
    },
    {
        "geonameId": 2252332,
        "name": "Dioum",
        "children": [
            
        ]
    },
    {
        "geonameId": 2252320,
        "name": "Diouni Guel",
        "children": [
            
        ]
    },
    {
        "geonameId": 2252316,
        "name": "Diountou Gu\u00e9y\u00e8ne",
        "children": [
            
        ]
    },
    {
        "geonameId": 2252160,
        "name": "Donbol",
        "children": [
            
        ]
    },
    {
        "geonameId": 2251762,
        "name": "Gadiaga",
        "children": [
            
        ]
    },
    {
        "geonameId": 2251712,
        "name": "Gama",
        "children": [
            
        ]
    },
    {
        "geonameId": 2251698,
        "name": "Ganbou",
        "children": [
            
        ]
    },
    {
        "geonameId": 2251576,
        "name": "Gnibi",
        "children": [
            
        ]
    },
    {
        "geonameId": 2251567,
        "name": "Gobak Soukoum",
        "children": [
            
        ]
    },
    {
        "geonameId": 2251562,
        "name": "Godiba",
        "children": [
            
        ]
    },
    {
        "geonameId": 2251488,
        "name": "Gotou Malik",
        "children": [
            
        ]
    },
    {
        "geonameId": 2251459,
        "name": "Goui Madi Bouri",
        "children": [
            
        ]
    },
    {
        "geonameId": 2251454,
        "name": "Goulo Koum",
        "children": [
            
        ]
    },
    {
        "geonameId": 2251461,
        "name": "Gou\u00ef Leum",
        "children": [
            
        ]
    },
    {
        "geonameId": 2251203,
        "name": "Guissam",
        "children": [
            
        ]
    },
    {
        "geonameId": 2251290,
        "name": "Gu\u00e9rane",
        "children": [
            
        ]
    },
    {
        "geonameId": 2251190,
        "name": "Haf\u00e9",
        "children": [
            
        ]
    },
    {
        "geonameId": 2251137,
        "name": "Hokar",
        "children": [
            
        ]
    },
    {
        "geonameId": 2251007,
        "name": "Kaffrine",
        "children": [
            
        ]
    },
    {
        "geonameId": 2250738,
        "name": "Kassas",
        "children": [
            
        ]
    },
    {
        "geonameId": 2250736,
        "name": "Kassassa",
        "children": [
            
        ]
    },
    {
        "geonameId": 2250717,
        "name": "Katakel",
        "children": [
            
        ]
    },
    {
        "geonameId": 2250704,
        "name": "Katiot",
        "children": [
            
        ]
    },
    {
        "geonameId": 2250981,
        "name": "Ka\u00ef",
        "children": [
            
        ]
    },
    {
        "geonameId": 2250452,
        "name": "Keur Biram Mata",
        "children": [
            
        ]
    },
    {
        "geonameId": 2250404,
        "name": "Keur Diangane",
        "children": [
            
        ]
    },
    {
        "geonameId": 2250390,
        "name": "Keur Djibi",
        "children": [
            
        ]
    },
    {
        "geonameId": 2250240,
        "name": "Keur Manoumb\u00e9",
        "children": [
            
        ]
    },
    {
        "geonameId": 2250215,
        "name": "Keur Matar",
        "children": [
            
        ]
    },
    {
        "geonameId": 2250116,
        "name": "Keur Ndam\u00e9",
        "children": [
            
        ]
    },
    {
        "geonameId": 2250005,
        "name": "Keur Sav\u00e9li",
        "children": [
            
        ]
    },
    {
        "geonameId": 2249989,
        "name": "Keur S\u00e9ring Aoua",
        "children": [
            
        ]
    },
    {
        "geonameId": 2249878,
        "name": "Kinndian\u00e9",
        "children": [
            
        ]
    },
    {
        "geonameId": 2249808,
        "name": "Koho Peul",
        "children": [
            
        ]
    },
    {
        "geonameId": 2249589,
        "name": "Koumbidia",
        "children": [
            
        ]
    },
    {
        "geonameId": 2249552,
        "name": "Koung Koung",
        "children": [
            
        ]
    },
    {
        "geonameId": 2249554,
        "name": "Koungheul",
        "children": [
            
        ]
    },
    {
        "geonameId": 2249533,
        "name": "Koura Mouride",
        "children": [
            
        ]
    },
    {
        "geonameId": 2249510,
        "name": "Kourou Diob\u00e8ne",
        "children": [
            
        ]
    },
    {
        "geonameId": 2249503,
        "name": "Kourou Loumbol",
        "children": [
            
        ]
    },
    {
        "geonameId": 2249457,
        "name": "Kouyan\u00e9",
        "children": [
            
        ]
    },
    {
        "geonameId": 2250661,
        "name": "K\u00e9b\u00e9 Lanim",
        "children": [
            
        ]
    },
    {
        "geonameId": 2249384,
        "name": "Lanel",
        "children": [
            
        ]
    },
    {
        "geonameId": 2249244,
        "name": "Longkane",
        "children": [
            
        ]
    },
    {
        "geonameId": 2249134,
        "name": "Loumbi Diaoub\u00e9",
        "children": [
            
        ]
    },
    {
        "geonameId": 2249084,
        "name": "Lour-Escale",
        "children": [
            
        ]
    },
    {
        "geonameId": 2248914,
        "name": "Mal\u00e8me",
        "children": [
            
        ]
    },
    {
        "geonameId": 2248864,
        "name": "Mandah",
        "children": [
            
        ]
    },
    {
        "geonameId": 2248788,
        "name": "Marl\u00e8me Hodar",
        "children": [
            
        ]
    },
    {
        "geonameId": 2248726,
        "name": "Mbabane",
        "children": [
            
        ]
    },
    {
        "geonameId": 2248602,
        "name": "Mbelbouk",
        "children": [
            
        ]
    },
    {
        "geonameId": 2248512,
        "name": "Mbos",
        "children": [
            
        ]
    },
    {
        "geonameId": 2248511,
        "name": "Mbos Bal",
        "children": [
            
        ]
    },
    {
        "geonameId": 2248510,
        "name": "Mbos Bal Peul",
        "children": [
            
        ]
    },
    {
        "geonameId": 2248509,
        "name": "Mbos Nadiour",
        "children": [
            
        ]
    },
    {
        "geonameId": 2248500,
        "name": "Mboul",
        "children": [
            
        ]
    },
    {
        "geonameId": 2248476,
        "name": "Mbour\u00e9",
        "children": [
            
        ]
    },
    {
        "geonameId": 2248353,
        "name": "Mess\u00e9re Guibel",
        "children": [
            
        ]
    },
    {
        "geonameId": 2248350,
        "name": "Mess\u00e9r\u00e9 Tiakel",
        "children": [
            
        ]
    },
    {
        "geonameId": 2248341,
        "name": "Mina",
        "children": [
            
        ]
    },
    {
        "geonameId": 2248339,
        "name": "Minal",
        "children": [
            
        ]
    },
    {
        "geonameId": 2248340,
        "name": "Minal",
        "children": [
            
        ]
    },
    {
        "geonameId": 2248320,
        "name": "Missira",
        "children": [
            
        ]
    },
    {
        "geonameId": 2248321,
        "name": "Missira",
        "children": [
            
        ]
    },
    {
        "geonameId": 2248303,
        "name": "Missira Tioy\u00e8ne",
        "children": [
            
        ]
    },
    {
        "geonameId": 2248250,
        "name": "Moui",
        "children": [
            
        ]
    },
    {
        "geonameId": 2248245,
        "name": "Moukhoum\u00e9",
        "children": [
            
        ]
    },
    {
        "geonameId": 2248239,
        "name": "Mounavara",
        "children": [
            
        ]
    },
    {
        "geonameId": 2248220,
        "name": "Mousdalifa",
        "children": [
            
        ]
    },
    {
        "geonameId": 2248445,
        "name": "M\u00e9dina",
        "children": [
            
        ]
    },
    {
        "geonameId": 2248447,
        "name": "M\u00e9dina",
        "children": [
            
        ]
    },
    {
        "geonameId": 2248448,
        "name": "M\u00e9dina",
        "children": [
            
        ]
    },
    {
        "geonameId": 2248449,
        "name": "M\u00e9dina",
        "children": [
            
        ]
    },
    {
        "geonameId": 2248436,
        "name": "M\u00e9dina Diognik",
        "children": [
            
        ]
    },
    {
        "geonameId": 2248434,
        "name": "M\u00e9dina Fas",
        "children": [
            
        ]
    },
    {
        "geonameId": 2248432,
        "name": "M\u00e9dina Keur Babou",
        "children": [
            
        ]
    },
    {
        "geonameId": 2248431,
        "name": "M\u00e9dina Keur Lahine Mara",
        "children": [
            
        ]
    },
    {
        "geonameId": 2248430,
        "name": "M\u00e9dina Koli",
        "children": [
            
        ]
    },
    {
        "geonameId": 2248428,
        "name": "M\u00e9dina Mbay\u00e8ne",
        "children": [
            
        ]
    },
    {
        "geonameId": 2248427,
        "name": "M\u00e9dina Ndiay\u00e8ne",
        "children": [
            
        ]
    },
    {
        "geonameId": 2248426,
        "name": "M\u00e9dina Ndovene",
        "children": [
            
        ]
    },
    {
        "geonameId": 2248423,
        "name": "M\u00e9dina Sali",
        "children": [
            
        ]
    },
    {
        "geonameId": 2248422,
        "name": "M\u00e9dina Samb\u00e8ne",
        "children": [
            
        ]
    },
    {
        "geonameId": 2248419,
        "name": "M\u00e9dina Sintiou Amat Maram",
        "children": [
            
        ]
    },
    {
        "geonameId": 2248417,
        "name": "M\u00e9dina Tiar\u00e8ne",
        "children": [
            
        ]
    },
    {
        "geonameId": 2248416,
        "name": "M\u00e9dina Tob\u00e8ne",
        "children": [
            
        ]
    },
    {
        "geonameId": 2248401,
        "name": "M\u00e9o",
        "children": [
            
        ]
    },
    {
        "geonameId": 2248399,
        "name": "M\u00e9o Ndiay\u00e8ne",
        "children": [
            
        ]
    },
    {
        "geonameId": 2248398,
        "name": "M\u00e9o Ndioub\u00e8ne",
        "children": [
            
        ]
    },
    {
        "geonameId": 2248162,
        "name": "Nandjigui",
        "children": [
            
        ]
    },
    {
        "geonameId": 2248147,
        "name": "Naoni",
        "children": [
            
        ]
    },
    {
        "geonameId": 2248131,
        "name": "Navar\u00e8ne",
        "children": [
            
        ]
    },
    {
        "geonameId": 2248108,
        "name": "Ndakar",
        "children": [
            
        ]
    },
    {
        "geonameId": 2248106,
        "name": "Ndakhar",
        "children": [
            
        ]
    },
    {
        "geonameId": 2248098,
        "name": "Ndakhar-Poste",
        "children": [
            
        ]
    },
    {
        "geonameId": 2248093,
        "name": "Ndam",
        "children": [
            
        ]
    },
    {
        "geonameId": 2248074,
        "name": "Ndanga",
        "children": [
            
        ]
    },
    {
        "geonameId": 2248068,
        "name": "Ndanka",
        "children": [
            
        ]
    },
    {
        "geonameId": 2248067,
        "name": "Ndankou",
        "children": [
            
        ]
    },
    {
        "geonameId": 2248012,
        "name": "Ndiabo",
        "children": [
            
        ]
    },
    {
        "geonameId": 2247926,
        "name": "Ndiani\u00e8ne",
        "children": [
            
        ]
    },
    {
        "geonameId": 2247925,
        "name": "Ndiani\u00e8ne Babori",
        "children": [
            
        ]
    },
    {
        "geonameId": 2247923,
        "name": "Ndiankot",
        "children": [
            
        ]
    },
    {
        "geonameId": 2247918,
        "name": "Ndiao Bambali",
        "children": [
            
        ]
    },
    {
        "geonameId": 2247911,
        "name": "Ndiaouara",
        "children": [
            
        ]
    },
    {
        "geonameId": 2247845,
        "name": "Ndiaye Kounda",
        "children": [
            
        ]
    },
    {
        "geonameId": 2247846,
        "name": "Ndiaye Kounda",
        "children": [
            
        ]
    },
    {
        "geonameId": 2247837,
        "name": "Ndiay\u00e8ne",
        "children": [
            
        ]
    },
    {
        "geonameId": 2247838,
        "name": "Ndiay\u00e8ne",
        "children": [
            
        ]
    },
    {
        "geonameId": 2247839,
        "name": "Ndiay\u00e8ne",
        "children": [
            
        ]
    },
    {
        "geonameId": 2247825,
        "name": "Ndiay\u00e8ne Bagana",
        "children": [
            
        ]
    },
    {
        "geonameId": 2247820,
        "name": "Ndiay\u00e8ne Lour",
        "children": [
            
        ]
    },
    {
        "geonameId": 2247760,
        "name": "Ndimbou Touba",
        "children": [
            
        ]
    },
    {
        "geonameId": 2247749,
        "name": "Ndiob\u00e8ne",
        "children": [
            
        ]
    },
    {
        "geonameId": 2247733,
        "name": "Ndiognik",
        "children": [
            
        ]
    },
    {
        "geonameId": 2247728,
        "name": "Ndiok",
        "children": [
            
        ]
    },
    {
        "geonameId": 2247719,
        "name": "Ndiolrhos",
        "children": [
            
        ]
    },
    {
        "geonameId": 2247695,
        "name": "Ndioub\u00e8ne",
        "children": [
            
        ]
    },
    {
        "geonameId": 2247685,
        "name": "Ndioum",
        "children": [
            
        ]
    },
    {
        "geonameId": 2247686,
        "name": "Ndioum",
        "children": [
            
        ]
    },
    {
        "geonameId": 2247681,
        "name": "Ndioum Gu\u00e8nt",
        "children": [
            
        ]
    },
    {
        "geonameId": 2247729,
        "name": "Ndio\u00efli",
        "children": [
            
        ]
    },
    {
        "geonameId": 2247791,
        "name": "Ndi\u00e9me",
        "children": [
            
        ]
    },
    {
        "geonameId": 2247777,
        "name": "Ndi\u00e9ri",
        "children": [
            
        ]
    },
    {
        "geonameId": 2247665,
        "name": "Ndodj",
        "children": [
            
        ]
    },
    {
        "geonameId": 2247604,
        "name": "Ndoun",
        "children": [
            
        ]
    },
    {
        "geonameId": 2247523,
        "name": "Ngam",
        "children": [
            
        ]
    },
    {
        "geonameId": 2247520,
        "name": "Nganda",
        "children": [
            
        ]
    },
    {
        "geonameId": 2247415,
        "name": "Ngoui",
        "children": [
            
        ]
    },
    {
        "geonameId": 2247412,
        "name": "Ngouk\u00e9 Diama",
        "children": [
            
        ]
    },
    {
        "geonameId": 2247411,
        "name": "Ngouk\u00e9 Kouk\u00e9",
        "children": [
            
        ]
    },
    {
        "geonameId": 2247392,
        "name": "Ngouye Diaraf",
        "children": [
            
        ]
    },
    {
        "geonameId": 2247391,
        "name": "Ngouye Di\u00e9ri",
        "children": [
            
        ]
    },
    {
        "geonameId": 2247388,
        "name": "Ngouye Siouarh",
        "children": [
            
        ]
    },
    {
        "geonameId": 2247364,
        "name": "Nguer",
        "children": [
            
        ]
    },
    {
        "geonameId": 2247342,
        "name": "Nguer Mandakh",
        "children": [
            
        ]
    },
    {
        "geonameId": 2247343,
        "name": "Nguiedj",
        "children": [
            
        ]
    },
    {
        "geonameId": 2247328,
        "name": "Niabardo",
        "children": [
            
        ]
    },
    {
        "geonameId": 2247251,
        "name": "Niangu\u00e8ne Kod\u00e9",
        "children": [
            
        ]
    },
    {
        "geonameId": 2247573,
        "name": "N\u00e9ma",
        "children": [
            
        ]
    },
    {
        "geonameId": 2247551,
        "name": "N\u00e9ti Daga",
        "children": [
            
        ]
    },
    {
        "geonameId": 2247036,
        "name": "Ouark\u00e9r\u00e9",
        "children": [
            
        ]
    },
    {
        "geonameId": 2246827,
        "name": "Panal",
        "children": [
            
        ]
    },
    {
        "geonameId": 2246818,
        "name": "Panetiang Fran\u00e7ais",
        "children": [
            
        ]
    },
    {
        "geonameId": 2246753,
        "name": "Pat\u00e9 Tiangaye",
        "children": [
            
        ]
    },
    {
        "geonameId": 2246634,
        "name": "Port Daram\u00e9",
        "children": [
            
        ]
    },
    {
        "geonameId": 2246890,
        "name": "P\u00e2fa",
        "children": [
            
        ]
    },
    {
        "geonameId": 2246548,
        "name": "Ribo Escale",
        "children": [
            
        ]
    },
    {
        "geonameId": 2246547,
        "name": "Ribo Kodiol\u00e9",
        "children": [
            
        ]
    },
    {
        "geonameId": 2246546,
        "name": "Ribo Moussa",
        "children": [
            
        ]
    },
    {
        "geonameId": 2246263,
        "name": "Sangol",
        "children": [
            
        ]
    },
    {
        "geonameId": 2246210,
        "name": "Santi Galgone",
        "children": [
            
        ]
    },
    {
        "geonameId": 2245600,
        "name": "Sibi Nokho",
        "children": [
            
        ]
    },
    {
        "geonameId": 2245437,
        "name": "Sintiou Adar",
        "children": [
            
        ]
    },
    {
        "geonameId": 2245425,
        "name": "Sintiou Bamba",
        "children": [
            
        ]
    },
    {
        "geonameId": 2245400,
        "name": "Sintiou Diamal",
        "children": [
            
        ]
    },
    {
        "geonameId": 2245394,
        "name": "Sintiou Dimb\u00e9",
        "children": [
            
        ]
    },
    {
        "geonameId": 2245362,
        "name": "Sintiou Kafate",
        "children": [
            
        ]
    },
    {
        "geonameId": 2245359,
        "name": "Sintiou Kilimane",
        "children": [
            
        ]
    },
    {
        "geonameId": 2245342,
        "name": "Sintiou Mandar",
        "children": [
            
        ]
    },
    {
        "geonameId": 2245321,
        "name": "Sintiou Pat\u00e9",
        "children": [
            
        ]
    },
    {
        "geonameId": 2245314,
        "name": "Sintiou Sali",
        "children": [
            
        ]
    },
    {
        "geonameId": 2245304,
        "name": "Sintiou Tiako",
        "children": [
            
        ]
    },
    {
        "geonameId": 2245297,
        "name": "Sintiou Vanar",
        "children": [
            
        ]
    },
    {
        "geonameId": 2245692,
        "name": "S\u00e9gr\u00e9 S\u00e9kko",
        "children": [
            
        ]
    },
    {
        "geonameId": 2245612,
        "name": "S\u00e9vane",
        "children": [
            
        ]
    },
    {
        "geonameId": 2244808,
        "name": "Thiariakh Mouride",
        "children": [
            
        ]
    },
    {
        "geonameId": 2244795,
        "name": "Thioy\u00e8ne",
        "children": [
            
        ]
    },
    {
        "geonameId": 2244753,
        "name": "Tial\u00e8ne",
        "children": [
            
        ]
    },
    {
        "geonameId": 2244445,
        "name": "Tiom",
        "children": [
            
        ]
    },
    {
        "geonameId": 2244390,
        "name": "Tiss\u00e9",
        "children": [
            
        ]
    },
    {
        "geonameId": 2244187,
        "name": "Vanar",
        "children": [
            
        ]
    },
    {
        "geonameId": 2244153,
        "name": "Veltiennkou",
        "children": [
            
        ]
    },
    {
        "geonameId": 2244108,
        "name": "Vilan\u00e8m",
        "children": [
            
        ]
    }
]