[
    {
        "geonameId": 3374883,
        "name": "Baboso",
        "children": [
            
        ]
    },
    {
        "geonameId": 3374842,
        "name": "Bonita",
        "children": [
            
        ]
    },
    {
        "geonameId": 3374840,
        "name": "Botija",
        "children": [
            
        ]
    },
    {
        "geonameId": 3374815,
        "name": "Cacha\u00e7o",
        "children": [
            
        ]
    },
    {
        "geonameId": 3374747,
        "name": "Ch\u00e3 da Ribeira",
        "children": [
            
        ]
    },
    {
        "geonameId": 3374740,
        "name": "Ch\u00e3 do Morto",
        "children": [
            
        ]
    },
    {
        "geonameId": 3374739,
        "name": "Ch\u00e3 do Norte",
        "children": [
            
        ]
    },
    {
        "geonameId": 3374730,
        "name": "Ch\u00e3o Queimado",
        "children": [
            
        ]
    },
    {
        "geonameId": 3374691,
        "name": "Curral das Vacas",
        "children": [
            
        ]
    },
    {
        "geonameId": 3374723,
        "name": "C\u00edrio",
        "children": [
            
        ]
    },
    {
        "geonameId": 3374537,
        "name": "Jo\u00e3o Daninha",
        "children": [
            
        ]
    },
    {
        "geonameId": 3374507,
        "name": "Leiro",
        "children": [
            
        ]
    },
    {
        "geonameId": 3374499,
        "name": "Lombo da Torre",
        "children": [
            
        ]
    },
    {
        "geonameId": 3374500,
        "name": "Lombo das Dan\u00e7as",
        "children": [
            
        ]
    },
    {
        "geonameId": 3374498,
        "name": "Lombo de Figueira",
        "children": [
            
        ]
    },
    {
        "geonameId": 3374473,
        "name": "Martiana",
        "children": [
            
        ]
    },
    {
        "geonameId": 3374463,
        "name": "Miguel Pires",
        "children": [
            
        ]
    },
    {
        "geonameId": 3374443,
        "name": "Morrinho",
        "children": [
            
        ]
    },
    {
        "geonameId": 3374440,
        "name": "Morrinho d\u2019\u00c9gua",
        "children": [
            
        ]
    },
    {
        "geonameId": 3374379,
        "name": "Pedrinha",
        "children": [
            
        ]
    },
    {
        "geonameId": 3374369,
        "name": "Perdia",
        "children": [
            
        ]
    },
    {
        "geonameId": 3374356,
        "name": "Pinto",
        "children": [
            
        ]
    },
    {
        "geonameId": 3374336,
        "name": "Porto Novo",
        "children": [
            
        ]
    },
    {
        "geonameId": 3374303,
        "name": "Queimado",
        "children": [
            
        ]
    },
    {
        "geonameId": 3374277,
        "name": "Ribeira Fria",
        "children": [
            
        ]
    },
    {
        "geonameId": 7867524,
        "name": "Ribeira Torta",
        "children": [
            
        ]
    },
    {
        "geonameId": 3374267,
        "name": "Ribeira Vermelha",
        "children": [
            
        ]
    },
    {
        "geonameId": 3374284,
        "name": "Ribeira da Cruz",
        "children": [
            
        ]
    },
    {
        "geonameId": 3374194,
        "name": "Selada",
        "children": [
            
        ]
    },
    {
        "geonameId": 3374192,
        "name": "Seladinha",
        "children": [
            
        ]
    },
    {
        "geonameId": 3374175,
        "name": "Tabuadinha",
        "children": [
            
        ]
    },
    {
        "geonameId": 3374174,
        "name": "Tabuga",
        "children": [
            
        ]
    },
    {
        "geonameId": 3374164,
        "name": "Tarrafal",
        "children": [
            
        ]
    },
    {
        "geonameId": 3374140,
        "name": "Urzeleiro",
        "children": [
            
        ]
    },
    {
        "geonameId": 3374924,
        "name": "\u00c1gua das Fortes",
        "children": [
            
        ]
    }
]