[
    {
        "geonameId": 3374780,
        "name": "Camar\u00f5es",
        "children": [
            
        ]
    },
    {
        "geonameId": 3374759,
        "name": "Carri\u00e7al",
        "children": [
            
        ]
    },
    {
        "geonameId": 3374758,
        "name": "Carvoeiros",
        "children": [
            
        ]
    },
    {
        "geonameId": 3374751,
        "name": "Castilhiano",
        "children": [
            
        ]
    },
    {
        "geonameId": 3374705,
        "name": "Covoada",
        "children": [
            
        ]
    },
    {
        "geonameId": 3374658,
        "name": "Est\u00e2ncia Br\u00e1s",
        "children": [
            
        ]
    },
    {
        "geonameId": 3374632,
        "name": "Figueira de Coxe",
        "children": [
            
        ]
    },
    {
        "geonameId": 3374526,
        "name": "Juncalinho",
        "children": [
            
        ]
    },
    {
        "geonameId": 3374445,
        "name": "Morre Braz",
        "children": [
            
        ]
    },
    {
        "geonameId": 3374436,
        "name": "Morro Alto",
        "children": [
            
        ]
    },
    {
        "geonameId": 3374315,
        "name": "Pregui\u00e7a",
        "children": [
            
        ]
    },
    {
        "geonameId": 3374304,
        "name": "Queimadas",
        "children": [
            
        ]
    },
    {
        "geonameId": 3374121,
        "name": "Vila da Ribeira Brava",
        "children": [
            
        ]
    }
]