[
    {
        "geonameId": 8439749,
        "name": "Barril",
        "children": [
            
        ]
    },
    {
        "geonameId": 3374822,
        "name": "Cabe\u00e7alinho",
        "children": [
            
        ]
    },
    {
        "geonameId": 3374817,
        "name": "Cachacinho",
        "children": [
            
        ]
    },
    {
        "geonameId": 3374801,
        "name": "Calej\u00e3o",
        "children": [
            
        ]
    },
    {
        "geonameId": 3374670,
        "name": "Escada",
        "children": [
            
        ]
    },
    {
        "geonameId": 3374612,
        "name": "Fontainhas",
        "children": [
            
        ]
    },
    {
        "geonameId": 3374417,
        "name": "Ortel\u00e3o",
        "children": [
            
        ]
    },
    {
        "geonameId": 3374407,
        "name": "Palhal",
        "children": [
            
        ]
    },
    {
        "geonameId": 3374328,
        "name": "Praia Branca",
        "children": [
            
        ]
    },
    {
        "geonameId": 3374276,
        "name": "Ribeira Funda",
        "children": [
            
        ]
    },
    {
        "geonameId": 3374268,
        "name": "Ribeira Prata",
        "children": [
            
        ]
    },
    {
        "geonameId": 3374278,
        "name": "Ribeira dos Calhaus",
        "children": [
            
        ]
    },
    {
        "geonameId": 3374165,
        "name": "Tarrafal de S\u00e3o Nicolau",
        "children": [
            
        ]
    },
    {
        "geonameId": 3374156,
        "name": "Telha",
        "children": [
            
        ]
    },
    {
        "geonameId": 3374149,
        "name": "Torno d\u2019\u00c1gua",
        "children": [
            
        ]
    }
]