[
    {
        "geonameId": 198817,
        "name": "Dundori",
        "children": [
            
        ]
    },
    {
        "geonameId": 197611,
        "name": "Gathundia",
        "children": [
            
        ]
    },
    {
        "geonameId": 197335,
        "name": "Gilgil",
        "children": [
            
        ]
    },
    {
        "geonameId": 197258,
        "name": "Githima",
        "children": [
            
        ]
    },
    {
        "geonameId": 197247,
        "name": "Githioro",
        "children": [
            
        ]
    },
    {
        "geonameId": 8605152,
        "name": "Githioro",
        "children": [
            
        ]
    },
    {
        "geonameId": 196791,
        "name": "Heni Village",
        "children": [
            
        ]
    },
    {
        "geonameId": 188359,
        "name": "Magomano",
        "children": [
            
        ]
    },
    {
        "geonameId": 188261,
        "name": "Mai Mahoro",
        "children": [
            
        ]
    },
    {
        "geonameId": 186720,
        "name": "Miharati",
        "children": [
            
        ]
    },
    {
        "geonameId": 184218,
        "name": "Ndaragwa",
        "children": [
            
        ]
    },
    {
        "geonameId": 184129,
        "name": "Ndiara",
        "children": [
            
        ]
    },
    {
        "geonameId": 8605153,
        "name": "Ndunyu Nderu",
        "children": [
            
        ]
    },
    {
        "geonameId": 7931933,
        "name": "Ol Kalou",
        "children": [
            
        ]
    },
    {
        "geonameId": 182250,
        "name": "Oljoro Orok",
        "children": [
            
        ]
    },
    {
        "geonameId": 180955,
        "name": "Rutara",
        "children": [
            
        ]
    },
    {
        "geonameId": 179865,
        "name": "South Kinangop",
        "children": [
            
        ]
    },
    {
        "geonameId": 178926,
        "name": "Turasha",
        "children": [
            
        ]
    },
    {
        "geonameId": 8605154,
        "name": "Wishipon",
        "children": [
            
        ]
    }
]