[
    {
        "geonameId": 245787,
        "name": "Abdourta",
        "children": [
            
        ]
    },
    {
        "geonameId": 245770,
        "name": "Abil\u00e9lai",
        "children": [
            
        ]
    },
    {
        "geonameId": 245768,
        "name": "Abil\u00e9lay",
        "children": [
            
        ]
    },
    {
        "geonameId": 245757,
        "name": "Ablogila",
        "children": [
            
        ]
    },
    {
        "geonameId": 245752,
        "name": "Abonday",
        "children": [
            
        ]
    },
    {
        "geonameId": 245728,
        "name": "Aboukousoum",
        "children": [
            
        ]
    },
    {
        "geonameId": 245692,
        "name": "Adamkouch",
        "children": [
            
        ]
    },
    {
        "geonameId": 245689,
        "name": "Ad\u00e9",
        "children": [
            
        ]
    },
    {
        "geonameId": 245641,
        "name": "Agougou",
        "children": [
            
        ]
    },
    {
        "geonameId": 245635,
        "name": "Agoundi",
        "children": [
            
        ]
    },
    {
        "geonameId": 245539,
        "name": "Am Bach",
        "children": [
            
        ]
    },
    {
        "geonameId": 245521,
        "name": "Am Bourougn\u00e9",
        "children": [
            
        ]
    },
    {
        "geonameId": 245515,
        "name": "Am Chara",
        "children": [
            
        ]
    },
    {
        "geonameId": 245501,
        "name": "Am Dam",
        "children": [
            
        ]
    },
    {
        "geonameId": 245497,
        "name": "Am Dam Zeriba",
        "children": [
            
        ]
    },
    {
        "geonameId": 245466,
        "name": "Am Djourar",
        "children": [
            
        ]
    },
    {
        "geonameId": 245442,
        "name": "Am G\u00e9riti\u00e9",
        "children": [
            
        ]
    },
    {
        "geonameId": 245398,
        "name": "Am L\u00e9iouna",
        "children": [
            
        ]
    },
    {
        "geonameId": 245332,
        "name": "Am Zi\u00e9f\u00e9",
        "children": [
            
        ]
    },
    {
        "geonameId": 245297,
        "name": "Angalgatou Goz",
        "children": [
            
        ]
    },
    {
        "geonameId": 245216,
        "name": "Arday",
        "children": [
            
        ]
    },
    {
        "geonameId": 245044,
        "name": "Bakinia",
        "children": [
            
        ]
    },
    {
        "geonameId": 244923,
        "name": "Berdie",
        "children": [
            
        ]
    },
    {
        "geonameId": 244898,
        "name": "Bidine",
        "children": [
            
        ]
    },
    {
        "geonameId": 244875,
        "name": "Binedir",
        "children": [
            
        ]
    },
    {
        "geonameId": 244774,
        "name": "Bouabir",
        "children": [
            
        ]
    },
    {
        "geonameId": 244759,
        "name": "Boukas",
        "children": [
            
        ]
    },
    {
        "geonameId": 244739,
        "name": "Bouroukou",
        "children": [
            
        ]
    },
    {
        "geonameId": 244735,
        "name": "Bourtoutou",
        "children": [
            
        ]
    },
    {
        "geonameId": 244537,
        "name": "Dibis",
        "children": [
            
        ]
    },
    {
        "geonameId": 244470,
        "name": "Djangatiti Abdeghaman",
        "children": [
            
        ]
    },
    {
        "geonameId": 244469,
        "name": "Djangatiti Dafana",
        "children": [
            
        ]
    },
    {
        "geonameId": 244412,
        "name": "Djim\u00e8z",
        "children": [
            
        ]
    },
    {
        "geonameId": 244375,
        "name": "Djoukha",
        "children": [
            
        ]
    },
    {
        "geonameId": 244449,
        "name": "Dj\u00e9did\u00e9",
        "children": [
            
        ]
    },
    {
        "geonameId": 244333,
        "name": "Dorno Djoutougu\u00e9",
        "children": [
            
        ]
    },
    {
        "geonameId": 244069,
        "name": "Fongousso",
        "children": [
            
        ]
    },
    {
        "geonameId": 244057,
        "name": "Founo",
        "children": [
            
        ]
    },
    {
        "geonameId": 244093,
        "name": "F\u00e9rid\u00e9",
        "children": [
            
        ]
    },
    {
        "geonameId": 244049,
        "name": "Gabasour",
        "children": [
            
        ]
    },
    {
        "geonameId": 244034,
        "name": "Galbasa",
        "children": [
            
        ]
    },
    {
        "geonameId": 243843,
        "name": "Goumbatou",
        "children": [
            
        ]
    },
    {
        "geonameId": 243841,
        "name": "Gounboutou",
        "children": [
            
        ]
    },
    {
        "geonameId": 243796,
        "name": "Goz Achi\u00e9",
        "children": [
            
        ]
    },
    {
        "geonameId": 243787,
        "name": "Goz Beida",
        "children": [
            
        ]
    },
    {
        "geonameId": 243777,
        "name": "Goz Malik",
        "children": [
            
        ]
    },
    {
        "geonameId": 243958,
        "name": "G\u00e9lember",
        "children": [
            
        ]
    },
    {
        "geonameId": 243928,
        "name": "G\u00e9t\u00e9tat",
        "children": [
            
        ]
    },
    {
        "geonameId": 243736,
        "name": "Hadjer B\u00e9\u00efd",
        "children": [
            
        ]
    },
    {
        "geonameId": 243707,
        "name": "Haouich",
        "children": [
            
        ]
    },
    {
        "geonameId": 243665,
        "name": "Hille Ouadda\u00ef",
        "children": [
            
        ]
    },
    {
        "geonameId": 243662,
        "name": "Him\u00e9d\u00e9",
        "children": [
            
        ]
    },
    {
        "geonameId": 243638,
        "name": "Idel Asat Saba",
        "children": [
            
        ]
    },
    {
        "geonameId": 243630,
        "name": "Idj\u00e9lidj\u00e9",
        "children": [
            
        ]
    },
    {
        "geonameId": 243571,
        "name": "Kabaisa",
        "children": [
            
        ]
    },
    {
        "geonameId": 243561,
        "name": "Kadana",
        "children": [
            
        ]
    },
    {
        "geonameId": 243531,
        "name": "Kaio",
        "children": [
            
        ]
    },
    {
        "geonameId": 243435,
        "name": "Karoub",
        "children": [
            
        ]
    },
    {
        "geonameId": 243403,
        "name": "Kaywa",
        "children": [
            
        ]
    },
    {
        "geonameId": 243269,
        "name": "Kobolko",
        "children": [
            
        ]
    },
    {
        "geonameId": 243254,
        "name": "Kodomoro",
        "children": [
            
        ]
    },
    {
        "geonameId": 243162,
        "name": "Koschmolo",
        "children": [
            
        ]
    },
    {
        "geonameId": 243107,
        "name": "Koukou Angarana",
        "children": [
            
        ]
    },
    {
        "geonameId": 243106,
        "name": "Koukou Bornou",
        "children": [
            
        ]
    },
    {
        "geonameId": 243076,
        "name": "Koumir",
        "children": [
            
        ]
    },
    {
        "geonameId": 243074,
        "name": "Koumourou",
        "children": [
            
        ]
    },
    {
        "geonameId": 243063,
        "name": "Kounous",
        "children": [
            
        ]
    },
    {
        "geonameId": 243051,
        "name": "Kourbou Al Goz",
        "children": [
            
        ]
    },
    {
        "geonameId": 243028,
        "name": "Kourkil\u00e9",
        "children": [
            
        ]
    },
    {
        "geonameId": 243027,
        "name": "Kourkoudou",
        "children": [
            
        ]
    },
    {
        "geonameId": 243023,
        "name": "Kourlalou",
        "children": [
            
        ]
    },
    {
        "geonameId": 243006,
        "name": "Kouroukoul",
        "children": [
            
        ]
    },
    {
        "geonameId": 242994,
        "name": "Kousoukoumou",
        "children": [
            
        ]
    },
    {
        "geonameId": 242977,
        "name": "Kouziouet",
        "children": [
            
        ]
    },
    {
        "geonameId": 242979,
        "name": "Kouziou\u00e8d",
        "children": [
            
        ]
    },
    {
        "geonameId": 242974,
        "name": "Kouzouay",
        "children": [
            
        ]
    },
    {
        "geonameId": 242957,
        "name": "Labada",
        "children": [
            
        ]
    },
    {
        "geonameId": 242953,
        "name": "Labde",
        "children": [
            
        ]
    },
    {
        "geonameId": 242944,
        "name": "Langata",
        "children": [
            
        ]
    },
    {
        "geonameId": 242941,
        "name": "Le Boutik\u00e9",
        "children": [
            
        ]
    },
    {
        "geonameId": 242906,
        "name": "Louban\u00e9",
        "children": [
            
        ]
    },
    {
        "geonameId": 242907,
        "name": "Louban\u00e9",
        "children": [
            
        ]
    },
    {
        "geonameId": 242868,
        "name": "Madjorto",
        "children": [
            
        ]
    },
    {
        "geonameId": 242866,
        "name": "Madou",
        "children": [
            
        ]
    },
    {
        "geonameId": 242860,
        "name": "Magardjala",
        "children": [
            
        ]
    },
    {
        "geonameId": 242851,
        "name": "Magilang",
        "children": [
            
        ]
    },
    {
        "geonameId": 242847,
        "name": "Magram K\u00e9bil",
        "children": [
            
        ]
    },
    {
        "geonameId": 242846,
        "name": "Magram Seko",
        "children": [
            
        ]
    },
    {
        "geonameId": 242837,
        "name": "Makokou",
        "children": [
            
        ]
    },
    {
        "geonameId": 242832,
        "name": "Malabada",
        "children": [
            
        ]
    },
    {
        "geonameId": 242789,
        "name": "Marabila",
        "children": [
            
        ]
    },
    {
        "geonameId": 242772,
        "name": "Marfakat\u00e8l",
        "children": [
            
        ]
    },
    {
        "geonameId": 242759,
        "name": "Marmari",
        "children": [
            
        ]
    },
    {
        "geonameId": 242737,
        "name": "Matabano",
        "children": [
            
        ]
    },
    {
        "geonameId": 242736,
        "name": "Matabgu\u00e9",
        "children": [
            
        ]
    },
    {
        "geonameId": 242720,
        "name": "Matodjo",
        "children": [
            
        ]
    },
    {
        "geonameId": 242698,
        "name": "Mayo",
        "children": [
            
        ]
    },
    {
        "geonameId": 242627,
        "name": "Miele",
        "children": [
            
        ]
    },
    {
        "geonameId": 242607,
        "name": "Mirdi",
        "children": [
            
        ]
    },
    {
        "geonameId": 242629,
        "name": "Mi\u00e9",
        "children": [
            
        ]
    },
    {
        "geonameId": 242593,
        "name": "Modo",
        "children": [
            
        ]
    },
    {
        "geonameId": 242590,
        "name": "Modoyna",
        "children": [
            
        ]
    },
    {
        "geonameId": 242589,
        "name": "Moganda",
        "children": [
            
        ]
    },
    {
        "geonameId": 242562,
        "name": "Mongororo",
        "children": [
            
        ]
    },
    {
        "geonameId": 242559,
        "name": "Monmbasa",
        "children": [
            
        ]
    },
    {
        "geonameId": 242551,
        "name": "Mormondigi",
        "children": [
            
        ]
    },
    {
        "geonameId": 242547,
        "name": "Moro",
        "children": [
            
        ]
    },
    {
        "geonameId": 242529,
        "name": "Moudouga",
        "children": [
            
        ]
    },
    {
        "geonameId": 242522,
        "name": "Moungalkasi",
        "children": [
            
        ]
    },
    {
        "geonameId": 242520,
        "name": "Mountoumoundou",
        "children": [
            
        ]
    },
    {
        "geonameId": 242519,
        "name": "Mounyang",
        "children": [
            
        ]
    },
    {
        "geonameId": 242517,
        "name": "Mour",
        "children": [
            
        ]
    },
    {
        "geonameId": 242511,
        "name": "Moura Adjouz",
        "children": [
            
        ]
    },
    {
        "geonameId": 242510,
        "name": "Moura Kebir",
        "children": [
            
        ]
    },
    {
        "geonameId": 242508,
        "name": "Mouray",
        "children": [
            
        ]
    },
    {
        "geonameId": 242506,
        "name": "Mouray",
        "children": [
            
        ]
    },
    {
        "geonameId": 242507,
        "name": "Mouray",
        "children": [
            
        ]
    },
    {
        "geonameId": 242496,
        "name": "Mouriou",
        "children": [
            
        ]
    },
    {
        "geonameId": 242677,
        "name": "M\u00e9labada",
        "children": [
            
        ]
    },
    {
        "geonameId": 242675,
        "name": "M\u00e9l\u00e9li",
        "children": [
            
        ]
    },
    {
        "geonameId": 242650,
        "name": "M\u00e9r\u00e9ri\u00e9",
        "children": [
            
        ]
    },
    {
        "geonameId": 242638,
        "name": "M\u00e9talbanda",
        "children": [
            
        ]
    },
    {
        "geonameId": 242635,
        "name": "M\u00e9t\u00e9metko",
        "children": [
            
        ]
    },
    {
        "geonameId": 242472,
        "name": "Nabagay",
        "children": [
            
        ]
    },
    {
        "geonameId": 242399,
        "name": "Ngorloli",
        "children": [
            
        ]
    },
    {
        "geonameId": 242396,
        "name": "Niagao",
        "children": [
            
        ]
    },
    {
        "geonameId": 242378,
        "name": "Niarinion",
        "children": [
            
        ]
    },
    {
        "geonameId": 242376,
        "name": "Niarta Kideyede",
        "children": [
            
        ]
    },
    {
        "geonameId": 242369,
        "name": "Ni\u00e9ringa",
        "children": [
            
        ]
    },
    {
        "geonameId": 242315,
        "name": "Nzili",
        "children": [
            
        ]
    },
    {
        "geonameId": 242412,
        "name": "N\u00e9ouya",
        "children": [
            
        ]
    },
    {
        "geonameId": 242144,
        "name": "Oustani",
        "children": [
            
        ]
    },
    {
        "geonameId": 242145,
        "name": "Oustani",
        "children": [
            
        ]
    },
    {
        "geonameId": 242146,
        "name": "Oustani",
        "children": [
            
        ]
    },
    {
        "geonameId": 242147,
        "name": "Oustani",
        "children": [
            
        ]
    },
    {
        "geonameId": 242139,
        "name": "Ouzin\u00e9",
        "children": [
            
        ]
    },
    {
        "geonameId": 242210,
        "name": "Ou\u00e9r\u00e9",
        "children": [
            
        ]
    },
    {
        "geonameId": 242129,
        "name": "Rachracha",
        "children": [
            
        ]
    },
    {
        "geonameId": 242130,
        "name": "Rachracha",
        "children": [
            
        ]
    },
    {
        "geonameId": 242131,
        "name": "Rachracha",
        "children": [
            
        ]
    },
    {
        "geonameId": 242127,
        "name": "Rafa",
        "children": [
            
        ]
    },
    {
        "geonameId": 242126,
        "name": "Rafira",
        "children": [
            
        ]
    },
    {
        "geonameId": 242111,
        "name": "Rey",
        "children": [
            
        ]
    },
    {
        "geonameId": 242108,
        "name": "Rharouadji",
        "children": [
            
        ]
    },
    {
        "geonameId": 242087,
        "name": "Roukoumen",
        "children": [
            
        ]
    },
    {
        "geonameId": 367945,
        "name": "Rumalia",
        "children": [
            
        ]
    },
    {
        "geonameId": 242061,
        "name": "Sahal\u00e9",
        "children": [
            
        ]
    },
    {
        "geonameId": 242054,
        "name": "Sakalkar\u00e9",
        "children": [
            
        ]
    },
    {
        "geonameId": 242053,
        "name": "Sakalmoudjou",
        "children": [
            
        ]
    },
    {
        "geonameId": 242033,
        "name": "Sangafout",
        "children": [
            
        ]
    },
    {
        "geonameId": 242032,
        "name": "Sangara",
        "children": [
            
        ]
    },
    {
        "geonameId": 242031,
        "name": "Sangarfourt",
        "children": [
            
        ]
    },
    {
        "geonameId": 242011,
        "name": "Sarfalgadi",
        "children": [
            
        ]
    },
    {
        "geonameId": 241994,
        "name": "Seheba",
        "children": [
            
        ]
    },
    {
        "geonameId": 241949,
        "name": "Sila Toukougnan",
        "children": [
            
        ]
    },
    {
        "geonameId": 241948,
        "name": "Sileha",
        "children": [
            
        ]
    },
    {
        "geonameId": 241939,
        "name": "Singila",
        "children": [
            
        ]
    },
    {
        "geonameId": 241929,
        "name": "Siref",
        "children": [
            
        ]
    },
    {
        "geonameId": 241930,
        "name": "Siref",
        "children": [
            
        ]
    },
    {
        "geonameId": 241924,
        "name": "Sisi",
        "children": [
            
        ]
    },
    {
        "geonameId": 241877,
        "name": "Soumagoum",
        "children": [
            
        ]
    },
    {
        "geonameId": 241869,
        "name": "Sounta",
        "children": [
            
        ]
    },
    {
        "geonameId": 241962,
        "name": "S\u00e9saban\u00e9",
        "children": [
            
        ]
    },
    {
        "geonameId": 241851,
        "name": "Taama",
        "children": [
            
        ]
    },
    {
        "geonameId": 241843,
        "name": "Taf\u00e9",
        "children": [
            
        ]
    },
    {
        "geonameId": 241829,
        "name": "Takanoun",
        "children": [
            
        ]
    },
    {
        "geonameId": 241812,
        "name": "Tamadjour",
        "children": [
            
        ]
    },
    {
        "geonameId": 241813,
        "name": "Tamadjour",
        "children": [
            
        ]
    },
    {
        "geonameId": 241801,
        "name": "Tamos",
        "children": [
            
        ]
    },
    {
        "geonameId": 241794,
        "name": "Taniam",
        "children": [
            
        ]
    },
    {
        "geonameId": 241780,
        "name": "Taraon\u00e9",
        "children": [
            
        ]
    },
    {
        "geonameId": 241761,
        "name": "Tarr\u00e9",
        "children": [
            
        ]
    },
    {
        "geonameId": 241747,
        "name": "Tcharo",
        "children": [
            
        ]
    },
    {
        "geonameId": 241743,
        "name": "Tchokio",
        "children": [
            
        ]
    },
    {
        "geonameId": 241710,
        "name": "Temere",
        "children": [
            
        ]
    },
    {
        "geonameId": 241707,
        "name": "Tendelti",
        "children": [
            
        ]
    },
    {
        "geonameId": 241703,
        "name": "Tengariss\u00e9",
        "children": [
            
        ]
    },
    {
        "geonameId": 241678,
        "name": "Tieng\u00e9risi\u00e9",
        "children": [
            
        ]
    },
    {
        "geonameId": 241669,
        "name": "Timbidja",
        "children": [
            
        ]
    },
    {
        "geonameId": 241657,
        "name": "Tiney",
        "children": [
            
        ]
    },
    {
        "geonameId": 241656,
        "name": "Tiney Am Chalakh",
        "children": [
            
        ]
    },
    {
        "geonameId": 241648,
        "name": "Tirene",
        "children": [
            
        ]
    },
    {
        "geonameId": 241641,
        "name": "Tisbarra",
        "children": [
            
        ]
    },
    {
        "geonameId": 241633,
        "name": "Todou",
        "children": [
            
        ]
    },
    {
        "geonameId": 241603,
        "name": "Tonbola",
        "children": [
            
        ]
    },
    {
        "geonameId": 241580,
        "name": "Totogoz",
        "children": [
            
        ]
    },
    {
        "geonameId": 241578,
        "name": "Touahah",
        "children": [
            
        ]
    },
    {
        "geonameId": 241566,
        "name": "Touhanga",
        "children": [
            
        ]
    },
    {
        "geonameId": 241554,
        "name": "Toundousa",
        "children": [
            
        ]
    },
    {
        "geonameId": 241555,
        "name": "Toundousa",
        "children": [
            
        ]
    },
    {
        "geonameId": 241549,
        "name": "Touran",
        "children": [
            
        ]
    },
    {
        "geonameId": 241536,
        "name": "Tourmounon",
        "children": [
            
        ]
    },
    {
        "geonameId": 241530,
        "name": "Toustousou",
        "children": [
            
        ]
    },
    {
        "geonameId": 241521,
        "name": "Tr\u00e9he S\u00e9rir",
        "children": [
            
        ]
    },
    {
        "geonameId": 241522,
        "name": "Tr\u00e9h\u00e9 K\u00e9bir",
        "children": [
            
        ]
    },
    {
        "geonameId": 241737,
        "name": "T\u00e9b\u00e9sa",
        "children": [
            
        ]
    },
    {
        "geonameId": 241734,
        "name": "T\u00e9dji",
        "children": [
            
        ]
    },
    {
        "geonameId": 241722,
        "name": "T\u00e9l\u00e9sa",
        "children": [
            
        ]
    },
    {
        "geonameId": 241687,
        "name": "T\u00e9sou K\u00e9bir",
        "children": [
            
        ]
    },
    {
        "geonameId": 241511,
        "name": "Warga",
        "children": [
            
        ]
    }
]