[
    {
        "geonameId": 2437723,
        "name": "Abakari Karoua",
        "children": [
            
        ]
    },
    {
        "geonameId": 2437716,
        "name": "Abalagne",
        "children": [
            
        ]
    },
    {
        "geonameId": 2437681,
        "name": "Abdoro",
        "children": [
            
        ]
    },
    {
        "geonameId": 2434060,
        "name": "Abd\u00e9l\u00e9na",
        "children": [
            
        ]
    },
    {
        "geonameId": 2437588,
        "name": "Abou Gound\u00e9",
        "children": [
            
        ]
    },
    {
        "geonameId": 2437585,
        "name": "Abou Hidjilidj\u00e9",
        "children": [
            
        ]
    },
    {
        "geonameId": 2437580,
        "name": "Abouki\u00e8s",
        "children": [
            
        ]
    },
    {
        "geonameId": 2437550,
        "name": "Abourda Ndouta",
        "children": [
            
        ]
    },
    {
        "geonameId": 2437490,
        "name": "Achim",
        "children": [
            
        ]
    },
    {
        "geonameId": 2437386,
        "name": "Adrik Akoulkouli",
        "children": [
            
        ]
    },
    {
        "geonameId": 2437447,
        "name": "Ad\u00e9n\u00e9ou",
        "children": [
            
        ]
    },
    {
        "geonameId": 2437377,
        "name": "Afianga Fortori",
        "children": [
            
        ]
    },
    {
        "geonameId": 2437368,
        "name": "Afrouk",
        "children": [
            
        ]
    },
    {
        "geonameId": 2437277,
        "name": "Al Alouis",
        "children": [
            
        ]
    },
    {
        "geonameId": 2437251,
        "name": "Al B\u00e9da",
        "children": [
            
        ]
    },
    {
        "geonameId": 2437222,
        "name": "Al Farch",
        "children": [
            
        ]
    },
    {
        "geonameId": 2437212,
        "name": "Al Gr\u00e8t",
        "children": [
            
        ]
    },
    {
        "geonameId": 2432871,
        "name": "Al Moura",
        "children": [
            
        ]
    },
    {
        "geonameId": 2437045,
        "name": "Am B\u00e9lita",
        "children": [
            
        ]
    },
    {
        "geonameId": 2437022,
        "name": "Am Charma",
        "children": [
            
        ]
    },
    {
        "geonameId": 2437016,
        "name": "Am Chid\u00e9de",
        "children": [
            
        ]
    },
    {
        "geonameId": 2437493,
        "name": "Am Chiguek",
        "children": [
            
        ]
    },
    {
        "geonameId": 2437021,
        "name": "Am Ch\u00e9chia",
        "children": [
            
        ]
    },
    {
        "geonameId": 2437011,
        "name": "Am Dagaguer",
        "children": [
            
        ]
    },
    {
        "geonameId": 2436998,
        "name": "Am Derba",
        "children": [
            
        ]
    },
    {
        "geonameId": 2436926,
        "name": "Am Goch\u00e9",
        "children": [
            
        ]
    },
    {
        "geonameId": 2436933,
        "name": "Am Guifel",
        "children": [
            
        ]
    },
    {
        "geonameId": 2436872,
        "name": "Am Kouakib",
        "children": [
            
        ]
    },
    {
        "geonameId": 2436800,
        "name": "Am Sakin",
        "children": [
            
        ]
    },
    {
        "geonameId": 2436786,
        "name": "Am Souneta Karaga",
        "children": [
            
        ]
    },
    {
        "geonameId": 2436787,
        "name": "Am S\u00e9n\u00e9t\u00e9",
        "children": [
            
        ]
    },
    {
        "geonameId": 2436685,
        "name": "Anouara",
        "children": [
            
        ]
    },
    {
        "geonameId": 2436570,
        "name": "Arboutchatak",
        "children": [
            
        ]
    },
    {
        "geonameId": 2436453,
        "name": "Assart\u00e9",
        "children": [
            
        ]
    },
    {
        "geonameId": 2436430,
        "name": "Assouala",
        "children": [
            
        ]
    },
    {
        "geonameId": 2436425,
        "name": "Assourdj\u00e9",
        "children": [
            
        ]
    },
    {
        "geonameId": 2436418,
        "name": "Assou\u00e8t",
        "children": [
            
        ]
    },
    {
        "geonameId": 2436404,
        "name": "At\u00e9chan",
        "children": [
            
        ]
    },
    {
        "geonameId": 2436362,
        "name": "Aziliguen",
        "children": [
            
        ]
    },
    {
        "geonameId": 2436306,
        "name": "Bachoum",
        "children": [
            
        ]
    },
    {
        "geonameId": 2436299,
        "name": "Badanga",
        "children": [
            
        ]
    },
    {
        "geonameId": 2435559,
        "name": "Bendioui",
        "children": [
            
        ]
    },
    {
        "geonameId": 2436139,
        "name": "Bilama Iss\u00e9n",
        "children": [
            
        ]
    },
    {
        "geonameId": 2435191,
        "name": "Bir Barka",
        "children": [
            
        ]
    },
    {
        "geonameId": 2435149,
        "name": "Bisney",
        "children": [
            
        ]
    },
    {
        "geonameId": 2435153,
        "name": "Bissi",
        "children": [
            
        ]
    },
    {
        "geonameId": 2435798,
        "name": "Bod\u00e9n\u00e9",
        "children": [
            
        ]
    },
    {
        "geonameId": 2434985,
        "name": "Bokoro",
        "children": [
            
        ]
    },
    {
        "geonameId": 2434925,
        "name": "Bombom",
        "children": [
            
        ]
    },
    {
        "geonameId": 2434577,
        "name": "Bout el F\u00eel",
        "children": [
            
        ]
    },
    {
        "geonameId": 2434484,
        "name": "Charkaya",
        "children": [
            
        ]
    },
    {
        "geonameId": 2434356,
        "name": "Dabakaray",
        "children": [
            
        ]
    },
    {
        "geonameId": 2434274,
        "name": "Daldouri",
        "children": [
            
        ]
    },
    {
        "geonameId": 2433928,
        "name": "Dibindi Al Aya",
        "children": [
            
        ]
    },
    {
        "geonameId": 2433740,
        "name": "Djamara",
        "children": [
            
        ]
    },
    {
        "geonameId": 2433912,
        "name": "Djekine",
        "children": [
            
        ]
    },
    {
        "geonameId": 2433877,
        "name": "Djek\u00e9m\u00e9",
        "children": [
            
        ]
    },
    {
        "geonameId": 2433630,
        "name": "Djermaya",
        "children": [
            
        ]
    },
    {
        "geonameId": 2433574,
        "name": "Djimez",
        "children": [
            
        ]
    },
    {
        "geonameId": 2433142,
        "name": "Dougi",
        "children": [
            
        ]
    },
    {
        "geonameId": 2433139,
        "name": "Dougui Al Aha",
        "children": [
            
        ]
    },
    {
        "geonameId": 2433138,
        "name": "Dougui Chikh\u00e8t",
        "children": [
            
        ]
    },
    {
        "geonameId": 2433137,
        "name": "Dougui Magueta",
        "children": [
            
        ]
    },
    {
        "geonameId": 2433136,
        "name": "Dougui Tibit\u00e9",
        "children": [
            
        ]
    },
    {
        "geonameId": 2433069,
        "name": "Doumsa",
        "children": [
            
        ]
    },
    {
        "geonameId": 2434085,
        "name": "D\u00e9d\u00e9hech",
        "children": [
            
        ]
    },
    {
        "geonameId": 2432910,
        "name": "El Guidi",
        "children": [
            
        ]
    },
    {
        "geonameId": 2432907,
        "name": "El Haouich",
        "children": [
            
        ]
    },
    {
        "geonameId": 2432880,
        "name": "El Maksoum Moza",
        "children": [
            
        ]
    },
    {
        "geonameId": 2432879,
        "name": "El Maksoum Souleyman",
        "children": [
            
        ]
    },
    {
        "geonameId": 2432869,
        "name": "El Moura",
        "children": [
            
        ]
    },
    {
        "geonameId": 2432787,
        "name": "Er Rala",
        "children": [
            
        ]
    },
    {
        "geonameId": 2432790,
        "name": "Erla",
        "children": [
            
        ]
    },
    {
        "geonameId": 2432737,
        "name": "Fal\u00e9",
        "children": [
            
        ]
    },
    {
        "geonameId": 2432714,
        "name": "Faradjalari",
        "children": [
            
        ]
    },
    {
        "geonameId": 2432743,
        "name": "Fat Ronyan",
        "children": [
            
        ]
    },
    {
        "geonameId": 2432555,
        "name": "Foro",
        "children": [
            
        ]
    },
    {
        "geonameId": 2432336,
        "name": "Ganatir",
        "children": [
            
        ]
    },
    {
        "geonameId": 2432337,
        "name": "Ganoma Halio",
        "children": [
            
        ]
    },
    {
        "geonameId": 2432301,
        "name": "Ganoma Mok Bornou",
        "children": [
            
        ]
    },
    {
        "geonameId": 2432296,
        "name": "Gansouza",
        "children": [
            
        ]
    },
    {
        "geonameId": 2432253,
        "name": "Garatalata",
        "children": [
            
        ]
    },
    {
        "geonameId": 2432014,
        "name": "Geger",
        "children": [
            
        ]
    },
    {
        "geonameId": 2432055,
        "name": "Gn\u00e9oukoulirom",
        "children": [
            
        ]
    },
    {
        "geonameId": 2431904,
        "name": "Gor\u00e9",
        "children": [
            
        ]
    },
    {
        "geonameId": 2432129,
        "name": "Guermari",
        "children": [
            
        ]
    },
    {
        "geonameId": 2431572,
        "name": "G\u00e9l\u00e9ti\u00e9",
        "children": [
            
        ]
    },
    {
        "geonameId": 2431480,
        "name": "Hadjer Debdabani",
        "children": [
            
        ]
    },
    {
        "geonameId": 2431477,
        "name": "Hadjer Fi",
        "children": [
            
        ]
    },
    {
        "geonameId": 2431459,
        "name": "Hamoud el Hassi",
        "children": [
            
        ]
    },
    {
        "geonameId": 2431417,
        "name": "Hidjilidj\u00e9 Ealadrij",
        "children": [
            
        ]
    },
    {
        "geonameId": 2431416,
        "name": "Hidjilidj\u00e9 K\u00e9l\u00e9",
        "children": [
            
        ]
    },
    {
        "geonameId": 2431405,
        "name": "Him\u00e9d\u00e9 Amgar",
        "children": [
            
        ]
    },
    {
        "geonameId": 2431357,
        "name": "Ib\u00e9l\u00e9",
        "children": [
            
        ]
    },
    {
        "geonameId": 2430917,
        "name": "Kameron",
        "children": [
            
        ]
    },
    {
        "geonameId": 2430915,
        "name": "Kameron Guini",
        "children": [
            
        ]
    },
    {
        "geonameId": 2430767,
        "name": "Karasoua",
        "children": [
            
        ]
    },
    {
        "geonameId": 2430769,
        "name": "Karassina",
        "children": [
            
        ]
    },
    {
        "geonameId": 2430670,
        "name": "Kasorom",
        "children": [
            
        ]
    },
    {
        "geonameId": 2430298,
        "name": "Kindjiri Malorom",
        "children": [
            
        ]
    },
    {
        "geonameId": 2430029,
        "name": "Kougouna",
        "children": [
            
        ]
    },
    {
        "geonameId": 2430030,
        "name": "Kougouna",
        "children": [
            
        ]
    },
    {
        "geonameId": 2429749,
        "name": "Koukouay",
        "children": [
            
        ]
    },
    {
        "geonameId": 2429747,
        "name": "Koulkoul\u00e9",
        "children": [
            
        ]
    },
    {
        "geonameId": 2437537,
        "name": "Kourtiouma",
        "children": [
            
        ]
    },
    {
        "geonameId": 2430270,
        "name": "K\u00e9r\u00e9nif\u00e9",
        "children": [
            
        ]
    },
    {
        "geonameId": 2429207,
        "name": "Lassada",
        "children": [
            
        ]
    },
    {
        "geonameId": 2429116,
        "name": "Ligdaba",
        "children": [
            
        ]
    },
    {
        "geonameId": 2429045,
        "name": "Lokha\u00ef",
        "children": [
            
        ]
    },
    {
        "geonameId": 2437184,
        "name": "L\u00e9han",
        "children": [
            
        ]
    },
    {
        "geonameId": 2431298,
        "name": "L\u00e9l\u00e9tif",
        "children": [
            
        ]
    },
    {
        "geonameId": 2428921,
        "name": "Maderi",
        "children": [
            
        ]
    },
    {
        "geonameId": 2428895,
        "name": "Madjaldi",
        "children": [
            
        ]
    },
    {
        "geonameId": 2428885,
        "name": "Madkous",
        "children": [
            
        ]
    },
    {
        "geonameId": 2428449,
        "name": "Magam\u00e9",
        "children": [
            
        ]
    },
    {
        "geonameId": 2428792,
        "name": "Mahd el F\u00eel",
        "children": [
            
        ]
    },
    {
        "geonameId": 2428785,
        "name": "Mahiouwadji",
        "children": [
            
        ]
    },
    {
        "geonameId": 2427950,
        "name": "Mal\u00e9ssaya",
        "children": [
            
        ]
    },
    {
        "geonameId": 2428428,
        "name": "Mani",
        "children": [
            
        ]
    },
    {
        "geonameId": 2428400,
        "name": "Mantal",
        "children": [
            
        ]
    },
    {
        "geonameId": 2428298,
        "name": "Marasouba",
        "children": [
            
        ]
    },
    {
        "geonameId": 2428344,
        "name": "Marba",
        "children": [
            
        ]
    },
    {
        "geonameId": 2428226,
        "name": "Masalasef",
        "children": [
            
        ]
    },
    {
        "geonameId": 2428231,
        "name": "Massaguet",
        "children": [
            
        ]
    },
    {
        "geonameId": 2428228,
        "name": "Massakory",
        "children": [
            
        ]
    },
    {
        "geonameId": 2427803,
        "name": "Minjelgu\u00e9",
        "children": [
            
        ]
    },
    {
        "geonameId": 2427734,
        "name": "Modoul",
        "children": [
            
        ]
    },
    {
        "geonameId": 2427497,
        "name": "Moukdjil\u00e9",
        "children": [
            
        ]
    },
    {
        "geonameId": 2427310,
        "name": "Moyto",
        "children": [
            
        ]
    },
    {
        "geonameId": 2427093,
        "name": "Nabaga",
        "children": [
            
        ]
    },
    {
        "geonameId": 2427293,
        "name": "Nabagay",
        "children": [
            
        ]
    },
    {
        "geonameId": 2427077,
        "name": "Nere",
        "children": [
            
        ]
    },
    {
        "geonameId": 2427034,
        "name": "Ngama",
        "children": [
            
        ]
    },
    {
        "geonameId": 2426906,
        "name": "Ngoura",
        "children": [
            
        ]
    },
    {
        "geonameId": 2426881,
        "name": "Ngui\u00e9to",
        "children": [
            
        ]
    },
    {
        "geonameId": 2426952,
        "name": "Ngui\u00e9to",
        "children": [
            
        ]
    },
    {
        "geonameId": 2426962,
        "name": "Ngu\u00e8lbota",
        "children": [
            
        ]
    },
    {
        "geonameId": 2426951,
        "name": "Ngu\u00e9to",
        "children": [
            
        ]
    },
    {
        "geonameId": 2427091,
        "name": "N\u00e9bek",
        "children": [
            
        ]
    },
    {
        "geonameId": 2426676,
        "name": "Oual Adam Tort\u00e9ri",
        "children": [
            
        ]
    },
    {
        "geonameId": 2426674,
        "name": "Oual Hassan",
        "children": [
            
        ]
    },
    {
        "geonameId": 2426438,
        "name": "Oual T\u00e8ndj\u00e8n",
        "children": [
            
        ]
    },
    {
        "geonameId": 2428579,
        "name": "Oudou Mal\u00e9mi",
        "children": [
            
        ]
    },
    {
        "geonameId": 2426443,
        "name": "Ouelgag\u00e9",
        "children": [
            
        ]
    },
    {
        "geonameId": 2426416,
        "name": "Ouka Atim",
        "children": [
            
        ]
    },
    {
        "geonameId": 2426303,
        "name": "Ouroulla",
        "children": [
            
        ]
    },
    {
        "geonameId": 2436524,
        "name": "Rigu\u00e9\u00efg",
        "children": [
            
        ]
    },
    {
        "geonameId": 2426007,
        "name": "Ronyan",
        "children": [
            
        ]
    },
    {
        "geonameId": 6806528,
        "name": "Saghara",
        "children": [
            
        ]
    },
    {
        "geonameId": 2425560,
        "name": "Sokoto",
        "children": [
            
        ]
    },
    {
        "geonameId": 2425539,
        "name": "Sonari",
        "children": [
            
        ]
    },
    {
        "geonameId": 2425492,
        "name": "Soudour al Khel",
        "children": [
            
        ]
    },
    {
        "geonameId": 2425472,
        "name": "Soula",
        "children": [
            
        ]
    },
    {
        "geonameId": 2425443,
        "name": "Sounta",
        "children": [
            
        ]
    },
    {
        "geonameId": 2425379,
        "name": "Taboy",
        "children": [
            
        ]
    },
    {
        "geonameId": 2425364,
        "name": "Tagaga",
        "children": [
            
        ]
    },
    {
        "geonameId": 2425365,
        "name": "Tagaga",
        "children": [
            
        ]
    },
    {
        "geonameId": 2425366,
        "name": "Tagaga",
        "children": [
            
        ]
    },
    {
        "geonameId": 2425322,
        "name": "Tama",
        "children": [
            
        ]
    },
    {
        "geonameId": 2425323,
        "name": "Tama",
        "children": [
            
        ]
    },
    {
        "geonameId": 2425324,
        "name": "Tama",
        "children": [
            
        ]
    },
    {
        "geonameId": 2425321,
        "name": "Tamada\u00ef",
        "children": [
            
        ]
    },
    {
        "geonameId": 2425320,
        "name": "Tamaraya",
        "children": [
            
        ]
    },
    {
        "geonameId": 2425074,
        "name": "Tchok",
        "children": [
            
        ]
    },
    {
        "geonameId": 2425072,
        "name": "Tchokorey",
        "children": [
            
        ]
    },
    {
        "geonameId": 2425054,
        "name": "Tchoroya",
        "children": [
            
        ]
    },
    {
        "geonameId": 2425043,
        "name": "Tchoukou",
        "children": [
            
        ]
    },
    {
        "geonameId": 2425039,
        "name": "Tchoukoula",
        "children": [
            
        ]
    },
    {
        "geonameId": 2425040,
        "name": "Tchoukoula",
        "children": [
            
        ]
    },
    {
        "geonameId": 2425034,
        "name": "Tchoukoutoli",
        "children": [
            
        ]
    },
    {
        "geonameId": 2425031,
        "name": "Tchouloumari",
        "children": [
            
        ]
    },
    {
        "geonameId": 2425148,
        "name": "Tch\u00e9ratchir",
        "children": [
            
        ]
    },
    {
        "geonameId": 2424916,
        "name": "Ter Baro",
        "children": [
            
        ]
    },
    {
        "geonameId": 2424892,
        "name": "Tersef",
        "children": [
            
        ]
    },
    {
        "geonameId": 2424863,
        "name": "Tiaouy",
        "children": [
            
        ]
    },
    {
        "geonameId": 2424683,
        "name": "Toks\u00e9",
        "children": [
            
        ]
    },
    {
        "geonameId": 2424629,
        "name": "Torora",
        "children": [
            
        ]
    },
    {
        "geonameId": 2424622,
        "name": "Tororo",
        "children": [
            
        ]
    },
    {
        "geonameId": 6859245,
        "name": "Tos\u00e9gu\u00e9di",
        "children": [
            
        ]
    },
    {
        "geonameId": 2424600,
        "name": "Toual",
        "children": [
            
        ]
    },
    {
        "geonameId": 2424601,
        "name": "Toual",
        "children": [
            
        ]
    },
    {
        "geonameId": 2424602,
        "name": "Toual",
        "children": [
            
        ]
    },
    {
        "geonameId": 2424561,
        "name": "Touka",
        "children": [
            
        ]
    },
    {
        "geonameId": 2424547,
        "name": "Toukouri",
        "children": [
            
        ]
    },
    {
        "geonameId": 2424534,
        "name": "Touloula",
        "children": [
            
        ]
    },
    {
        "geonameId": 2424511,
        "name": "Touori",
        "children": [
            
        ]
    },
    {
        "geonameId": 2424512,
        "name": "Touori",
        "children": [
            
        ]
    },
    {
        "geonameId": 2424502,
        "name": "Tourba",
        "children": [
            
        ]
    },
    {
        "geonameId": 2424376,
        "name": "Weld am Awa",
        "children": [
            
        ]
    },
    {
        "geonameId": 2424374,
        "name": "Wilio",
        "children": [
            
        ]
    },
    {
        "geonameId": 2424371,
        "name": "Wolirom",
        "children": [
            
        ]
    },
    {
        "geonameId": 2424309,
        "name": "Yaroua",
        "children": [
            
        ]
    },
    {
        "geonameId": 2424305,
        "name": "Yawari Karoua",
        "children": [
            
        ]
    },
    {
        "geonameId": 2424130,
        "name": "Zafaia",
        "children": [
            
        ]
    },
    {
        "geonameId": 2424125,
        "name": "Zahafaya",
        "children": [
            
        ]
    },
    {
        "geonameId": 2424091,
        "name": "Zaraf",
        "children": [
            
        ]
    },
    {
        "geonameId": 2424030,
        "name": "Zol",
        "children": [
            
        ]
    },
    {
        "geonameId": 2424031,
        "name": "Zol",
        "children": [
            
        ]
    },
    {
        "geonameId": 2423998,
        "name": "Zourougouldji",
        "children": [
            
        ]
    },
    {
        "geonameId": 2424053,
        "name": "Z\u00e9z\u00e9zir",
        "children": [
            
        ]
    }
]