[
    {
        "geonameId": 200421,
        "name": "Biretwo",
        "children": [
            
        ]
    },
    {
        "geonameId": 199783,
        "name": "Chebara",
        "children": [
            
        ]
    },
    {
        "geonameId": 199771,
        "name": "Chebiemit",
        "children": [
            
        ]
    },
    {
        "geonameId": 199750,
        "name": "Cheboin",
        "children": [
            
        ]
    },
    {
        "geonameId": 199563,
        "name": "Chepkorio",
        "children": [
            
        ]
    },
    {
        "geonameId": 199550,
        "name": "Chepkum",
        "children": [
            
        ]
    },
    {
        "geonameId": 199486,
        "name": "Cheptonge",
        "children": [
            
        ]
    },
    {
        "geonameId": 199425,
        "name": "Chesoi",
        "children": [
            
        ]
    },
    {
        "geonameId": 199299,
        "name": "Chororget",
        "children": [
            
        ]
    },
    {
        "geonameId": 195841,
        "name": "Kabaloamet",
        "children": [
            
        ]
    },
    {
        "geonameId": 195782,
        "name": "Kabetwa",
        "children": [
            
        ]
    },
    {
        "geonameId": 194207,
        "name": "Kapchebelel",
        "children": [
            
        ]
    },
    {
        "geonameId": 193985,
        "name": "Kapsowar",
        "children": [
            
        ]
    },
    {
        "geonameId": 193964,
        "name": "Kaptarakwa",
        "children": [
            
        ]
    },
    {
        "geonameId": 193949,
        "name": "Kapteren",
        "children": [
            
        ]
    },
    {
        "geonameId": 191665,
        "name": "Kipkabus",
        "children": [
            
        ]
    },
    {
        "geonameId": 190772,
        "name": "Koitilial",
        "children": [
            
        ]
    },
    {
        "geonameId": 182741,
        "name": "Nyaru",
        "children": [
            
        ]
    },
    {
        "geonameId": 180149,
        "name": "Singore",
        "children": [
            
        ]
    },
    {
        "geonameId": 179606,
        "name": "Tambach",
        "children": [
            
        ]
    }
]