[
    {
        "geonameId": 200308,
        "name": "Bomet",
        "children": [
            
        ]
    },
    {
        "geonameId": 199682,
        "name": "Chemaner",
        "children": [
            
        ]
    },
    {
        "geonameId": 194651,
        "name": "Kamugeno",
        "children": [
            
        ]
    },
    {
        "geonameId": 193958,
        "name": "Kaptebengwet",
        "children": [
            
        ]
    },
    {
        "geonameId": 188959,
        "name": "Longisa",
        "children": [
            
        ]
    },
    {
        "geonameId": 184230,
        "name": "Ndamichoni",
        "children": [
            
        ]
    },
    {
        "geonameId": 184228,
        "name": "Ndanai",
        "children": [
            
        ]
    },
    {
        "geonameId": 180262,
        "name": "Sigor",
        "children": [
            
        ]
    },
    {
        "geonameId": 180126,
        "name": "Siongiroi",
        "children": [
            
        ]
    }
]