[
    {
        "geonameId": 201200,
        "name": "Aitong",
        "children": [
            
        ]
    },
    {
        "geonameId": 200985,
        "name": "Angata Naado",
        "children": [
            
        ]
    },
    {
        "geonameId": 198231,
        "name": "Entasekera",
        "children": [
            
        ]
    },
    {
        "geonameId": 198227,
        "name": "Entontol",
        "children": [
            
        ]
    },
    {
        "geonameId": 198214,
        "name": "Eoret Narasha",
        "children": [
            
        ]
    },
    {
        "geonameId": 198213,
        "name": "Eotoud",
        "children": [
            
        ]
    },
    {
        "geonameId": 198073,
        "name": "Ewaso Ng\u2019iro",
        "children": [
            
        ]
    },
    {
        "geonameId": 8605155,
        "name": "Ildamat",
        "children": [
            
        ]
    },
    {
        "geonameId": 196365,
        "name": "Iminuet",
        "children": [
            
        ]
    },
    {
        "geonameId": 192079,
        "name": "Kilgoris",
        "children": [
            
        ]
    },
    {
        "geonameId": 189574,
        "name": "Lemek",
        "children": [
            
        ]
    },
    {
        "geonameId": 189092,
        "name": "Lolgorien",
        "children": [
            
        ]
    },
    {
        "geonameId": 188206,
        "name": "Maji Moto",
        "children": [
            
        ]
    },
    {
        "geonameId": 187524,
        "name": "Masandare",
        "children": [
            
        ]
    },
    {
        "geonameId": 186264,
        "name": "Morijo",
        "children": [
            
        ]
    },
    {
        "geonameId": 184749,
        "name": "Nairagie Ngare",
        "children": [
            
        ]
    },
    {
        "geonameId": 184379,
        "name": "Narok",
        "children": [
            
        ]
    },
    {
        "geonameId": 184359,
        "name": "Narosura",
        "children": [
            
        ]
    },
    {
        "geonameId": 183250,
        "name": "Noolpopong",
        "children": [
            
        ]
    },
    {
        "geonameId": 183127,
        "name": "Ntuka",
        "children": [
            
        ]
    },
    {
        "geonameId": 184011,
        "name": "Ntulelei",
        "children": [
            
        ]
    },
    {
        "geonameId": 182086,
        "name": "Ol Ombokishi",
        "children": [
            
        ]
    },
    {
        "geonameId": 182192,
        "name": "Olmesutye",
        "children": [
            
        ]
    },
    {
        "geonameId": 182126,
        "name": "Olokurto",
        "children": [
            
        ]
    },
    {
        "geonameId": 182095,
        "name": "Olololong\u2019a",
        "children": [
            
        ]
    },
    {
        "geonameId": 180821,
        "name": "Sakutiek",
        "children": [
            
        ]
    },
    {
        "geonameId": 180509,
        "name": "Seyabei",
        "children": [
            
        ]
    },
    {
        "geonameId": 180505,
        "name": "Shabaltaragwa",
        "children": [
            
        ]
    },
    {
        "geonameId": 180457,
        "name": "Shartuka",
        "children": [
            
        ]
    },
    {
        "geonameId": 180136,
        "name": "Sintakara",
        "children": [
            
        ]
    }
]