[
    {
        "geonameId": 1081863,
        "name": "Amboanjo",
        "children": [
            
        ]
    },
    {
        "geonameId": 1064366,
        "name": "Ifanadiana",
        "children": [
            
        ]
    },
    {
        "geonameId": 1064334,
        "name": "Ifatsy",
        "children": [
            
        ]
    },
    {
        "geonameId": 1064234,
        "name": "Ikongo",
        "children": [
            
        ]
    },
    {
        "geonameId": 1061605,
        "name": "Manakara",
        "children": [
            
        ]
    },
    {
        "geonameId": 1061335,
        "name": "Mananjary",
        "children": [
            
        ]
    },
    {
        "geonameId": 1058080,
        "name": "Nosy Varika",
        "children": [
            
        ]
    },
    {
        "geonameId": 1057277,
        "name": "Sahavato",
        "children": [
            
        ]
    },
    {
        "geonameId": 1056629,
        "name": "Savana",
        "children": [
            
        ]
    },
    {
        "geonameId": 1053900,
        "name": "Vohimanitra",
        "children": [
            
        ]
    }
]