[
    {
        "geonameId": 8693311,
        "name": "Ampanihy District",
        "children": [
            
        ]
    },
    {
        "geonameId": 8299295,
        "name": "Ankazoabo District",
        "children": [
            
        ]
    },
    {
        "geonameId": 8693316,
        "name": "Bekily District",
        "children": [
            
        ]
    },
    {
        "geonameId": 8335352,
        "name": "Beroroha District",
        "children": [
            
        ]
    },
    {
        "geonameId": 8693312,
        "name": "Betioky District",
        "children": [
            
        ]
    },
    {
        "geonameId": 8299677,
        "name": "Toliara I District",
        "children": [
            {
                "geonameId": 1055429,
                "name": "Toliara",
                "children": [
                    
                ]
            }
        ]
    },
    {
        "geonameId": 8299676,
        "name": "Toliara II District",
        "children": [
            
        ]
    }
]