[
    {
        "geonameId": 876723,
        "name": "Munic\u00edpio Alto Zambeze",
        "children": [
            
        ]
    },
    {
        "geonameId": 876631,
        "name": "Munic\u00edpio Camanongue",
        "children": [
            
        ]
    },
    {
        "geonameId": 876198,
        "name": "Munic\u00edpio Luacano",
        "children": [
            
        ]
    },
    {
        "geonameId": 876176,
        "name": "Munic\u00edpio Luau",
        "children": [
            
        ]
    },
    {
        "geonameId": 3347741,
        "name": "Munic\u00edpio Luchazes",
        "children": [
            
        ]
    },
    {
        "geonameId": 876129,
        "name": "Munic\u00edpio Lumbala N\u2019guimbo",
        "children": [
            
        ]
    },
    {
        "geonameId": 876125,
        "name": "Munic\u00edpio Lumege",
        "children": [
            
        ]
    },
    {
        "geonameId": 876232,
        "name": "Munic\u00edpio L\u00e9ua",
        "children": [
            
        ]
    },
    {
        "geonameId": 875997,
        "name": "Munic\u00edpio Moxico",
        "children": [
            
        ]
    },
    {
        "geonameId": 875819,
        "name": "Munic\u00edpio Rivungo",
        "children": [
            
        ]
    }
]