[
    {
        "geonameId": 3351214,
        "name": "Mnuic\u00edpio Calai",
        "children": [
            
        ]
    },
    {
        "geonameId": 3349243,
        "name": "Munic\u00edpio Cuangar",
        "children": [
            
        ]
    },
    {
        "geonameId": 3349195,
        "name": "Munic\u00edpio Cuchi",
        "children": [
            
        ]
    },
    {
        "geonameId": 3349148,
        "name": "Munic\u00edpio Cuito Cuanavale",
        "children": [
            
        ]
    },
    {
        "geonameId": 876291,
        "name": "Munic\u00edpio Dirico",
        "children": [
            
        ]
    },
    {
        "geonameId": 876017,
        "name": "Munic\u00edpio Mavinga",
        "children": [
            
        ]
    },
    {
        "geonameId": 3347352,
        "name": "Munic\u00edpio Menongue",
        "children": [
            
        ]
    },
    {
        "geonameId": 3347005,
        "name": "Munic\u00edpio Nankova",
        "children": [
            
        ]
    }
]