[
    {
        "geonameId": 893405,
        "name": "Chirumanzu District",
        "children": [
            
        ]
    },
    {
        "geonameId": 890981,
        "name": "Gokwe North District",
        "children": [
            
        ]
    },
    {
        "geonameId": 8260609,
        "name": "Gokwe South District",
        "children": [
            
        ]
    },
    {
        "geonameId": 890420,
        "name": "Gweru District",
        "children": [
            
        ]
    },
    {
        "geonameId": 888708,
        "name": "Kwekwe District",
        "children": [
            
        ]
    },
    {
        "geonameId": 886328,
        "name": "Mberengwa District",
        "children": [
            
        ]
    },
    {
        "geonameId": 881163,
        "name": "Shurugwi District",
        "children": [
            
        ]
    },
    {
        "geonameId": 878548,
        "name": "Zvishavane District",
        "children": [
            
        ]
    }
]