[
    {
        "geonameId": 917743,
        "name": "Choma District",
        "children": [
            
        ]
    },
    {
        "geonameId": 917010,
        "name": "Gwembe District",
        "children": [
            
        ]
    },
    {
        "geonameId": 8714550,
        "name": "Itezhi-Tezhi District",
        "children": [
            
        ]
    },
    {
        "geonameId": 915082,
        "name": "Kalomo District",
        "children": [
            
        ]
    },
    {
        "geonameId": 8260555,
        "name": "Kazungula District",
        "children": [
            
        ]
    },
    {
        "geonameId": 910107,
        "name": "Livingstone District",
        "children": [
            
        ]
    },
    {
        "geonameId": 907108,
        "name": "Mazabuka District",
        "children": [
            
        ]
    },
    {
        "geonameId": 906042,
        "name": "Monze District",
        "children": [
            
        ]
    },
    {
        "geonameId": 901764,
        "name": "Namwala District",
        "children": [
            
        ]
    },
    {
        "geonameId": 7671219,
        "name": "Siavonga District",
        "children": [
            
        ]
    },
    {
        "geonameId": 9072525,
        "name": "Sinazongwe District",
        "children": [
            {
                "geonameId": 898314,
                "name": "Siampande",
                "children": [
                    
                ]
            },
            {
                "geonameId": 898033,
                "name": "Sikalabula",
                "children": [
                    
                ]
            },
            {
                "geonameId": 897458,
                "name": "Sinazezi",
                "children": [
                    
                ]
            }
        ]
    }
]