[
    {
        "geonameId": 918903,
        "name": "Chinsali District",
        "children": [
            
        ]
    },
    {
        "geonameId": 916666,
        "name": "Isoka District",
        "children": [
            
        ]
    },
    {
        "geonameId": 176756,
        "name": "Kaputa District",
        "children": [
            
        ]
    },
    {
        "geonameId": 912763,
        "name": "Kasama District",
        "children": [
            
        ]
    },
    {
        "geonameId": 908911,
        "name": "Luwingu District",
        "children": [
            
        ]
    },
    {
        "geonameId": 176143,
        "name": "Mbala District",
        "children": [
            
        ]
    },
    {
        "geonameId": 905843,
        "name": "Mpika District",
        "children": [
            
        ]
    },
    {
        "geonameId": 175966,
        "name": "Mporokoso District",
        "children": [
            
        ]
    },
    {
        "geonameId": 8260556,
        "name": "Mpulungu District",
        "children": [
            
        ]
    },
    {
        "geonameId": 8260557,
        "name": "Mungwi District",
        "children": [
            
        ]
    }
]