[
    {
        "geonameId": 919540,
        "name": "Chililabombwe District",
        "children": [
            
        ]
    },
    {
        "geonameId": 919006,
        "name": "Chingola District",
        "children": [
            
        ]
    },
    {
        "geonameId": 914956,
        "name": "Kalulushi District",
        "children": [
            
        ]
    },
    {
        "geonameId": 911144,
        "name": "Kitwe District",
        "children": [
            
        ]
    },
    {
        "geonameId": 909857,
        "name": "Luanshya District",
        "children": [
            
        ]
    },
    {
        "geonameId": 8285557,
        "name": "Masaiti District",
        "children": [
            
        ]
    },
    {
        "geonameId": 9072524,
        "name": "Mpongwe District",
        "children": [
            
        ]
    },
    {
        "geonameId": 905389,
        "name": "Mufulira District",
        "children": [
            
        ]
    },
    {
        "geonameId": 901342,
        "name": "Ndola District",
        "children": [
            
        ]
    },
    {
        "geonameId": 901339,
        "name": "Ndola Rural District",
        "children": [
            
        ]
    }
]