[
    {
        "geonameId": 1091676,
        "name": "Anihani",
        "children": [
            
        ]
    },
    {
        "geonameId": 1092065,
        "name": "Bahani",
        "children": [
            
        ]
    },
    {
        "geonameId": 1091688,
        "name": "Balsa",
        "children": [
            
        ]
    },
    {
        "geonameId": 1091870,
        "name": "Bambadjani",
        "children": [
            
        ]
    },
    {
        "geonameId": 1092391,
        "name": "Banda Daou\u00e9ni",
        "children": [
            
        ]
    },
    {
        "geonameId": 1091700,
        "name": "Bandamadji",
        "children": [
            
        ]
    },
    {
        "geonameId": 1092153,
        "name": "Bandamadji",
        "children": [
            
        ]
    },
    {
        "geonameId": 921984,
        "name": "Bandamadzi",
        "children": [
            
        ]
    },
    {
        "geonameId": 1092026,
        "name": "Bangahani",
        "children": [
            
        ]
    },
    {
        "geonameId": 1092545,
        "name": "Bangoua",
        "children": [
            
        ]
    },
    {
        "geonameId": 921974,
        "name": "Bangoua Kouni",
        "children": [
            
        ]
    },
    {
        "geonameId": 1091671,
        "name": "Bangouamafsakoa",
        "children": [
            
        ]
    },
    {
        "geonameId": 1091989,
        "name": "Batou",
        "children": [
            {
                "geonameId": 1091990,
                "name": "Toua\u00effa",
                "children": [
                    
                ]
            }
        ]
    },
    {
        "geonameId": 1092051,
        "name": "Batsa",
        "children": [
            
        ]
    },
    {
        "geonameId": 1092024,
        "name": "Bibavou",
        "children": [
            
        ]
    },
    {
        "geonameId": 921964,
        "name": "Boboni",
        "children": [
            
        ]
    },
    {
        "geonameId": 1092383,
        "name": "Boud\u00e9-Adjou",
        "children": [
            
        ]
    },
    {
        "geonameId": 1092023,
        "name": "Bouenindi",
        "children": [
            
        ]
    },
    {
        "geonameId": 921956,
        "name": "Bouni",
        "children": [
            
        ]
    },
    {
        "geonameId": 1092056,
        "name": "Bou\u00e9ni",
        "children": [
            {
                "geonameId": 1092058,
                "name": "Sadani",
                "children": [
                    
                ]
            }
        ]
    },
    {
        "geonameId": 1091845,
        "name": "Chamle",
        "children": [
            
        ]
    },
    {
        "geonameId": 1092161,
        "name": "Chamro",
        "children": [
            
        ]
    },
    {
        "geonameId": 921944,
        "name": "Chezani",
        "children": [
            
        ]
    },
    {
        "geonameId": 921942,
        "name": "Chindini",
        "children": [
            
        ]
    },
    {
        "geonameId": 921935,
        "name": "Chomoni",
        "children": [
            
        ]
    },
    {
        "geonameId": 921948,
        "name": "Chouani",
        "children": [
            
        ]
    },
    {
        "geonameId": 1092342,
        "name": "Dach\u00e9",
        "children": [
            
        ]
    },
    {
        "geonameId": 1092381,
        "name": "Daou\u00e9ni",
        "children": [
            
        ]
    },
    {
        "geonameId": 921918,
        "name": "Demb\u00e9ni",
        "children": [
            
        ]
    },
    {
        "geonameId": 921915,
        "name": "Dibouani",
        "children": [
            
        ]
    },
    {
        "geonameId": 1091863,
        "name": "Dimadjou",
        "children": [
            
        ]
    },
    {
        "geonameId": 1092165,
        "name": "Dimadjou",
        "children": [
            
        ]
    },
    {
        "geonameId": 1092366,
        "name": "Djitach\u00e9",
        "children": [
            
        ]
    },
    {
        "geonameId": 1092539,
        "name": "Djivani",
        "children": [
            
        ]
    },
    {
        "geonameId": 1091849,
        "name": "Djoengo\u00e9",
        "children": [
            
        ]
    },
    {
        "geonameId": 921912,
        "name": "Djomani",
        "children": [
            
        ]
    },
    {
        "geonameId": 1092412,
        "name": "Djoumouachongo",
        "children": [
            
        ]
    },
    {
        "geonameId": 921908,
        "name": "Domoni",
        "children": [
            {
                "geonameId": 1091879,
                "name": "Domoni Ambouani",
                "children": [
                    
                ]
            }
        ]
    },
    {
        "geonameId": 1091878,
        "name": "Domoni Adjou",
        "children": [
            
        ]
    },
    {
        "geonameId": 1091712,
        "name": "Douniani",
        "children": [
            
        ]
    },
    {
        "geonameId": 921902,
        "name": "Dzahadjou",
        "children": [
            
        ]
    },
    {
        "geonameId": 921901,
        "name": "Dzahadjou",
        "children": [
            
        ]
    },
    {
        "geonameId": 1092021,
        "name": "Dzahadjou",
        "children": [
            
        ]
    },
    {
        "geonameId": 1092052,
        "name": "Dzahadjou",
        "children": [
            
        ]
    },
    {
        "geonameId": 1092060,
        "name": "Dzahadjou",
        "children": [
            
        ]
    },
    {
        "geonameId": 1092156,
        "name": "Dzahani",
        "children": [
            
        ]
    },
    {
        "geonameId": 1092382,
        "name": "Dzahani",
        "children": [
            
        ]
    },
    {
        "geonameId": 1092034,
        "name": "Dzaheni",
        "children": [
            
        ]
    },
    {
        "geonameId": 1092177,
        "name": "Foumboudzivouni",
        "children": [
            
        ]
    },
    {
        "geonameId": 921884,
        "name": "Foumbouni",
        "children": [
            
        ]
    },
    {
        "geonameId": 1091675,
        "name": "Founga",
        "children": [
            
        ]
    },
    {
        "geonameId": 1091852,
        "name": "Founga",
        "children": [
            
        ]
    },
    {
        "geonameId": 1091673,
        "name": "F\u00e2ssi",
        "children": [
            
        ]
    },
    {
        "geonameId": 1092150,
        "name": "Gouni",
        "children": [
            
        ]
    },
    {
        "geonameId": 921876,
        "name": "Haha\u00efa",
        "children": [
            
        ]
    },
    {
        "geonameId": 1092517,
        "name": "Hamsaoua",
        "children": [
            
        ]
    },
    {
        "geonameId": 1092151,
        "name": "Hantsambou",
        "children": [
            
        ]
    },
    {
        "geonameId": 1091828,
        "name": "Hantsindzi",
        "children": [
            
        ]
    },
    {
        "geonameId": 1092044,
        "name": "Hassendj\u00e9",
        "children": [
            
        ]
    },
    {
        "geonameId": 1091721,
        "name": "Ha\u00efgnandrama",
        "children": [
            
        ]
    },
    {
        "geonameId": 921872,
        "name": "Helendj\u00e9",
        "children": [
            
        ]
    },
    {
        "geonameId": 921871,
        "name": "Hetsa",
        "children": [
            
        ]
    },
    {
        "geonameId": 921858,
        "name": "H\u00e9roumbili",
        "children": [
            
        ]
    },
    {
        "geonameId": 921866,
        "name": "Idjikoundzi",
        "children": [
            
        ]
    },
    {
        "geonameId": 1092338,
        "name": "Idjouandradja",
        "children": [
            
        ]
    },
    {
        "geonameId": 921865,
        "name": "Ifoundih\u00e9",
        "children": [
            
        ]
    },
    {
        "geonameId": 921864,
        "name": "Ifoundih\u00e9 Chambouani",
        "children": [
            
        ]
    },
    {
        "geonameId": 1092369,
        "name": "Ikoni",
        "children": [
            
        ]
    },
    {
        "geonameId": 1092059,
        "name": "Irouh\u00e9",
        "children": [
            
        ]
    },
    {
        "geonameId": 1092167,
        "name": "Itsambouni",
        "children": [
            
        ]
    },
    {
        "geonameId": 1092344,
        "name": "Itsambouni",
        "children": [
            
        ]
    },
    {
        "geonameId": 921856,
        "name": "Itsandra",
        "children": [
            
        ]
    },
    {
        "geonameId": 1091868,
        "name": "Itsandz\u00e9ni",
        "children": [
            
        ]
    },
    {
        "geonameId": 1092407,
        "name": "Itsangou\u00e9",
        "children": [
            
        ]
    },
    {
        "geonameId": 921855,
        "name": "Itsikoudi",
        "children": [
            
        ]
    },
    {
        "geonameId": 921853,
        "name": "Ivembeni",
        "children": [
            
        ]
    },
    {
        "geonameId": 921852,
        "name": "Ivouani",
        "children": [
            
        ]
    },
    {
        "geonameId": 1092015,
        "name": "Kangalinda",
        "children": [
            
        ]
    },
    {
        "geonameId": 1092535,
        "name": "Kanzil\u00e9",
        "children": [
            
        ]
    },
    {
        "geonameId": 921839,
        "name": "Koimbani",
        "children": [
            
        ]
    },
    {
        "geonameId": 1092411,
        "name": "Komioni",
        "children": [
            
        ]
    },
    {
        "geonameId": 1091713,
        "name": "Koua",
        "children": [
            
        ]
    },
    {
        "geonameId": 1091683,
        "name": "Koua",
        "children": [
            
        ]
    },
    {
        "geonameId": 921837,
        "name": "Kouambani",
        "children": [
            
        ]
    },
    {
        "geonameId": 921833,
        "name": "Kouhani",
        "children": [
            
        ]
    },
    {
        "geonameId": 1091991,
        "name": "Kourani",
        "children": [
            
        ]
    },
    {
        "geonameId": 1092530,
        "name": "Kourani",
        "children": [
            
        ]
    },
    {
        "geonameId": 921926,
        "name": "La Convalescence",
        "children": [
            
        ]
    },
    {
        "geonameId": 1092516,
        "name": "Madjeou\u00e9ni",
        "children": [
            
        ]
    },
    {
        "geonameId": 921820,
        "name": "Madjoumadjou",
        "children": [
            
        ]
    },
    {
        "geonameId": 1092413,
        "name": "Magaridjou",
        "children": [
            
        ]
    },
    {
        "geonameId": 1092394,
        "name": "Mahavani",
        "children": [
            
        ]
    },
    {
        "geonameId": 1092538,
        "name": "Makorani",
        "children": [
            
        ]
    },
    {
        "geonameId": 921817,
        "name": "Male",
        "children": [
            
        ]
    },
    {
        "geonameId": 1091843,
        "name": "Manda",
        "children": [
            
        ]
    },
    {
        "geonameId": 1091711,
        "name": "Mandza",
        "children": [
            
        ]
    },
    {
        "geonameId": 1091701,
        "name": "Maor\u00e9",
        "children": [
            
        ]
    },
    {
        "geonameId": 1091856,
        "name": "Maou\u00e9ni",
        "children": [
            
        ]
    },
    {
        "geonameId": 1092166,
        "name": "Maou\u00e9ni",
        "children": [
            
        ]
    },
    {
        "geonameId": 1091698,
        "name": "Massihini",
        "children": [
            
        ]
    },
    {
        "geonameId": 1092343,
        "name": "Mavingouni",
        "children": [
            
        ]
    },
    {
        "geonameId": 921809,
        "name": "Mbachil\u00e9",
        "children": [
            
        ]
    },
    {
        "geonameId": 1092003,
        "name": "Mbal\u00e9ni",
        "children": [
            
        ]
    },
    {
        "geonameId": 1092542,
        "name": "Mbambani",
        "children": [
            
        ]
    },
    {
        "geonameId": 1091864,
        "name": "Mbats\u00e9",
        "children": [
            
        ]
    },
    {
        "geonameId": 921805,
        "name": "Mboud\u00e9",
        "children": [
            
        ]
    },
    {
        "geonameId": 921806,
        "name": "Mb\u00e9ni",
        "children": [
            
        ]
    },
    {
        "geonameId": 1091714,
        "name": "Mch\u00e9nazi",
        "children": [
            
        ]
    },
    {
        "geonameId": 1092549,
        "name": "Mdji Diakagnoa",
        "children": [
            
        ]
    },
    {
        "geonameId": 1091871,
        "name": "Mdjibari",
        "children": [
            
        ]
    },
    {
        "geonameId": 1092534,
        "name": "Mdjoua Hahia",
        "children": [
            
        ]
    },
    {
        "geonameId": 921801,
        "name": "Mdjoy\u00e9zi",
        "children": [
            
        ]
    },
    {
        "geonameId": 921803,
        "name": "Md\u00e9",
        "children": [
            
        ]
    },
    {
        "geonameId": 1092164,
        "name": "Md\u00e9",
        "children": [
            
        ]
    },
    {
        "geonameId": 1091668,
        "name": "Memboua Bouani",
        "children": [
            
        ]
    },
    {
        "geonameId": 1091681,
        "name": "Membouadjou",
        "children": [
            
        ]
    },
    {
        "geonameId": 921800,
        "name": "Memb\u00e9ni",
        "children": [
            
        ]
    },
    {
        "geonameId": 1092152,
        "name": "Milemb\u00e9ni",
        "children": [
            
        ]
    },
    {
        "geonameId": 921793,
        "name": "Mil\u00e9vani",
        "children": [
            
        ]
    },
    {
        "geonameId": 1092155,
        "name": "Minassini",
        "children": [
            
        ]
    },
    {
        "geonameId": 1091841,
        "name": "Minoungouni",
        "children": [
            
        ]
    },
    {
        "geonameId": 921792,
        "name": "Mir\u00e9r\u00e9ni",
        "children": [
            
        ]
    },
    {
        "geonameId": 1091844,
        "name": "Mir\u00e9r\u00e9ni",
        "children": [
            
        ]
    },
    {
        "geonameId": 921786,
        "name": "Mitsamiouli",
        "children": [
            
        ]
    },
    {
        "geonameId": 921785,
        "name": "Mitsoudj\u00e9",
        "children": [
            
        ]
    },
    {
        "geonameId": 1092350,
        "name": "Mkazi",
        "children": [
            
        ]
    },
    {
        "geonameId": 1091996,
        "name": "Mnoungou",
        "children": [
            
        ]
    },
    {
        "geonameId": 921777,
        "name": "Mohoro",
        "children": [
            
        ]
    },
    {
        "geonameId": 921772,
        "name": "Moroni",
        "children": [
            
        ]
    },
    {
        "geonameId": 1091851,
        "name": "Mouadja",
        "children": [
            
        ]
    },
    {
        "geonameId": 1091865,
        "name": "Mouadja",
        "children": [
            
        ]
    },
    {
        "geonameId": 1092378,
        "name": "Mouandzaza Ambouani",
        "children": [
            
        ]
    },
    {
        "geonameId": 1092384,
        "name": "Mouandzaza Djoumb\u00e9",
        "children": [
            
        ]
    },
    {
        "geonameId": 1092406,
        "name": "Mrondadjou",
        "children": [
            
        ]
    },
    {
        "geonameId": 1091697,
        "name": "Mrouadjou",
        "children": [
            
        ]
    },
    {
        "geonameId": 921756,
        "name": "Mtsamdou",
        "children": [
            
        ]
    },
    {
        "geonameId": 1092341,
        "name": "Mvouni",
        "children": [
            
        ]
    },
    {
        "geonameId": 1092371,
        "name": "Napa Beau",
        "children": [
            
        ]
    },
    {
        "geonameId": 1092375,
        "name": "Ndroini",
        "children": [
            
        ]
    },
    {
        "geonameId": 1091694,
        "name": "Ndroud\u00e9",
        "children": [
            
        ]
    },
    {
        "geonameId": 921747,
        "name": "Ndzaouze",
        "children": [
            
        ]
    },
    {
        "geonameId": 1091866,
        "name": "Ngol\u00e9",
        "children": [
            
        ]
    },
    {
        "geonameId": 1091867,
        "name": "Niadoumbou\u00e9ni",
        "children": [
            
        ]
    },
    {
        "geonameId": 1092403,
        "name": "Nioumadzaha",
        "children": [
            
        ]
    },
    {
        "geonameId": 921743,
        "name": "Nioumadzaha Mvoumbari",
        "children": [
            
        ]
    },
    {
        "geonameId": 1092529,
        "name": "Nioumamilima",
        "children": [
            
        ]
    },
    {
        "geonameId": 1091829,
        "name": "Nioumamilina",
        "children": [
            
        ]
    },
    {
        "geonameId": 921740,
        "name": "Nioumbadjou",
        "children": [
            
        ]
    },
    {
        "geonameId": 1091669,
        "name": "Nkourani",
        "children": [
            
        ]
    },
    {
        "geonameId": 1091672,
        "name": "Ntsadj\u00e9ni",
        "children": [
            
        ]
    },
    {
        "geonameId": 921731,
        "name": "Ntsaou\u00e9ni",
        "children": [
            
        ]
    },
    {
        "geonameId": 1092163,
        "name": "Ntsoral\u00e9",
        "children": [
            
        ]
    },
    {
        "geonameId": 921729,
        "name": "Ntsoudjini",
        "children": [
            
        ]
    },
    {
        "geonameId": 1092157,
        "name": "Ouella",
        "children": [
            
        ]
    },
    {
        "geonameId": 1091674,
        "name": "Ouhozi",
        "children": [
            
        ]
    },
    {
        "geonameId": 1092389,
        "name": "Oungoni",
        "children": [
            
        ]
    },
    {
        "geonameId": 921714,
        "name": "Ourov\u00e9ni",
        "children": [
            
        ]
    },
    {
        "geonameId": 921713,
        "name": "Oussivo",
        "children": [
            
        ]
    },
    {
        "geonameId": 1091689,
        "name": "Ouzio",
        "children": [
            
        ]
    },
    {
        "geonameId": 921719,
        "name": "Ou\u00e9la",
        "children": [
            
        ]
    },
    {
        "geonameId": 1091869,
        "name": "Ou\u00e9la",
        "children": [
            
        ]
    },
    {
        "geonameId": 921718,
        "name": "Ou\u00e9mani",
        "children": [
            
        ]
    },
    {
        "geonameId": 921706,
        "name": "Panda",
        "children": [
            
        ]
    },
    {
        "geonameId": 921700,
        "name": "Pidjani",
        "children": [
            
        ]
    },
    {
        "geonameId": 1091677,
        "name": "Pidjani",
        "children": [
            
        ]
    },
    {
        "geonameId": 1092057,
        "name": "Sada",
        "children": [
            
        ]
    },
    {
        "geonameId": 1091992,
        "name": "Sada Mouamboua",
        "children": [
            
        ]
    },
    {
        "geonameId": 1091995,
        "name": "Sada-Chihou\u00e9",
        "children": [
            
        ]
    },
    {
        "geonameId": 1092346,
        "name": "Sahani",
        "children": [
            
        ]
    },
    {
        "geonameId": 921687,
        "name": "Salimani",
        "children": [
            
        ]
    },
    {
        "geonameId": 1091699,
        "name": "Salimani",
        "children": [
            
        ]
    },
    {
        "geonameId": 1092168,
        "name": "Salimani",
        "children": [
            
        ]
    },
    {
        "geonameId": 1091994,
        "name": "Sal\u00e9mani",
        "children": [
            
        ]
    },
    {
        "geonameId": 1092154,
        "name": "Samba",
        "children": [
            
        ]
    },
    {
        "geonameId": 1092543,
        "name": "Samba",
        "children": [
            
        ]
    },
    {
        "geonameId": 921686,
        "name": "Samba-Madi",
        "children": [
            
        ]
    },
    {
        "geonameId": 1092149,
        "name": "Sambakouni",
        "children": [
            
        ]
    },
    {
        "geonameId": 1092162,
        "name": "Sidjou",
        "children": [
            
        ]
    },
    {
        "geonameId": 1092045,
        "name": "Sima",
        "children": [
            
        ]
    },
    {
        "geonameId": 1092066,
        "name": "Sima",
        "children": [
            
        ]
    },
    {
        "geonameId": 1091850,
        "name": "Simboussa",
        "children": [
            
        ]
    },
    {
        "geonameId": 921674,
        "name": "Singani",
        "children": [
            
        ]
    },
    {
        "geonameId": 1091670,
        "name": "Songomani",
        "children": [
            
        ]
    },
    {
        "geonameId": 1092396,
        "name": "S\u00e9l\u00e9a",
        "children": [
            
        ]
    },
    {
        "geonameId": 1091993,
        "name": "S\u00e9l\u00e9yani",
        "children": [
            
        ]
    },
    {
        "geonameId": 1092373,
        "name": "S\u00e9r\u00e9hini",
        "children": [
            
        ]
    },
    {
        "geonameId": 1091678,
        "name": "Toyifa",
        "children": [
            
        ]
    },
    {
        "geonameId": 1091667,
        "name": "Trou du Proph\u00e8te",
        "children": [
            
        ]
    },
    {
        "geonameId": 1092178,
        "name": "Tsangadjou",
        "children": [
            
        ]
    },
    {
        "geonameId": 1092169,
        "name": "Tsidj\u00e9",
        "children": [
            
        ]
    },
    {
        "geonameId": 1092536,
        "name": "Tsinimouachongo",
        "children": [
            
        ]
    },
    {
        "geonameId": 1092404,
        "name": "Tsinimouapanga",
        "children": [
            
        ]
    },
    {
        "geonameId": 1092041,
        "name": "Vanadjou",
        "children": [
            
        ]
    },
    {
        "geonameId": 921661,
        "name": "Vanambouani",
        "children": [
            
        ]
    },
    {
        "geonameId": 1092068,
        "name": "Vouadjou",
        "children": [
            
        ]
    },
    {
        "geonameId": 1092040,
        "name": "Vounambadani",
        "children": [
            
        ]
    },
    {
        "geonameId": 1092368,
        "name": "Vouvouni",
        "children": [
            
        ]
    },
    {
        "geonameId": 1092414,
        "name": "Zikaledjou",
        "children": [
            
        ]
    },
    {
        "geonameId": 1092067,
        "name": "Zivandani",
        "children": [
            
        ]
    },
    {
        "geonameId": 1091718,
        "name": "Zouda",
        "children": [
            
        ]
    }
]