[
    {
        "geonameId": 7746970,
        "name": "Bathobantle",
        "children": [
            
        ]
    },
    {
        "geonameId": 7889491,
        "name": "Bokhutlo",
        "children": [
            
        ]
    },
    {
        "geonameId": 933854,
        "name": "Bulukubalo",
        "children": [
            
        ]
    },
    {
        "geonameId": 933836,
        "name": "Chuaning",
        "children": [
            
        ]
    },
    {
        "geonameId": 7736928,
        "name": "Diabo",
        "children": [
            
        ]
    },
    {
        "geonameId": 7736922,
        "name": "Diaka",
        "children": [
            
        ]
    },
    {
        "geonameId": 7745696,
        "name": "Dialane",
        "children": [
            
        ]
    },
    {
        "geonameId": 7736918,
        "name": "Dibajakwena",
        "children": [
            
        ]
    },
    {
        "geonameId": 7746221,
        "name": "Dilolwe",
        "children": [
            
        ]
    },
    {
        "geonameId": 7736877,
        "name": "Dinatshana",
        "children": [
            
        ]
    },
    {
        "geonameId": 7746227,
        "name": "Dinogeng",
        "children": [
            
        ]
    },
    {
        "geonameId": 7736875,
        "name": "Diphatana",
        "children": [
            
        ]
    },
    {
        "geonameId": 7736949,
        "name": "Diphawana",
        "children": [
            
        ]
    },
    {
        "geonameId": 7736884,
        "name": "Diphiring",
        "children": [
            
        ]
    },
    {
        "geonameId": 7736933,
        "name": "Dipotsana",
        "children": [
            
        ]
    },
    {
        "geonameId": 7736869,
        "name": "Ditojana",
        "children": [
            
        ]
    },
    {
        "geonameId": 7736871,
        "name": "Ditshetlho",
        "children": [
            
        ]
    },
    {
        "geonameId": 7745707,
        "name": "Ditshukutswane",
        "children": [
            
        ]
    },
    {
        "geonameId": 7746195,
        "name": "Ditsobotlana",
        "children": [
            
        ]
    },
    {
        "geonameId": 7739147,
        "name": "Gadintsi",
        "children": [
            
        ]
    },
    {
        "geonameId": 7746183,
        "name": "Gakhudu",
        "children": [
            
        ]
    },
    {
        "geonameId": 7736880,
        "name": "Gakhuduga",
        "children": [
            
        ]
    },
    {
        "geonameId": 7739129,
        "name": "Gakolobu",
        "children": [
            
        ]
    },
    {
        "geonameId": 7736909,
        "name": "Galetanyane",
        "children": [
            
        ]
    },
    {
        "geonameId": 7736893,
        "name": "Galewane",
        "children": [
            
        ]
    },
    {
        "geonameId": 7739132,
        "name": "Galonakana",
        "children": [
            
        ]
    },
    {
        "geonameId": 7746220,
        "name": "Gamafikana",
        "children": [
            
        ]
    },
    {
        "geonameId": 7736921,
        "name": "Gamaio",
        "children": [
            
        ]
    },
    {
        "geonameId": 7739138,
        "name": "Gamajalela",
        "children": [
            
        ]
    },
    {
        "geonameId": 7739146,
        "name": "Gamatlhaku",
        "children": [
            
        ]
    },
    {
        "geonameId": 7739133,
        "name": "Gamatsetsakgabe",
        "children": [
            
        ]
    },
    {
        "geonameId": 7736897,
        "name": "Gamoeng",
        "children": [
            
        ]
    },
    {
        "geonameId": 7736878,
        "name": "Gamogapinyane",
        "children": [
            
        ]
    },
    {
        "geonameId": 7736873,
        "name": "Gamohibidu",
        "children": [
            
        ]
    },
    {
        "geonameId": 7739148,
        "name": "Gamojela",
        "children": [
            
        ]
    },
    {
        "geonameId": 7746222,
        "name": "Gamorala",
        "children": [
            
        ]
    },
    {
        "geonameId": 7736881,
        "name": "Gamosinki",
        "children": [
            
        ]
    },
    {
        "geonameId": 7736912,
        "name": "Gamoswaana",
        "children": [
            
        ]
    },
    {
        "geonameId": 7745802,
        "name": "Gampudi",
        "children": [
            
        ]
    },
    {
        "geonameId": 7736930,
        "name": "Ganamanyane",
        "children": [
            
        ]
    },
    {
        "geonameId": 7737581,
        "name": "Garamotlhose",
        "children": [
            
        ]
    },
    {
        "geonameId": 7889492,
        "name": "Gasekhukhu",
        "children": [
            
        ]
    },
    {
        "geonameId": 7746202,
        "name": "Gaseroka",
        "children": [
            
        ]
    },
    {
        "geonameId": 7736904,
        "name": "Gasethebe",
        "children": [
            
        ]
    },
    {
        "geonameId": 7736872,
        "name": "Gatalatshukudu",
        "children": [
            
        ]
    },
    {
        "geonameId": 7739131,
        "name": "Gatampa",
        "children": [
            
        ]
    },
    {
        "geonameId": 7739134,
        "name": "Gathwane",
        "children": [
            
        ]
    },
    {
        "geonameId": 7736899,
        "name": "Gatsatsiatsola",
        "children": [
            
        ]
    },
    {
        "geonameId": 7746233,
        "name": "Gatsepane",
        "children": [
            
        ]
    },
    {
        "geonameId": 7739114,
        "name": "Gatuma",
        "children": [
            
        ]
    },
    {
        "geonameId": 7739165,
        "name": "Good Hope",
        "children": [
            
        ]
    },
    {
        "geonameId": 7736917,
        "name": "Janki",
        "children": [
            
        ]
    },
    {
        "geonameId": 8308627,
        "name": "Jwaneng",
        "children": [
            
        ]
    },
    {
        "geonameId": 7889496,
        "name": "Kanaku",
        "children": [
            
        ]
    },
    {
        "geonameId": 933685,
        "name": "Kanye",
        "children": [
            
        ]
    },
    {
        "geonameId": 7892001,
        "name": "Keng",
        "children": [
            
        ]
    },
    {
        "geonameId": 7746210,
        "name": "Kgamagadi",
        "children": [
            
        ]
    },
    {
        "geonameId": 7736896,
        "name": "Kgokgole",
        "children": [
            
        ]
    },
    {
        "geonameId": 7908931,
        "name": "Kgome",
        "children": [
            
        ]
    },
    {
        "geonameId": 7739135,
        "name": "Kgoro",
        "children": [
            
        ]
    },
    {
        "geonameId": 7746205,
        "name": "Kgotla",
        "children": [
            
        ]
    },
    {
        "geonameId": 933651,
        "name": "Khakalashwe",
        "children": [
            
        ]
    },
    {
        "geonameId": 933649,
        "name": "Khakhea",
        "children": [
            
        ]
    },
    {
        "geonameId": 7893425,
        "name": "Kobamni",
        "children": [
            
        ]
    },
    {
        "geonameId": 7867559,
        "name": "Kokong",
        "children": [
            
        ]
    },
    {
        "geonameId": 7746964,
        "name": "Kolwane",
        "children": [
            
        ]
    },
    {
        "geonameId": 7739119,
        "name": "Kutokgolo",
        "children": [
            
        ]
    },
    {
        "geonameId": 7746204,
        "name": "Ledubeng",
        "children": [
            
        ]
    },
    {
        "geonameId": 933551,
        "name": "Leftka",
        "children": [
            
        ]
    },
    {
        "geonameId": 7746212,
        "name": "Lehatlheng",
        "children": [
            
        ]
    },
    {
        "geonameId": 7745720,
        "name": "Lekgolobotlo",
        "children": [
            
        ]
    },
    {
        "geonameId": 7736906,
        "name": "Lekgopha",
        "children": [
            
        ]
    },
    {
        "geonameId": 7908936,
        "name": "Lepapa",
        "children": [
            
        ]
    },
    {
        "geonameId": 7736920,
        "name": "Lerokolo",
        "children": [
            
        ]
    },
    {
        "geonameId": 7746198,
        "name": "Leropo",
        "children": [
            
        ]
    },
    {
        "geonameId": 7736876,
        "name": "Letlapana",
        "children": [
            
        ]
    },
    {
        "geonameId": 7736935,
        "name": "Letsopa",
        "children": [
            
        ]
    },
    {
        "geonameId": 7737585,
        "name": "Lokgwathe",
        "children": [
            
        ]
    },
    {
        "geonameId": 933509,
        "name": "Lolale",
        "children": [
            
        ]
    },
    {
        "geonameId": 7737577,
        "name": "Loratalane",
        "children": [
            
        ]
    },
    {
        "geonameId": 933506,
        "name": "Lotlhakane",
        "children": [
            
        ]
    },
    {
        "geonameId": 7736898,
        "name": "Lotlhakane",
        "children": [
            
        ]
    },
    {
        "geonameId": 7746948,
        "name": "Lwale",
        "children": [
            
        ]
    },
    {
        "geonameId": 7736839,
        "name": "Mabadisa",
        "children": [
            
        ]
    },
    {
        "geonameId": 7742857,
        "name": "Mabelane",
        "children": [
            
        ]
    },
    {
        "geonameId": 7889493,
        "name": "Mabutsane",
        "children": [
            
        ]
    },
    {
        "geonameId": 7736910,
        "name": "Magodire",
        "children": [
            
        ]
    },
    {
        "geonameId": 7739153,
        "name": "Magoriapitse",
        "children": [
            
        ]
    },
    {
        "geonameId": 7745760,
        "name": "Magotlhwane",
        "children": [
            
        ]
    },
    {
        "geonameId": 7736932,
        "name": "Maisane",
        "children": [
            
        ]
    },
    {
        "geonameId": 933460,
        "name": "Majaneng",
        "children": [
            
        ]
    },
    {
        "geonameId": 7746228,
        "name": "Makabile",
        "children": [
            
        ]
    },
    {
        "geonameId": 7736891,
        "name": "Makatanyane",
        "children": [
            
        ]
    },
    {
        "geonameId": 7737578,
        "name": "Makhubu",
        "children": [
            
        ]
    },
    {
        "geonameId": 7736929,
        "name": "Makhubung",
        "children": [
            
        ]
    },
    {
        "geonameId": 7745803,
        "name": "Makolontwane",
        "children": [
            
        ]
    },
    {
        "geonameId": 933428,
        "name": "Malau",
        "children": [
            
        ]
    },
    {
        "geonameId": 7893427,
        "name": "Mamohumela",
        "children": [
            
        ]
    },
    {
        "geonameId": 7736843,
        "name": "Mampa",
        "children": [
            
        ]
    },
    {
        "geonameId": 933462,
        "name": "Manyana",
        "children": [
            
        ]
    },
    {
        "geonameId": 7736934,
        "name": "Maphadikwe",
        "children": [
            
        ]
    },
    {
        "geonameId": 7746211,
        "name": "Masebopeng",
        "children": [
            
        ]
    },
    {
        "geonameId": 7736908,
        "name": "Masetswana",
        "children": [
            
        ]
    },
    {
        "geonameId": 7736894,
        "name": "Masinyetse",
        "children": [
            
        ]
    },
    {
        "geonameId": 7746229,
        "name": "Matlalo",
        "children": [
            
        ]
    },
    {
        "geonameId": 7746234,
        "name": "Matlapa",
        "children": [
            
        ]
    },
    {
        "geonameId": 7889495,
        "name": "Matlhaba",
        "children": [
            
        ]
    },
    {
        "geonameId": 7746223,
        "name": "Matlhakwana",
        "children": [
            
        ]
    },
    {
        "geonameId": 7746200,
        "name": "Matlhutlwa",
        "children": [
            
        ]
    },
    {
        "geonameId": 7745810,
        "name": "Matlhwatshana",
        "children": [
            
        ]
    },
    {
        "geonameId": 7745751,
        "name": "Matsatsi",
        "children": [
            
        ]
    },
    {
        "geonameId": 7736882,
        "name": "Maunyele",
        "children": [
            
        ]
    },
    {
        "geonameId": 7746944,
        "name": "Metsae",
        "children": [
            
        ]
    },
    {
        "geonameId": 7736913,
        "name": "Mmalonaane",
        "children": [
            
        ]
    },
    {
        "geonameId": 7736916,
        "name": "Mmamasiloanoka",
        "children": [
            
        ]
    },
    {
        "geonameId": 7746947,
        "name": "Mmamitlwe",
        "children": [
            
        ]
    },
    {
        "geonameId": 7746963,
        "name": "Mmaphuntsi",
        "children": [
            
        ]
    },
    {
        "geonameId": 7739123,
        "name": "Mmathete",
        "children": [
            
        ]
    },
    {
        "geonameId": 933345,
        "name": "Moakhi",
        "children": [
            
        ]
    },
    {
        "geonameId": 7908933,
        "name": "Mogobewadinonyane",
        "children": [
            
        ]
    },
    {
        "geonameId": 7737589,
        "name": "Mogojwagojwe",
        "children": [
            
        ]
    },
    {
        "geonameId": 7736837,
        "name": "Mohuduhutswe",
        "children": [
            
        ]
    },
    {
        "geonameId": 933328,
        "name": "Mojane",
        "children": [
            
        ]
    },
    {
        "geonameId": 7741601,
        "name": "Mokatako",
        "children": [
            
        ]
    },
    {
        "geonameId": 7739124,
        "name": "Mokgalokgaoga",
        "children": [
            
        ]
    },
    {
        "geonameId": 7741606,
        "name": "Mokgomane",
        "children": [
            
        ]
    },
    {
        "geonameId": 7867560,
        "name": "Molatswana",
        "children": [
            
        ]
    },
    {
        "geonameId": 7746939,
        "name": "Molomoojang",
        "children": [
            
        ]
    },
    {
        "geonameId": 7746235,
        "name": "Monnamme",
        "children": [
            
        ]
    },
    {
        "geonameId": 7745809,
        "name": "Monyenane",
        "children": [
            
        ]
    },
    {
        "geonameId": 7746190,
        "name": "Mophuelo",
        "children": [
            
        ]
    },
    {
        "geonameId": 7736900,
        "name": "Moreane",
        "children": [
            
        ]
    },
    {
        "geonameId": 7736842,
        "name": "Morebudi",
        "children": [
            
        ]
    },
    {
        "geonameId": 7746238,
        "name": "Morotakapolo",
        "children": [
            
        ]
    },
    {
        "geonameId": 933280,
        "name": "Morwamosu",
        "children": [
            
        ]
    },
    {
        "geonameId": 7739115,
        "name": "Moselebe",
        "children": [
            
        ]
    },
    {
        "geonameId": 933487,
        "name": "Moshaneng",
        "children": [
            
        ]
    },
    {
        "geonameId": 933276,
        "name": "Moshwana",
        "children": [
            
        ]
    },
    {
        "geonameId": 7746940,
        "name": "Mosiang",
        "children": [
            
        ]
    },
    {
        "geonameId": 7739112,
        "name": "Mosilabetsane",
        "children": [
            
        ]
    },
    {
        "geonameId": 933271,
        "name": "Mosopa",
        "children": [
            
        ]
    },
    {
        "geonameId": 7746236,
        "name": "Moswaedi",
        "children": [
            
        ]
    },
    {
        "geonameId": 7867561,
        "name": "Motlhaba",
        "children": [
            
        ]
    },
    {
        "geonameId": 7736890,
        "name": "Motlhatsa",
        "children": [
            
        ]
    },
    {
        "geonameId": 7739120,
        "name": "Motlotswana",
        "children": [
            
        ]
    },
    {
        "geonameId": 7739130,
        "name": "Motsentshe",
        "children": [
            
        ]
    },
    {
        "geonameId": 7746185,
        "name": "Ngwanaoesi",
        "children": [
            
        ]
    },
    {
        "geonameId": 7736889,
        "name": "Nneneke",
        "children": [
            
        ]
    },
    {
        "geonameId": 7746209,
        "name": "Nomare",
        "children": [
            
        ]
    },
    {
        "geonameId": 7745754,
        "name": "Ntlhantlhe",
        "children": [
            
        ]
    },
    {
        "geonameId": 7739118,
        "name": "Ntsatshetlhana",
        "children": [
            
        ]
    },
    {
        "geonameId": 7739121,
        "name": "Ntshwabi",
        "children": [
            
        ]
    },
    {
        "geonameId": 7889490,
        "name": "Nyetse",
        "children": [
            
        ]
    },
    {
        "geonameId": 7889494,
        "name": "Palamaokuwe",
        "children": [
            
        ]
    },
    {
        "geonameId": 7739128,
        "name": "Papa ya Morotsi",
        "children": [
            
        ]
    },
    {
        "geonameId": 7736892,
        "name": "Phokojeng",
        "children": [
            
        ]
    },
    {
        "geonameId": 7746226,
        "name": "Pitsane",
        "children": [
            
        ]
    },
    {
        "geonameId": 7746237,
        "name": "Polokwe",
        "children": [
            
        ]
    },
    {
        "geonameId": 7893426,
        "name": "Radigole",
        "children": [
            
        ]
    },
    {
        "geonameId": 7736895,
        "name": "Rakgokanyane",
        "children": [
            
        ]
    },
    {
        "geonameId": 7746953,
        "name": "Rakololo",
        "children": [
            
        ]
    },
    {
        "geonameId": 7746945,
        "name": "Ramakgankgari",
        "children": [
            
        ]
    },
    {
        "geonameId": 7746965,
        "name": "Ramakgetla",
        "children": [
            
        ]
    },
    {
        "geonameId": 7745698,
        "name": "Ramating",
        "children": [
            
        ]
    },
    {
        "geonameId": 7779281,
        "name": "Ramatlabama",
        "children": [
            
        ]
    },
    {
        "geonameId": 7889036,
        "name": "Ramokapane",
        "children": [
            
        ]
    },
    {
        "geonameId": 7736923,
        "name": "Ramonnedi",
        "children": [
            
        ]
    },
    {
        "geonameId": 7746952,
        "name": "Ramoshengwane",
        "children": [
            
        ]
    },
    {
        "geonameId": 7746207,
        "name": "Ranaka",
        "children": [
            
        ]
    },
    {
        "geonameId": 7746958,
        "name": "Rankwakwa",
        "children": [
            
        ]
    },
    {
        "geonameId": 7746957,
        "name": "Ranota",
        "children": [
            
        ]
    },
    {
        "geonameId": 7736919,
        "name": "Ratshenyana",
        "children": [
            
        ]
    },
    {
        "geonameId": 933113,
        "name": "Sefhetla",
        "children": [
            
        ]
    },
    {
        "geonameId": 933105,
        "name": "Segwagwa",
        "children": [
            
        ]
    },
    {
        "geonameId": 7739144,
        "name": "Sehikile",
        "children": [
            
        ]
    },
    {
        "geonameId": 7746971,
        "name": "Sehubidu",
        "children": [
            
        ]
    },
    {
        "geonameId": 7736901,
        "name": "Sekalaba",
        "children": [
            
        ]
    },
    {
        "geonameId": 933102,
        "name": "Sekoma",
        "children": [
            
        ]
    },
    {
        "geonameId": 7891994,
        "name": "Sekoma",
        "children": [
            
        ]
    },
    {
        "geonameId": 933055,
        "name": "Selokolela",
        "children": [
            
        ]
    },
    {
        "geonameId": 7737580,
        "name": "Seokangwane",
        "children": [
            
        ]
    },
    {
        "geonameId": 7746959,
        "name": "Sephatlhaphatla",
        "children": [
            
        ]
    },
    {
        "geonameId": 7889033,
        "name": "Serumolwe",
        "children": [
            
        ]
    },
    {
        "geonameId": 7745639,
        "name": "Sesitajwe",
        "children": [
            
        ]
    },
    {
        "geonameId": 7746188,
        "name": "Sesunyane",
        "children": [
            
        ]
    },
    {
        "geonameId": 7736836,
        "name": "Sobathwe",
        "children": [
            
        ]
    },
    {
        "geonameId": 7746203,
        "name": "Sobe",
        "children": [
            
        ]
    },
    {
        "geonameId": 7739140,
        "name": "Tauekaname",
        "children": [
            
        ]
    },
    {
        "geonameId": 7736905,
        "name": "Taupane",
        "children": [
            
        ]
    },
    {
        "geonameId": 7893428,
        "name": "Thari",
        "children": [
            
        ]
    },
    {
        "geonameId": 7736879,
        "name": "Tirwane",
        "children": [
            
        ]
    },
    {
        "geonameId": 7737584,
        "name": "Tlakhama",
        "children": [
            
        ]
    },
    {
        "geonameId": 933007,
        "name": "Tlhareselele",
        "children": [
            
        ]
    },
    {
        "geonameId": 933001,
        "name": "Tobgat",
        "children": [
            
        ]
    },
    {
        "geonameId": 932996,
        "name": "Totoru",
        "children": [
            
        ]
    },
    {
        "geonameId": 7746943,
        "name": "Tshwaane",
        "children": [
            
        ]
    },
    {
        "geonameId": 7736902,
        "name": "Tsokwane",
        "children": [
            
        ]
    },
    {
        "geonameId": 7746225,
        "name": "Tsonye",
        "children": [
            
        ]
    },
    {
        "geonameId": 7746973,
        "name": "Tsopane",
        "children": [
            
        ]
    },
    {
        "geonameId": 932963,
        "name": "Vlei",
        "children": [
            
        ]
    }
]