[
    {
        "geonameId": 7571469,
        "name": "Butale",
        "children": [
            
        ]
    },
    {
        "geonameId": 7573760,
        "name": "Dabgwi",
        "children": [
            
        ]
    },
    {
        "geonameId": 933790,
        "name": "Dukwe",
        "children": [
            
        ]
    },
    {
        "geonameId": 7755882,
        "name": "Dumela",
        "children": [
            
        ]
    },
    {
        "geonameId": 933778,
        "name": "Francistown",
        "children": [
            
        ]
    },
    {
        "geonameId": 7571025,
        "name": "Gambule",
        "children": [
            
        ]
    },
    {
        "geonameId": 7543397,
        "name": "Gambule",
        "children": [
            
        ]
    },
    {
        "geonameId": 7571349,
        "name": "Gulubane",
        "children": [
            
        ]
    },
    {
        "geonameId": 7543398,
        "name": "Gungwe",
        "children": [
            
        ]
    },
    {
        "geonameId": 933732,
        "name": "Habangan",
        "children": [
            
        ]
    },
    {
        "geonameId": 7571471,
        "name": "Jakalasi Number One",
        "children": [
            
        ]
    },
    {
        "geonameId": 7926650,
        "name": "Jakalasi Number Two",
        "children": [
            
        ]
    },
    {
        "geonameId": 933698,
        "name": "Kalakamati",
        "children": [
            
        ]
    },
    {
        "geonameId": 7543370,
        "name": "Letsholathebe",
        "children": [
            
        ]
    },
    {
        "geonameId": 7926648,
        "name": "Mabudzane",
        "children": [
            
        ]
    },
    {
        "geonameId": 7571347,
        "name": "Madwaleng",
        "children": [
            
        ]
    },
    {
        "geonameId": 7573808,
        "name": "Mafote",
        "children": [
            
        ]
    },
    {
        "geonameId": 7573795,
        "name": "Maitengwe",
        "children": [
            
        ]
    },
    {
        "geonameId": 7571355,
        "name": "Mambo",
        "children": [
            
        ]
    },
    {
        "geonameId": 7543371,
        "name": "Manyale",
        "children": [
            
        ]
    },
    {
        "geonameId": 7543396,
        "name": "Mapoka",
        "children": [
            
        ]
    },
    {
        "geonameId": 7543393,
        "name": "Masingwa",
        "children": [
            
        ]
    },
    {
        "geonameId": 7571354,
        "name": "Masingwaneng",
        "children": [
            
        ]
    },
    {
        "geonameId": 933390,
        "name": "Masunga",
        "children": [
            
        ]
    },
    {
        "geonameId": 7571346,
        "name": "Matenge",
        "children": [
            
        ]
    },
    {
        "geonameId": 7754752,
        "name": "Matshelagabedi",
        "children": [
            
        ]
    },
    {
        "geonameId": 7571350,
        "name": "Matshingitshi",
        "children": [
            
        ]
    },
    {
        "geonameId": 7573800,
        "name": "Mazuwe",
        "children": [
            
        ]
    },
    {
        "geonameId": 7573790,
        "name": "Mengwe",
        "children": [
            
        ]
    },
    {
        "geonameId": 7755879,
        "name": "Mhatane",
        "children": [
            
        ]
    },
    {
        "geonameId": 933339,
        "name": "Mochumi",
        "children": [
            
        ]
    },
    {
        "geonameId": 7571467,
        "name": "Moroka",
        "children": [
            
        ]
    },
    {
        "geonameId": 7571020,
        "name": "Mosojane",
        "children": [
            
        ]
    },
    {
        "geonameId": 7543383,
        "name": "Mosojane",
        "children": [
            
        ]
    },
    {
        "geonameId": 7573780,
        "name": "Mpapho",
        "children": [
            
        ]
    },
    {
        "geonameId": 7543392,
        "name": "Mulambakwena",
        "children": [
            
        ]
    },
    {
        "geonameId": 7571016,
        "name": "Nlhakwane",
        "children": [
            
        ]
    },
    {
        "geonameId": 7570750,
        "name": "Nzendami",
        "children": [
            
        ]
    },
    {
        "geonameId": 933193,
        "name": "Old Tati",
        "children": [
            
        ]
    },
    {
        "geonameId": 7756210,
        "name": "Pobepobe",
        "children": [
            
        ]
    },
    {
        "geonameId": 7571024,
        "name": "Pole",
        "children": [
            
        ]
    },
    {
        "geonameId": 7571030,
        "name": "Ramokgwebane",
        "children": [
            
        ]
    },
    {
        "geonameId": 933117,
        "name": "Sebina",
        "children": [
            
        ]
    },
    {
        "geonameId": 7571357,
        "name": "Sechele",
        "children": [
            
        ]
    },
    {
        "geonameId": 7926647,
        "name": "Sekgophane",
        "children": [
            
        ]
    },
    {
        "geonameId": 7926644,
        "name": "Senyawe",
        "children": [
            
        ]
    },
    {
        "geonameId": 7543403,
        "name": "Shashe Drift",
        "children": [
            
        ]
    },
    {
        "geonameId": 7543400,
        "name": "Shikangangwe",
        "children": [
            
        ]
    },
    {
        "geonameId": 7754750,
        "name": "Sikukwe",
        "children": [
            
        ]
    },
    {
        "geonameId": 7926646,
        "name": "Siviya",
        "children": [
            
        ]
    },
    {
        "geonameId": 933029,
        "name": "Thantabana",
        "children": [
            
        ]
    },
    {
        "geonameId": 7571363,
        "name": "Thataganyane",
        "children": [
            
        ]
    },
    {
        "geonameId": 7571359,
        "name": "Themashange",
        "children": [
            
        ]
    },
    {
        "geonameId": 7570751,
        "name": "Toteng",
        "children": [
            
        ]
    },
    {
        "geonameId": 7571023,
        "name": "Tshesebe",
        "children": [
            
        ]
    },
    {
        "geonameId": 7543394,
        "name": "Zwenshambe",
        "children": [
            
        ]
    }
]