[
    {
        "geonameId": 7908221,
        "name": "Batsetsi",
        "children": [
            
        ]
    },
    {
        "geonameId": 7908230,
        "name": "Boditse",
        "children": [
            
        ]
    },
    {
        "geonameId": 7908627,
        "name": "Bohutsana",
        "children": [
            
        ]
    },
    {
        "geonameId": 933872,
        "name": "Borakalalop Camp",
        "children": [
            
        ]
    },
    {
        "geonameId": 933862,
        "name": "Botlhapatlou",
        "children": [
            
        ]
    },
    {
        "geonameId": 7752573,
        "name": "Chaoka",
        "children": [
            
        ]
    },
    {
        "geonameId": 7908237,
        "name": "Diagane",
        "children": [
            
        ]
    },
    {
        "geonameId": 7908673,
        "name": "Digwagwe",
        "children": [
            
        ]
    },
    {
        "geonameId": 7908674,
        "name": "Digwagwe Well",
        "children": [
            
        ]
    },
    {
        "geonameId": 7752580,
        "name": "Dikgatlong",
        "children": [
            
        ]
    },
    {
        "geonameId": 7908685,
        "name": "Dikgatlong",
        "children": [
            
        ]
    },
    {
        "geonameId": 7752583,
        "name": "Dikhutsana",
        "children": [
            
        ]
    },
    {
        "geonameId": 7908655,
        "name": "Dikolakolana",
        "children": [
            
        ]
    },
    {
        "geonameId": 7752574,
        "name": "Dilegane",
        "children": [
            
        ]
    },
    {
        "geonameId": 7908226,
        "name": "Dilepe",
        "children": [
            
        ]
    },
    {
        "geonameId": 7752618,
        "name": "Dimawe",
        "children": [
            
        ]
    },
    {
        "geonameId": 7746921,
        "name": "Dinkgwana",
        "children": [
            
        ]
    },
    {
        "geonameId": 7908234,
        "name": "Diphafu",
        "children": [
            
        ]
    },
    {
        "geonameId": 7908663,
        "name": "Diphale",
        "children": [
            
        ]
    },
    {
        "geonameId": 7752577,
        "name": "Diphepe",
        "children": [
            
        ]
    },
    {
        "geonameId": 7752567,
        "name": "Diphiri",
        "children": [
            
        ]
    },
    {
        "geonameId": 7909132,
        "name": "Dithupe",
        "children": [
            
        ]
    },
    {
        "geonameId": 7752589,
        "name": "Ditlhakane",
        "children": [
            
        ]
    },
    {
        "geonameId": 1106214,
        "name": "Dumadumana",
        "children": [
            
        ]
    },
    {
        "geonameId": 933777,
        "name": "Gabane",
        "children": [
            
        ]
    },
    {
        "geonameId": 7909123,
        "name": "Gajong",
        "children": [
            
        ]
    },
    {
        "geonameId": 7752562,
        "name": "Gakgatla",
        "children": [
            
        ]
    },
    {
        "geonameId": 1106205,
        "name": "Galekgatshwane",
        "children": [
            
        ]
    },
    {
        "geonameId": 7908235,
        "name": "Gamakuku",
        "children": [
            
        ]
    },
    {
        "geonameId": 7746907,
        "name": "Gamawatle",
        "children": [
            
        ]
    },
    {
        "geonameId": 7752563,
        "name": "Gamodubu",
        "children": [
            
        ]
    },
    {
        "geonameId": 7752556,
        "name": "Gamoleele",
        "children": [
            
        ]
    },
    {
        "geonameId": 7908233,
        "name": "Gamonkga",
        "children": [
            
        ]
    },
    {
        "geonameId": 7908238,
        "name": "Gamorahei",
        "children": [
            
        ]
    },
    {
        "geonameId": 7908220,
        "name": "Ganthibedi",
        "children": [
            
        ]
    },
    {
        "geonameId": 1106203,
        "name": "Gaphatshwe",
        "children": [
            
        ]
    },
    {
        "geonameId": 1106202,
        "name": "Gaphiri",
        "children": [
            
        ]
    },
    {
        "geonameId": 1106209,
        "name": "Garaditau",
        "children": [
            
        ]
    },
    {
        "geonameId": 7746909,
        "name": "Garammala",
        "children": [
            
        ]
    },
    {
        "geonameId": 7908670,
        "name": "Garanjella",
        "children": [
            
        ]
    },
    {
        "geonameId": 7752620,
        "name": "Garuthwi",
        "children": [
            
        ]
    },
    {
        "geonameId": 7909116,
        "name": "Gomasala",
        "children": [
            
        ]
    },
    {
        "geonameId": 933723,
        "name": "Inkangwe",
        "children": [
            
        ]
    },
    {
        "geonameId": 7752565,
        "name": "Kamenakwe",
        "children": [
            
        ]
    },
    {
        "geonameId": 1106211,
        "name": "Kgaphamadi",
        "children": [
            
        ]
    },
    {
        "geonameId": 7746908,
        "name": "Kgomodinake",
        "children": [
            
        ]
    },
    {
        "geonameId": 7752619,
        "name": "Kgonwane",
        "children": [
            
        ]
    },
    {
        "geonameId": 7746926,
        "name": "Kgonwane",
        "children": [
            
        ]
    },
    {
        "geonameId": 7908682,
        "name": "Kgophane",
        "children": [
            
        ]
    },
    {
        "geonameId": 7752576,
        "name": "Khudiro",
        "children": [
            
        ]
    },
    {
        "geonameId": 7909137,
        "name": "Khudumajoko",
        "children": [
            
        ]
    },
    {
        "geonameId": 933633,
        "name": "Khudumelapye",
        "children": [
            
        ]
    },
    {
        "geonameId": 7752584,
        "name": "Kolobeng",
        "children": [
            
        ]
    },
    {
        "geonameId": 7746904,
        "name": "Konye",
        "children": [
            
        ]
    },
    {
        "geonameId": 7908255,
        "name": "Kotolaname",
        "children": [
            
        ]
    },
    {
        "geonameId": 7746918,
        "name": "Kubung",
        "children": [
            
        ]
    },
    {
        "geonameId": 7752587,
        "name": "Kumakwane",
        "children": [
            
        ]
    },
    {
        "geonameId": 7909165,
        "name": "Kwanate",
        "children": [
            
        ]
    },
    {
        "geonameId": 7908675,
        "name": "Lekgalong",
        "children": [
            
        ]
    },
    {
        "geonameId": 1106201,
        "name": "Lelotong",
        "children": [
            
        ]
    },
    {
        "geonameId": 933541,
        "name": "Lenchwe Le Tau",
        "children": [
            
        ]
    },
    {
        "geonameId": 7908686,
        "name": "Lentsweletau",
        "children": [
            
        ]
    },
    {
        "geonameId": 7746931,
        "name": "Lephabe",
        "children": [
            
        ]
    },
    {
        "geonameId": 7908658,
        "name": "Letapane",
        "children": [
            
        ]
    },
    {
        "geonameId": 1106208,
        "name": "Letlhajweng",
        "children": [
            
        ]
    },
    {
        "geonameId": 933534,
        "name": "Letlhakeng",
        "children": [
            
        ]
    },
    {
        "geonameId": 7746916,
        "name": "Losilakgokong",
        "children": [
            
        ]
    },
    {
        "geonameId": 7909115,
        "name": "Lwale",
        "children": [
            
        ]
    },
    {
        "geonameId": 7908248,
        "name": "Magagarape",
        "children": [
            
        ]
    },
    {
        "geonameId": 7746938,
        "name": "Mahatelo",
        "children": [
            
        ]
    },
    {
        "geonameId": 7746910,
        "name": "Mahibitswane",
        "children": [
            
        ]
    },
    {
        "geonameId": 7908633,
        "name": "Majatshippo",
        "children": [
            
        ]
    },
    {
        "geonameId": 7909119,
        "name": "Makgwapana",
        "children": [
            
        ]
    },
    {
        "geonameId": 7908632,
        "name": "Makotswane",
        "children": [
            
        ]
    },
    {
        "geonameId": 7909164,
        "name": "Malwelwe",
        "children": [
            
        ]
    },
    {
        "geonameId": 7909133,
        "name": "Mamputhe",
        "children": [
            
        ]
    },
    {
        "geonameId": 7909170,
        "name": "Mantswabisi",
        "children": [
            
        ]
    },
    {
        "geonameId": 7909146,
        "name": "Mapapeng",
        "children": [
            
        ]
    },
    {
        "geonameId": 7746929,
        "name": "Maphang",
        "children": [
            
        ]
    },
    {
        "geonameId": 7909139,
        "name": "Marapalalo",
        "children": [
            
        ]
    },
    {
        "geonameId": 7909161,
        "name": "Maratswene",
        "children": [
            
        ]
    },
    {
        "geonameId": 7752612,
        "name": "Marotse",
        "children": [
            
        ]
    },
    {
        "geonameId": 7752571,
        "name": "Masebele",
        "children": [
            
        ]
    },
    {
        "geonameId": 7909134,
        "name": "Mathemathema",
        "children": [
            
        ]
    },
    {
        "geonameId": 7752613,
        "name": "Mathoseng",
        "children": [
            
        ]
    },
    {
        "geonameId": 7908219,
        "name": "Matlagatse",
        "children": [
            
        ]
    },
    {
        "geonameId": 7908657,
        "name": "Media",
        "children": [
            
        ]
    },
    {
        "geonameId": 7908628,
        "name": "Mediane",
        "children": [
            
        ]
    },
    {
        "geonameId": 7752572,
        "name": "Metsemabe",
        "children": [
            
        ]
    },
    {
        "geonameId": 1106206,
        "name": "Metsemotlhaba",
        "children": [
            
        ]
    },
    {
        "geonameId": 7752582,
        "name": "Metsemotlhaba",
        "children": [
            
        ]
    },
    {
        "geonameId": 7908232,
        "name": "Mhatane",
        "children": [
            
        ]
    },
    {
        "geonameId": 7908231,
        "name": "Mhatswe",
        "children": [
            
        ]
    },
    {
        "geonameId": 7752570,
        "name": "Mmabotshe",
        "children": [
            
        ]
    },
    {
        "geonameId": 7908679,
        "name": "Mmadikgomo",
        "children": [
            
        ]
    },
    {
        "geonameId": 7909143,
        "name": "Mmakanke",
        "children": [
            
        ]
    },
    {
        "geonameId": 7909173,
        "name": "Mmamajena",
        "children": [
            
        ]
    },
    {
        "geonameId": 7909131,
        "name": "Mmamarobole",
        "children": [
            
        ]
    },
    {
        "geonameId": 7908672,
        "name": "Mmammoto",
        "children": [
            
        ]
    },
    {
        "geonameId": 7746924,
        "name": "Mmampaba",
        "children": [
            
        ]
    },
    {
        "geonameId": 7752616,
        "name": "Mmankgodi",
        "children": [
            
        ]
    },
    {
        "geonameId": 8308632,
        "name": "Mmanoko",
        "children": [
            
        ]
    },
    {
        "geonameId": 1106195,
        "name": "Mmokolodi",
        "children": [
            
        ]
    },
    {
        "geonameId": 7745677,
        "name": "Mmokwanyane",
        "children": [
            
        ]
    },
    {
        "geonameId": 1106213,
        "name": "Mmopone",
        "children": [
            
        ]
    },
    {
        "geonameId": 7909145,
        "name": "Modiabatho",
        "children": [
            
        ]
    },
    {
        "geonameId": 7908626,
        "name": "Moetlo",
        "children": [
            
        ]
    },
    {
        "geonameId": 7908252,
        "name": "Mogahe",
        "children": [
            
        ]
    },
    {
        "geonameId": 7908678,
        "name": "Mogobewamusu",
        "children": [
            
        ]
    },
    {
        "geonameId": 1106194,
        "name": "Mogoditshan",
        "children": [
            
        ]
    },
    {
        "geonameId": 933331,
        "name": "Mogoditshane",
        "children": [
            
        ]
    },
    {
        "geonameId": 7909157,
        "name": "Mogonono",
        "children": [
            
        ]
    },
    {
        "geonameId": 7909141,
        "name": "Mohukutshwane",
        "children": [
            
        ]
    },
    {
        "geonameId": 7908630,
        "name": "Mokgalwane",
        "children": [
            
        ]
    },
    {
        "geonameId": 933305,
        "name": "Molepolole",
        "children": [
            
        ]
    },
    {
        "geonameId": 1106204,
        "name": "Mononyane",
        "children": [
            
        ]
    },
    {
        "geonameId": 7746930,
        "name": "Morarwana",
        "children": [
            
        ]
    },
    {
        "geonameId": 7908254,
        "name": "Morobane",
        "children": [
            
        ]
    },
    {
        "geonameId": 7909126,
        "name": "Morungwane",
        "children": [
            
        ]
    },
    {
        "geonameId": 7909172,
        "name": "Moshaweng",
        "children": [
            
        ]
    },
    {
        "geonameId": 7908236,
        "name": "Mosinki",
        "children": [
            
        ]
    },
    {
        "geonameId": 7908224,
        "name": "Mosokotswe",
        "children": [
            
        ]
    },
    {
        "geonameId": 7909171,
        "name": "Mosokwane",
        "children": [
            
        ]
    },
    {
        "geonameId": 7752569,
        "name": "Mosusu",
        "children": [
            
        ]
    },
    {
        "geonameId": 7909144,
        "name": "Motlholetsetsiga",
        "children": [
            
        ]
    },
    {
        "geonameId": 7909117,
        "name": "Motlhowe",
        "children": [
            
        ]
    },
    {
        "geonameId": 7752602,
        "name": "Motsaka",
        "children": [
            
        ]
    },
    {
        "geonameId": 7909149,
        "name": "Ngopelathagadi",
        "children": [
            
        ]
    },
    {
        "geonameId": 1106215,
        "name": "Nkoyaphiri",
        "children": [
            
        ]
    },
    {
        "geonameId": 7570736,
        "name": "Nswazwi",
        "children": [
            
        ]
    },
    {
        "geonameId": 7570738,
        "name": "Old Nswazwi",
        "children": [
            
        ]
    },
    {
        "geonameId": 7909125,
        "name": "Pajane",
        "children": [
            
        ]
    },
    {
        "geonameId": 7746913,
        "name": "Peloyatlwana",
        "children": [
            
        ]
    },
    {
        "geonameId": 7909114,
        "name": "Phatlaneng",
        "children": [
            
        ]
    },
    {
        "geonameId": 7909124,
        "name": "Phetsolakgare",
        "children": [
            
        ]
    },
    {
        "geonameId": 7745682,
        "name": "Phiriyabokwete",
        "children": [
            
        ]
    },
    {
        "geonameId": 7752581,
        "name": "Pitsegayagelwe",
        "children": [
            
        ]
    },
    {
        "geonameId": 7752606,
        "name": "Radiseko",
        "children": [
            
        ]
    },
    {
        "geonameId": 7752614,
        "name": "Ramankge",
        "children": [
            
        ]
    },
    {
        "geonameId": 933147,
        "name": "Ramaphatlhe",
        "children": [
            
        ]
    },
    {
        "geonameId": 7746911,
        "name": "Ramarapo",
        "children": [
            
        ]
    },
    {
        "geonameId": 7746915,
        "name": "Rammidi",
        "children": [
            
        ]
    },
    {
        "geonameId": 7746914,
        "name": "Rammola",
        "children": [
            
        ]
    },
    {
        "geonameId": 7752555,
        "name": "Ramokgatlhonyana",
        "children": [
            
        ]
    },
    {
        "geonameId": 7909129,
        "name": "Ramothamane",
        "children": [
            
        ]
    },
    {
        "geonameId": 7752615,
        "name": "Ramotlhabeng",
        "children": [
            
        ]
    },
    {
        "geonameId": 1106196,
        "name": "Ranku",
        "children": [
            
        ]
    },
    {
        "geonameId": 7909148,
        "name": "Rapitsane",
        "children": [
            
        ]
    },
    {
        "geonameId": 7745681,
        "name": "Roubeng",
        "children": [
            
        ]
    },
    {
        "geonameId": 7752590,
        "name": "Segakwaneng",
        "children": [
            
        ]
    },
    {
        "geonameId": 7909150,
        "name": "Seherelela",
        "children": [
            
        ]
    },
    {
        "geonameId": 7909127,
        "name": "Sehikantswe",
        "children": [
            
        ]
    },
    {
        "geonameId": 7909130,
        "name": "Sekgwasentsho",
        "children": [
            
        ]
    },
    {
        "geonameId": 7908680,
        "name": "Sekhukhwane",
        "children": [
            
        ]
    },
    {
        "geonameId": 7909163,
        "name": "Sekono",
        "children": [
            
        ]
    },
    {
        "geonameId": 7908684,
        "name": "Sekutle",
        "children": [
            
        ]
    },
    {
        "geonameId": 7752561,
        "name": "Selokwana",
        "children": [
            
        ]
    },
    {
        "geonameId": 7752554,
        "name": "Semarule",
        "children": [
            
        ]
    },
    {
        "geonameId": 7752591,
        "name": "Senamakula",
        "children": [
            
        ]
    },
    {
        "geonameId": 7908245,
        "name": "Seribotsane",
        "children": [
            
        ]
    },
    {
        "geonameId": 7909118,
        "name": "Sukwane",
        "children": [
            
        ]
    },
    {
        "geonameId": 7909136,
        "name": "Suping",
        "children": [
            
        ]
    },
    {
        "geonameId": 7752586,
        "name": "Talane",
        "children": [
            
        ]
    },
    {
        "geonameId": 7908629,
        "name": "Telekele",
        "children": [
            
        ]
    },
    {
        "geonameId": 7908677,
        "name": "Thakatswane",
        "children": [
            
        ]
    },
    {
        "geonameId": 933018,
        "name": "Thamaga",
        "children": [
            
        ]
    },
    {
        "geonameId": 7746928,
        "name": "Theresekole",
        "children": [
            
        ]
    },
    {
        "geonameId": 7752575,
        "name": "Tlhakwane",
        "children": [
            
        ]
    },
    {
        "geonameId": 1106210,
        "name": "Tlhape",
        "children": [
            
        ]
    },
    {
        "geonameId": 7746917,
        "name": "Tlhapeng",
        "children": [
            
        ]
    },
    {
        "geonameId": 7752600,
        "name": "Tlhwane",
        "children": [
            
        ]
    },
    {
        "geonameId": 7908671,
        "name": "Tlowe",
        "children": [
            
        ]
    },
    {
        "geonameId": 7908244,
        "name": "Tsheletshele",
        "children": [
            
        ]
    },
    {
        "geonameId": 7752558,
        "name": "Tshiping",
        "children": [
            
        ]
    },
    {
        "geonameId": 7909135,
        "name": "Tshupane",
        "children": [
            
        ]
    },
    {
        "geonameId": 7752566,
        "name": "Tsorogwane",
        "children": [
            
        ]
    },
    {
        "geonameId": 7909169,
        "name": "Tswaane",
        "children": [
            
        ]
    },
    {
        "geonameId": 7909147,
        "name": "Tswete",
        "children": [
            
        ]
    }
]