[
    {
        "geonameId": 1106585,
        "name": "Baie du Cap",
        "children": [
            
        ]
    },
    {
        "geonameId": 934766,
        "name": "Batimarais",
        "children": [
            
        ]
    },
    {
        "geonameId": 1106706,
        "name": "Beau Bois",
        "children": [
            
        ]
    },
    {
        "geonameId": 934762,
        "name": "Beau Champ",
        "children": [
            
        ]
    },
    {
        "geonameId": 934748,
        "name": "Bel Air",
        "children": [
            
        ]
    },
    {
        "geonameId": 934731,
        "name": "Bel Ombre",
        "children": [
            
        ]
    },
    {
        "geonameId": 934708,
        "name": "Bois Ch\u00e9ri",
        "children": [
            
        ]
    },
    {
        "geonameId": 934694,
        "name": "Bois Sec",
        "children": [
            
        ]
    },
    {
        "geonameId": 934689,
        "name": "Bon Courage",
        "children": [
            
        ]
    },
    {
        "geonameId": 1106702,
        "name": "Britannia",
        "children": [
            
        ]
    },
    {
        "geonameId": 934728,
        "name": "B\u00e9nar\u00e8s",
        "children": [
            
        ]
    },
    {
        "geonameId": 1106704,
        "name": "Camp Berthaud",
        "children": [
            
        ]
    },
    {
        "geonameId": 934660,
        "name": "Camp Diable",
        "children": [
            
        ]
    },
    {
        "geonameId": 934624,
        "name": "Chamouny",
        "children": [
            
        ]
    },
    {
        "geonameId": 934614,
        "name": "Chemin Grenier",
        "children": [
            
        ]
    },
    {
        "geonameId": 934610,
        "name": "Choisy",
        "children": [
            
        ]
    },
    {
        "geonameId": 1106712,
        "name": "Fontenelle",
        "children": [
            
        ]
    },
    {
        "geonameId": 934051,
        "name": "Frederica",
        "children": [
            
        ]
    },
    {
        "geonameId": 934485,
        "name": "Grand Bois",
        "children": [
            
        ]
    },
    {
        "geonameId": 1106721,
        "name": "La Flora",
        "children": [
            
        ]
    },
    {
        "geonameId": 934355,
        "name": "Le Marres",
        "children": [
            
        ]
    },
    {
        "geonameId": 934330,
        "name": "Luchon",
        "children": [
            
        ]
    },
    {
        "geonameId": 934328,
        "name": "L\u2019Union",
        "children": [
            
        ]
    },
    {
        "geonameId": 934260,
        "name": "Mont Blanc",
        "children": [
            
        ]
    },
    {
        "geonameId": 1106711,
        "name": "Pomponnette",
        "children": [
            
        ]
    },
    {
        "geonameId": 1106709,
        "name": "Riambel",
        "children": [
            
        ]
    },
    {
        "geonameId": 934109,
        "name": "Riche Bois",
        "children": [
            
        ]
    },
    {
        "geonameId": 934094,
        "name": "Rivi\u00e8re Dragon",
        "children": [
            
        ]
    },
    {
        "geonameId": 934095,
        "name": "Rivi\u00e8re des Anguilles",
        "children": [
            
        ]
    },
    {
        "geonameId": 934062,
        "name": "Ruisseau Cr\u00e9ole",
        "children": [
            
        ]
    },
    {
        "geonameId": 934056,
        "name": "Saint Aubin",
        "children": [
            
        ]
    },
    {
        "geonameId": 1106703,
        "name": "Saint Avold",
        "children": [
            
        ]
    },
    {
        "geonameId": 1106713,
        "name": "Saint Felix",
        "children": [
            
        ]
    },
    {
        "geonameId": 934049,
        "name": "Saint F\u00e9lix",
        "children": [
            
        ]
    },
    {
        "geonameId": 934037,
        "name": "Saint Martin",
        "children": [
            
        ]
    },
    {
        "geonameId": 934020,
        "name": "Savannah",
        "children": [
            
        ]
    },
    {
        "geonameId": 1106705,
        "name": "Senneville",
        "children": [
            
        ]
    },
    {
        "geonameId": 933995,
        "name": "Souillac",
        "children": [
            
        ]
    },
    {
        "geonameId": 933988,
        "name": "Surinam",
        "children": [
            
        ]
    },
    {
        "geonameId": 1106708,
        "name": "Terracine",
        "children": [
            
        ]
    },
    {
        "geonameId": 1106707,
        "name": "Tyack",
        "children": [
            
        ]
    },
    {
        "geonameId": 1106715,
        "name": "Valentina",
        "children": [
            
        ]
    },
    {
        "geonameId": 1106714,
        "name": "Valruche",
        "children": [
            
        ]
    }
]