[
    {
        "geonameId": 1106630,
        "name": "Amaury",
        "children": [
            
        ]
    },
    {
        "geonameId": 934805,
        "name": "Amiti\u00e9",
        "children": [
            
        ]
    },
    {
        "geonameId": 934798,
        "name": "Antoinette",
        "children": [
            
        ]
    },
    {
        "geonameId": 1106628,
        "name": "Barlow",
        "children": [
            
        ]
    },
    {
        "geonameId": 934759,
        "name": "Beau Manguier",
        "children": [
            
        ]
    },
    {
        "geonameId": 934739,
        "name": "Belle Vue Maurel",
        "children": [
            
        ]
    },
    {
        "geonameId": 934733,
        "name": "Belmont",
        "children": [
            
        ]
    },
    {
        "geonameId": 934688,
        "name": "Bon Espoir",
        "children": [
            
        ]
    },
    {
        "geonameId": 8643380,
        "name": "Calodyne",
        "children": [
            
        ]
    },
    {
        "geonameId": 934649,
        "name": "Cap Malheureux",
        "children": [
            
        ]
    },
    {
        "geonameId": 1106596,
        "name": "Cottage",
        "children": [
            
        ]
    },
    {
        "geonameId": 934533,
        "name": "Esp\u00e9rance Tr\u00e9buchet",
        "children": [
            
        ]
    },
    {
        "geonameId": 934511,
        "name": "Forbach",
        "children": [
            
        ]
    },
    {
        "geonameId": 1106597,
        "name": "Germain",
        "children": [
            
        ]
    },
    {
        "geonameId": 934496,
        "name": "Gokoola",
        "children": [
            
        ]
    },
    {
        "geonameId": 934488,
        "name": "Goodlands",
        "children": [
            
        ]
    },
    {
        "geonameId": 934482,
        "name": "Grand Baie",
        "children": [
            
        ]
    },
    {
        "geonameId": 934479,
        "name": "Grand Gaube",
        "children": [
            
        ]
    },
    {
        "geonameId": 934447,
        "name": "Haute Rive",
        "children": [
            
        ]
    },
    {
        "geonameId": 1106634,
        "name": "Hermitage",
        "children": [
            
        ]
    },
    {
        "geonameId": 1106633,
        "name": "La Cl\u00e9mence",
        "children": [
            
        ]
    },
    {
        "geonameId": 934385,
        "name": "La Morue",
        "children": [
            
        ]
    },
    {
        "geonameId": 934410,
        "name": "Labourdonnais",
        "children": [
            
        ]
    },
    {
        "geonameId": 1106594,
        "name": "L\u2019Esp\u00e9rance",
        "children": [
            
        ]
    },
    {
        "geonameId": 1106598,
        "name": "Madame Azor",
        "children": [
            
        ]
    },
    {
        "geonameId": 1106599,
        "name": "Mamzelle Jeanne",
        "children": [
            
        ]
    },
    {
        "geonameId": 1106771,
        "name": "Mapou",
        "children": [
            
        ]
    },
    {
        "geonameId": 934287,
        "name": "Melville",
        "children": [
            
        ]
    },
    {
        "geonameId": 934266,
        "name": "Mon Piton",
        "children": [
            
        ]
    },
    {
        "geonameId": 1106627,
        "name": "Mon Songe",
        "children": [
            
        ]
    },
    {
        "geonameId": 1106603,
        "name": "Pavillon",
        "children": [
            
        ]
    },
    {
        "geonameId": 1106611,
        "name": "Pereyb\u00e8r\u00e9",
        "children": [
            
        ]
    },
    {
        "geonameId": 934185,
        "name": "Petit Paquet",
        "children": [
            
        ]
    },
    {
        "geonameId": 934184,
        "name": "Petit Raffray",
        "children": [
            
        ]
    },
    {
        "geonameId": 934255,
        "name": "Piton",
        "children": [
            
        ]
    },
    {
        "geonameId": 1106631,
        "name": "Plaines des Roches",
        "children": [
            
        ]
    },
    {
        "geonameId": 934144,
        "name": "Poudre d\u2019Or",
        "children": [
            
        ]
    },
    {
        "geonameId": 1106595,
        "name": "Poudre d\u2019Or Hamlet",
        "children": [
            
        ]
    },
    {
        "geonameId": 934119,
        "name": "Ravin",
        "children": [
            
        ]
    },
    {
        "geonameId": 934091,
        "name": "Rivi\u00e8re du Rempart",
        "children": [
            
        ]
    },
    {
        "geonameId": 934076,
        "name": "Roche Terre",
        "children": [
            
        ]
    },
    {
        "geonameId": 934085,
        "name": "Roches Noire",
        "children": [
            
        ]
    },
    {
        "geonameId": 933948,
        "name": "R\u00e9union Maurel",
        "children": [
            
        ]
    },
    {
        "geonameId": 934057,
        "name": "Saint Antoine",
        "children": [
            
        ]
    },
    {
        "geonameId": 934048,
        "name": "Saint Fran\u00e7ois",
        "children": [
            
        ]
    },
    {
        "geonameId": 934014,
        "name": "Schoenfeld",
        "children": [
            
        ]
    },
    {
        "geonameId": 933970,
        "name": "The Vale",
        "children": [
            
        ]
    },
    {
        "geonameId": 934430,
        "name": "\u00cele d\u2019Ambre",
        "children": [
            
        ]
    }
]