[
    {
        "geonameId": 934788,
        "name": "Bagatelle",
        "children": [
            
        ]
    },
    {
        "geonameId": 1106798,
        "name": "Barkly",
        "children": [
            
        ]
    },
    {
        "geonameId": 934765,
        "name": "Beau Bassin",
        "children": [
            
        ]
    },
    {
        "geonameId": 1106797,
        "name": "Beau S\u00e9jour",
        "children": [
            
        ]
    },
    {
        "geonameId": 1106733,
        "name": "Belle Terre",
        "children": [
            
        ]
    },
    {
        "geonameId": 1106750,
        "name": "Belle \u00c9toile",
        "children": [
            
        ]
    },
    {
        "geonameId": 1106794,
        "name": "Bonne Terre",
        "children": [
            
        ]
    },
    {
        "geonameId": 1106737,
        "name": "Camp Caval",
        "children": [
            
        ]
    },
    {
        "geonameId": 934659,
        "name": "Camp Fouquereaux",
        "children": [
            
        ]
    },
    {
        "geonameId": 1106739,
        "name": "Camp La Savanne",
        "children": [
            
        ]
    },
    {
        "geonameId": 1106738,
        "name": "Camp Mapou",
        "children": [
            
        ]
    },
    {
        "geonameId": 1106740,
        "name": "Camp Roches",
        "children": [
            
        ]
    },
    {
        "geonameId": 1106827,
        "name": "Candos",
        "children": [
            
        ]
    },
    {
        "geonameId": 1106744,
        "name": "Carreau La Liane",
        "children": [
            
        ]
    },
    {
        "geonameId": 934615,
        "name": "Ch\u00e9bel",
        "children": [
            
        ]
    },
    {
        "geonameId": 1106734,
        "name": "Cinq Arpents",
        "children": [
            
        ]
    },
    {
        "geonameId": 934570,
        "name": "Curepipe",
        "children": [
            
        ]
    },
    {
        "geonameId": 1106793,
        "name": "Eaux Coul\u00e9e",
        "children": [
            
        ]
    },
    {
        "geonameId": 1106748,
        "name": "Ebene CyberCity",
        "children": [
            
        ]
    },
    {
        "geonameId": 1106728,
        "name": "Engrais Cathan",
        "children": [
            
        ]
    },
    {
        "geonameId": 1106729,
        "name": "Engrais Martial",
        "children": [
            
        ]
    },
    {
        "geonameId": 934515,
        "name": "Flor\u00e9al",
        "children": [
            
        ]
    },
    {
        "geonameId": 1106727,
        "name": "Forest Side",
        "children": [
            
        ]
    },
    {
        "geonameId": 1106741,
        "name": "Glen Park",
        "children": [
            
        ]
    },
    {
        "geonameId": 934442,
        "name": "Henrietta",
        "children": [
            
        ]
    },
    {
        "geonameId": 934435,
        "name": "Highlands",
        "children": [
            
        ]
    },
    {
        "geonameId": 1106742,
        "name": "Holyrood",
        "children": [
            
        ]
    },
    {
        "geonameId": 934401,
        "name": "La Crois\u00e9e",
        "children": [
            
        ]
    },
    {
        "geonameId": 1106795,
        "name": "La Louise",
        "children": [
            
        ]
    },
    {
        "geonameId": 934388,
        "name": "La Marie",
        "children": [
            
        ]
    },
    {
        "geonameId": 1106746,
        "name": "La Source",
        "children": [
            
        ]
    },
    {
        "geonameId": 1106743,
        "name": "Les Casernes",
        "children": [
            
        ]
    },
    {
        "geonameId": 1106792,
        "name": "Malherbes",
        "children": [
            
        ]
    },
    {
        "geonameId": 1106731,
        "name": "Mesnil",
        "children": [
            
        ]
    },
    {
        "geonameId": 934282,
        "name": "Midlands",
        "children": [
            
        ]
    },
    {
        "geonameId": 1106796,
        "name": "Pellegrin",
        "children": [
            
        ]
    },
    {
        "geonameId": 1106736,
        "name": "Petit Camp",
        "children": [
            
        ]
    },
    {
        "geonameId": 934181,
        "name": "Phoenix",
        "children": [
            
        ]
    },
    {
        "geonameId": 1106749,
        "name": "Plaisance",
        "children": [
            
        ]
    },
    {
        "geonameId": 934131,
        "name": "Quatre Bornes",
        "children": [
            
        ]
    },
    {
        "geonameId": 1106828,
        "name": "River Side",
        "children": [
            
        ]
    },
    {
        "geonameId": 934077,
        "name": "Roches Brunes",
        "children": [
            
        ]
    },
    {
        "geonameId": 934069,
        "name": "Rose Hill",
        "children": [
            
        ]
    },
    {
        "geonameId": 934110,
        "name": "R\u00e9union",
        "children": [
            
        ]
    },
    {
        "geonameId": 1106732,
        "name": "Saint Antoine",
        "children": [
            
        ]
    },
    {
        "geonameId": 1106824,
        "name": "Saint Jean",
        "children": [
            
        ]
    },
    {
        "geonameId": 1106829,
        "name": "Saint Paul",
        "children": [
            
        ]
    },
    {
        "geonameId": 934538,
        "name": "Seizi\u00e8me Mille",
        "children": [
            
        ]
    },
    {
        "geonameId": 934001,
        "name": "Solf\u00e9rino",
        "children": [
            
        ]
    },
    {
        "geonameId": 1106747,
        "name": "Stanley",
        "children": [
            
        ]
    },
    {
        "geonameId": 933961,
        "name": "Trianon",
        "children": [
            
        ]
    },
    {
        "geonameId": 933945,
        "name": "Vacoas",
        "children": [
            {
                "geonameId": 934406,
                "name": "La Caverne",
                "children": [
                    
                ]
            },
            {
                "geonameId": 934125,
                "name": "Quinze Cantons",
                "children": [
                    
                ]
            }
        ]
    },
    {
        "geonameId": 1106735,
        "name": "Valentina",
        "children": [
            
        ]
    },
    {
        "geonameId": 933925,
        "name": "Ville d\u2019Apray",
        "children": [
            
        ]
    },
    {
        "geonameId": 1106800,
        "name": "Vuillemain",
        "children": [
            
        ]
    }
]