[
    {
        "geonameId": 934804,
        "name": "Amiti\u00e9",
        "children": [
            
        ]
    },
    {
        "geonameId": 1106813,
        "name": "Arsenal",
        "children": [
            
        ]
    },
    {
        "geonameId": 1106616,
        "name": "Baie du Tombeau",
        "children": [
            
        ]
    },
    {
        "geonameId": 1106618,
        "name": "Baillache",
        "children": [
            
        ]
    },
    {
        "geonameId": 934758,
        "name": "Beau Plan",
        "children": [
            
        ]
    },
    {
        "geonameId": 934736,
        "name": "Belle Vue Harel",
        "children": [
            
        ]
    },
    {
        "geonameId": 934735,
        "name": "Belle Vue Pilot",
        "children": [
            
        ]
    },
    {
        "geonameId": 1106620,
        "name": "Belv\u00e9d\u00e8re",
        "children": [
            
        ]
    },
    {
        "geonameId": 934699,
        "name": "Bois Mangue",
        "children": [
            
        ]
    },
    {
        "geonameId": 934698,
        "name": "Bois Marchand",
        "children": [
            
        ]
    },
    {
        "geonameId": 1106617,
        "name": "Bois Pignolet",
        "children": [
            
        ]
    },
    {
        "geonameId": 934696,
        "name": "Bois Rouge",
        "children": [
            
        ]
    },
    {
        "geonameId": 934692,
        "name": "Bon Air",
        "children": [
            
        ]
    },
    {
        "geonameId": 1106811,
        "name": "Calebasses",
        "children": [
            
        ]
    },
    {
        "geonameId": 1106613,
        "name": "Camp Bestel",
        "children": [
            
        ]
    },
    {
        "geonameId": 934662,
        "name": "Camp Cr\u00e9ole",
        "children": [
            
        ]
    },
    {
        "geonameId": 1106593,
        "name": "Camp des Embrevades",
        "children": [
            
        ]
    },
    {
        "geonameId": 1106770,
        "name": "Caroline",
        "children": [
            
        ]
    },
    {
        "geonameId": 1106621,
        "name": "Congomah",
        "children": [
            
        ]
    },
    {
        "geonameId": 934573,
        "name": "Cr\u00e8ve Coeur",
        "children": [
            
        ]
    },
    {
        "geonameId": 1106625,
        "name": "D\u2019Epinay",
        "children": [
            
        ]
    },
    {
        "geonameId": 934513,
        "name": "Fond du Sac",
        "children": [
            
        ]
    },
    {
        "geonameId": 1106614,
        "name": "Grande Pointe aux Piments",
        "children": [
            
        ]
    },
    {
        "geonameId": 934474,
        "name": "Grande Rosalie",
        "children": [
            
        ]
    },
    {
        "geonameId": 1106810,
        "name": "Khoyratty",
        "children": [
            
        ]
    },
    {
        "geonameId": 934412,
        "name": "La Bergerie",
        "children": [
            
        ]
    },
    {
        "geonameId": 934403,
        "name": "La Cocoterie",
        "children": [
            
        ]
    },
    {
        "geonameId": 1106814,
        "name": "Le Goulet",
        "children": [
            
        ]
    },
    {
        "geonameId": 1106809,
        "name": "Le Hochet",
        "children": [
            
        ]
    },
    {
        "geonameId": 934349,
        "name": "Le Plessis",
        "children": [
            
        ]
    },
    {
        "geonameId": 1106622,
        "name": "Les Mariannes",
        "children": [
            
        ]
    },
    {
        "geonameId": 934333,
        "name": "Long Mountain",
        "children": [
            
        ]
    },
    {
        "geonameId": 934352,
        "name": "L\u00e9onbourg",
        "children": [
            
        ]
    },
    {
        "geonameId": 1106812,
        "name": "L\u2019Espoir",
        "children": [
            
        ]
    },
    {
        "geonameId": 1106592,
        "name": "Madame Cayeux",
        "children": [
            
        ]
    },
    {
        "geonameId": 934320,
        "name": "Maison Blanche",
        "children": [
            
        ]
    },
    {
        "geonameId": 1106769,
        "name": "Melotte",
        "children": [
            
        ]
    },
    {
        "geonameId": 934269,
        "name": "Mon Go\u00fbt",
        "children": [
            
        ]
    },
    {
        "geonameId": 934264,
        "name": "Mon Rocher",
        "children": [
            
        ]
    },
    {
        "geonameId": 934058,
        "name": "Morcellemont Saint Andr\u00e9",
        "children": [
            
        ]
    },
    {
        "geonameId": 934232,
        "name": "Notre Dame",
        "children": [
            
        ]
    },
    {
        "geonameId": 934213,
        "name": "Pamplemousses",
        "children": [
            
        ]
    },
    {
        "geonameId": 1106615,
        "name": "Petit Gamin",
        "children": [
            
        ]
    },
    {
        "geonameId": 1106626,
        "name": "Petite Julie",
        "children": [
            
        ]
    },
    {
        "geonameId": 1106591,
        "name": "Petite Rosalie",
        "children": [
            
        ]
    },
    {
        "geonameId": 934170,
        "name": "Plaine des Papayes",
        "children": [
            
        ]
    },
    {
        "geonameId": 934162,
        "name": "Pointe aux Canonniers",
        "children": [
            
        ]
    },
    {
        "geonameId": 934155,
        "name": "Pont Praslin",
        "children": [
            
        ]
    },
    {
        "geonameId": 934106,
        "name": "Richeterre",
        "children": [
            
        ]
    },
    {
        "geonameId": 934770,
        "name": "Robinson",
        "children": [
            
        ]
    },
    {
        "geonameId": 934086,
        "name": "Roche Bois",
        "children": [
            
        ]
    },
    {
        "geonameId": 934065,
        "name": "Rouge Terre",
        "children": [
            
        ]
    },
    {
        "geonameId": 1106619,
        "name": "Ruisseau Rose",
        "children": [
            
        ]
    },
    {
        "geonameId": 934055,
        "name": "Saint Cloud",
        "children": [
            
        ]
    },
    {
        "geonameId": 934000,
        "name": "Solitude",
        "children": [
            
        ]
    },
    {
        "geonameId": 933974,
        "name": "Terre Rouge",
        "children": [
            
        ]
    },
    {
        "geonameId": 933971,
        "name": "The Mount",
        "children": [
            
        ]
    },
    {
        "geonameId": 933960,
        "name": "Trio",
        "children": [
            
        ]
    },
    {
        "geonameId": 933959,
        "name": "Triolet",
        "children": [
            
        ]
    },
    {
        "geonameId": 933953,
        "name": "Trou aux Biches",
        "children": [
            
        ]
    },
    {
        "geonameId": 933936,
        "name": "Valton",
        "children": [
            
        ]
    },
    {
        "geonameId": 933927,
        "name": "Ville Bague",
        "children": [
            
        ]
    },
    {
        "geonameId": 933924,
        "name": "Ville Valio",
        "children": [
            
        ]
    },
    {
        "geonameId": 1106623,
        "name": "\u00celot",
        "children": [
            
        ]
    }
]