[
    {
        "geonameId": 934809,
        "name": "Alma",
        "children": [
            
        ]
    },
    {
        "geonameId": 934789,
        "name": "Bagatelle",
        "children": [
            
        ]
    },
    {
        "geonameId": 934773,
        "name": "Bar le Duc",
        "children": [
            
        ]
    },
    {
        "geonameId": 934764,
        "name": "Beau Bois",
        "children": [
            
        ]
    },
    {
        "geonameId": 934741,
        "name": "Belle Rose",
        "children": [
            
        ]
    },
    {
        "geonameId": 934685,
        "name": "Bonne Veine",
        "children": [
            
        ]
    },
    {
        "geonameId": 1106791,
        "name": "Camp Auguste",
        "children": [
            
        ]
    },
    {
        "geonameId": 934656,
        "name": "Camp Thorel",
        "children": [
            
        ]
    },
    {
        "geonameId": 934622,
        "name": "Chantenuy",
        "children": [
            
        ]
    },
    {
        "geonameId": 934609,
        "name": "Circonstance",
        "children": [
            
        ]
    },
    {
        "geonameId": 934580,
        "name": "C\u00f4te d\u2019Or",
        "children": [
            
        ]
    },
    {
        "geonameId": 1106788,
        "name": "Dubreuil",
        "children": [
            
        ]
    },
    {
        "geonameId": 1106782,
        "name": "Esp\u00e9rance",
        "children": [
            
        ]
    },
    {
        "geonameId": 934443,
        "name": "Helv\u00e9tia",
        "children": [
            
        ]
    },
    {
        "geonameId": 934438,
        "name": "Hermitage",
        "children": [
            
        ]
    },
    {
        "geonameId": 934439,
        "name": "Hermitage",
        "children": [
            
        ]
    },
    {
        "geonameId": 934436,
        "name": "Herv\u00e9",
        "children": [
            
        ]
    },
    {
        "geonameId": 934400,
        "name": "La Dagoti\u00e8re",
        "children": [
            
        ]
    },
    {
        "geonameId": 934391,
        "name": "La Laura",
        "children": [
            
        ]
    },
    {
        "geonameId": 934377,
        "name": "La Russie",
        "children": [
            
        ]
    },
    {
        "geonameId": 934365,
        "name": "Le Bocage",
        "children": [
            
        ]
    },
    {
        "geonameId": 934347,
        "name": "Le R\u00e9duit",
        "children": [
            
        ]
    },
    {
        "geonameId": 1106802,
        "name": "Les Guibies",
        "children": [
            
        ]
    },
    {
        "geonameId": 934392,
        "name": "L\u2019Agr\u00e9ment",
        "children": [
            
        ]
    },
    {
        "geonameId": 1106781,
        "name": "L\u2019Assurance",
        "children": [
            
        ]
    },
    {
        "geonameId": 1106775,
        "name": "L\u2019Avenir",
        "children": [
            
        ]
    },
    {
        "geonameId": 934344,
        "name": "L\u2019Escalier",
        "children": [
            
        ]
    },
    {
        "geonameId": 934288,
        "name": "Melrose",
        "children": [
            
        ]
    },
    {
        "geonameId": 934278,
        "name": "Minissy",
        "children": [
            
        ]
    },
    {
        "geonameId": 934277,
        "name": "Moka",
        "children": [
            
        ]
    },
    {
        "geonameId": 934272,
        "name": "Mon D\u00e9sert",
        "children": [
            
        ]
    },
    {
        "geonameId": 934258,
        "name": "Mont Fleury",
        "children": [
            
        ]
    },
    {
        "geonameId": 1106801,
        "name": "Montebello",
        "children": [
            
        ]
    },
    {
        "geonameId": 934245,
        "name": "Mount Ory",
        "children": [
            
        ]
    },
    {
        "geonameId": 1106773,
        "name": "Nouvelle D\u00e9couverte",
        "children": [
            
        ]
    },
    {
        "geonameId": 934219,
        "name": "Pailles",
        "children": [
            
        ]
    },
    {
        "geonameId": 1106784,
        "name": "Petit Paquet",
        "children": [
            
        ]
    },
    {
        "geonameId": 934182,
        "name": "Petit Verger",
        "children": [
            
        ]
    },
    {
        "geonameId": 934138,
        "name": "Providence",
        "children": [
            
        ]
    },
    {
        "geonameId": 934133,
        "name": "Quartier Militaire",
        "children": [
            
        ]
    },
    {
        "geonameId": 934102,
        "name": "Ripailles",
        "children": [
            
        ]
    },
    {
        "geonameId": 934097,
        "name": "Rivi\u00e8re Baptiste",
        "children": [
            
        ]
    },
    {
        "geonameId": 934067,
        "name": "Roselyn Cottage",
        "children": [
            
        ]
    },
    {
        "geonameId": 934032,
        "name": "Saint Pierre",
        "children": [
            
        ]
    },
    {
        "geonameId": 1106774,
        "name": "Salazie",
        "children": [
            
        ]
    },
    {
        "geonameId": 1106776,
        "name": "Telfair",
        "children": [
            
        ]
    },
    {
        "geonameId": 933937,
        "name": "Valetta",
        "children": [
            
        ]
    },
    {
        "geonameId": 933933,
        "name": "Verdun",
        "children": [
            
        ]
    },
    {
        "geonameId": 1106783,
        "name": "Vuillemin",
        "children": [
            
        ]
    }
]