[
    {
        "geonameId": 1106678,
        "name": "Anse Jonch\u00e9e",
        "children": [
            
        ]
    },
    {
        "geonameId": 934792,
        "name": "Astroea",
        "children": [
            
        ]
    },
    {
        "geonameId": 1106694,
        "name": "Balisson",
        "children": [
            
        ]
    },
    {
        "geonameId": 1106677,
        "name": "Bambous Virieux",
        "children": [
            
        ]
    },
    {
        "geonameId": 1106723,
        "name": "Bananes",
        "children": [
            
        ]
    },
    {
        "geonameId": 934760,
        "name": "Beau Fond",
        "children": [
            
        ]
    },
    {
        "geonameId": 934755,
        "name": "Beau Site",
        "children": [
            
        ]
    },
    {
        "geonameId": 934753,
        "name": "Beau Vallon",
        "children": [
            
        ]
    },
    {
        "geonameId": 934754,
        "name": "Beau Vallon",
        "children": [
            
        ]
    },
    {
        "geonameId": 934737,
        "name": "Belle Vue",
        "children": [
            
        ]
    },
    {
        "geonameId": 934705,
        "name": "Bois des Amourettes",
        "children": [
            
        ]
    },
    {
        "geonameId": 934701,
        "name": "Bois d\u2019Oiseaux",
        "children": [
            
        ]
    },
    {
        "geonameId": 1106697,
        "name": "B\u00e9manique",
        "children": [
            
        ]
    },
    {
        "geonameId": 934663,
        "name": "Camp Accacia",
        "children": [
            
        ]
    },
    {
        "geonameId": 1106687,
        "name": "Camp Carol",
        "children": [
            
        ]
    },
    {
        "geonameId": 1106682,
        "name": "Camp Jardin",
        "children": [
            
        ]
    },
    {
        "geonameId": 934634,
        "name": "Cent Gaulettes",
        "children": [
            
        ]
    },
    {
        "geonameId": 1106589,
        "name": "Cluny",
        "children": [
            
        ]
    },
    {
        "geonameId": 934565,
        "name": "Dalais",
        "children": [
            
        ]
    },
    {
        "geonameId": 934560,
        "name": "Deux Bras",
        "children": [
            
        ]
    },
    {
        "geonameId": 934545,
        "name": "Eau Bleue",
        "children": [
            
        ]
    },
    {
        "geonameId": 1106679,
        "name": "Ferney",
        "children": [
            
        ]
    },
    {
        "geonameId": 934749,
        "name": "Grand Bel Air",
        "children": [
            
        ]
    },
    {
        "geonameId": 934459,
        "name": "Grand Sable",
        "children": [
            
        ]
    },
    {
        "geonameId": 934457,
        "name": "Gros Billot",
        "children": [
            
        ]
    },
    {
        "geonameId": 934456,
        "name": "Gros Bois",
        "children": [
            
        ]
    },
    {
        "geonameId": 934422,
        "name": "Joli Bois",
        "children": [
            
        ]
    },
    {
        "geonameId": 934413,
        "name": "La Barraque",
        "children": [
            
        ]
    },
    {
        "geonameId": 934380,
        "name": "La Rampe - Le Moirt",
        "children": [
            
        ]
    },
    {
        "geonameId": 934379,
        "name": "La Rosa",
        "children": [
            
        ]
    },
    {
        "geonameId": 1106691,
        "name": "La Sourdine",
        "children": [
            
        ]
    },
    {
        "geonameId": 934683,
        "name": "Le Bouchon",
        "children": [
            
        ]
    },
    {
        "geonameId": 934361,
        "name": "Le Chaland",
        "children": [
            
        ]
    },
    {
        "geonameId": 934338,
        "name": "Le Val",
        "children": [
            
        ]
    },
    {
        "geonameId": 1106680,
        "name": "Le Vallon",
        "children": [
            
        ]
    },
    {
        "geonameId": 934337,
        "name": "Ligne Barrin",
        "children": [
            
        ]
    },
    {
        "geonameId": 934343,
        "name": "L\u2019Escalier",
        "children": [
            
        ]
    },
    {
        "geonameId": 934322,
        "name": "Mah\u00e9bourg",
        "children": [
            
        ]
    },
    {
        "geonameId": 1106698,
        "name": "Mare Chicose",
        "children": [
            
        ]
    },
    {
        "geonameId": 934303,
        "name": "Mare Tabac",
        "children": [
            
        ]
    },
    {
        "geonameId": 934309,
        "name": "Mare d\u2019Albert",
        "children": [
            
        ]
    },
    {
        "geonameId": 1106695,
        "name": "Marie Jeanie",
        "children": [
            
        ]
    },
    {
        "geonameId": 1106587,
        "name": "Mon Tr\u00e9sor - Mon D\u00e9sert",
        "children": [
            {
                "geonameId": 934271,
                "name": "Mon D\u00e9sert",
                "children": [
                    
                ]
            },
            {
                "geonameId": 934254,
                "name": "Mon Tr\u00e9sor",
                "children": [
                    
                ]
            }
        ]
    },
    {
        "geonameId": 934240,
        "name": "New Grove",
        "children": [
            
        ]
    },
    {
        "geonameId": 934229,
        "name": "Nouvelle France",
        "children": [
            
        ]
    },
    {
        "geonameId": 934203,
        "name": "Pavillon du Grand Port",
        "children": [
            
        ]
    },
    {
        "geonameId": 1106683,
        "name": "Petit Bel Air",
        "children": [
            
        ]
    },
    {
        "geonameId": 1106676,
        "name": "Petit Sable",
        "children": [
            
        ]
    },
    {
        "geonameId": 934169,
        "name": "Plaine Magnien",
        "children": [
            
        ]
    },
    {
        "geonameId": 934164,
        "name": "Plaisance",
        "children": [
            
        ]
    },
    {
        "geonameId": 1106690,
        "name": "Plein Bois",
        "children": [
            
        ]
    },
    {
        "geonameId": 1106675,
        "name": "Pointe aux Roches",
        "children": [
            
        ]
    },
    {
        "geonameId": 1106685,
        "name": "Pointe d\u2019Esny",
        "children": [
            
        ]
    },
    {
        "geonameId": 934156,
        "name": "Pont Colville",
        "children": [
            
        ]
    },
    {
        "geonameId": 1106590,
        "name": "Providence",
        "children": [
            
        ]
    },
    {
        "geonameId": 934108,
        "name": "Riche en Eau",
        "children": [
            
        ]
    },
    {
        "geonameId": 934096,
        "name": "Rivi\u00e8re des Creoles",
        "children": [
            
        ]
    },
    {
        "geonameId": 934072,
        "name": "Rose Belle",
        "children": [
            
        ]
    },
    {
        "geonameId": 934063,
        "name": "Ruisseau Copeaux",
        "children": [
            
        ]
    },
    {
        "geonameId": 1106699,
        "name": "Saint Hilaire",
        "children": [
            
        ]
    },
    {
        "geonameId": 934047,
        "name": "Saint Hubert",
        "children": [
            
        ]
    },
    {
        "geonameId": 1106700,
        "name": "Sainte Madeleine",
        "children": [
            
        ]
    },
    {
        "geonameId": 934015,
        "name": "Savinia",
        "children": [
            
        ]
    },
    {
        "geonameId": 933997,
        "name": "Souffleur",
        "children": [
            
        ]
    },
    {
        "geonameId": 1106689,
        "name": "Trois Boutiques",
        "children": [
            
        ]
    },
    {
        "geonameId": 1106693,
        "name": "Union Park",
        "children": [
            
        ]
    },
    {
        "geonameId": 933947,
        "name": "Union Vale",
        "children": [
            
        ]
    },
    {
        "geonameId": 933930,
        "name": "Vieux Grand Port",
        "children": [
            
        ]
    },
    {
        "geonameId": 1106684,
        "name": "Ville Noire",
        "children": [
            
        ]
    },
    {
        "geonameId": 933920,
        "name": "Virginia",
        "children": [
            
        ]
    }
]