[
    {
        "geonameId": 934796,
        "name": "Argy",
        "children": [
            
        ]
    },
    {
        "geonameId": 934786,
        "name": "Baie Mannioc",
        "children": [
            
        ]
    },
    {
        "geonameId": 934763,
        "name": "Beau Champ",
        "children": [
            
        ]
    },
    {
        "geonameId": 934750,
        "name": "Bel Air Rivi\u00e8re S\u00e8che",
        "children": [
            
        ]
    },
    {
        "geonameId": 934746,
        "name": "Bel \u00c9tang",
        "children": [
            
        ]
    },
    {
        "geonameId": 1106642,
        "name": "Belle Mare",
        "children": [
            
        ]
    },
    {
        "geonameId": 934742,
        "name": "Belle Rive",
        "children": [
            
        ]
    },
    {
        "geonameId": 934740,
        "name": "Belle Rose",
        "children": [
            
        ]
    },
    {
        "geonameId": 1106672,
        "name": "Belle Vue Allendy",
        "children": [
            
        ]
    },
    {
        "geonameId": 934729,
        "name": "Belv\u00e9d\u00e8re",
        "children": [
            
        ]
    },
    {
        "geonameId": 1106674,
        "name": "Belv\u00e9d\u00e8re",
        "children": [
            
        ]
    },
    {
        "geonameId": 934703,
        "name": "Bois d\u2019Oiseaux",
        "children": [
            
        ]
    },
    {
        "geonameId": 934702,
        "name": "Bois d\u2019Oiseaux",
        "children": [
            
        ]
    },
    {
        "geonameId": 934693,
        "name": "Bon Accueil",
        "children": [
            
        ]
    },
    {
        "geonameId": 1106646,
        "name": "Bramsthan",
        "children": [
            
        ]
    },
    {
        "geonameId": 934677,
        "name": "Bris\u00e9e Verdi\u00e8re",
        "children": [
            
        ]
    },
    {
        "geonameId": 1106659,
        "name": "Camp Bonnem\u00e8re",
        "children": [
            
        ]
    },
    {
        "geonameId": 1106637,
        "name": "Camp Bouillon",
        "children": [
            
        ]
    },
    {
        "geonameId": 934686,
        "name": "Camp Garreau",
        "children": [
            
        ]
    },
    {
        "geonameId": 1106645,
        "name": "Camp Ithier",
        "children": [
            
        ]
    },
    {
        "geonameId": 1106635,
        "name": "Camp Poorun",
        "children": [
            
        ]
    },
    {
        "geonameId": 934657,
        "name": "Camp Sonah",
        "children": [
            
        ]
    },
    {
        "geonameId": 934661,
        "name": "Camp de Masque",
        "children": [
            
        ]
    },
    {
        "geonameId": 1106670,
        "name": "Camp de Masque Pave",
        "children": [
            
        ]
    },
    {
        "geonameId": 934631,
        "name": "Centre de Flacq",
        "children": [
            
        ]
    },
    {
        "geonameId": 1106667,
        "name": "Clavet",
        "children": [
            
        ]
    },
    {
        "geonameId": 934599,
        "name": "Cl\u00e9mencia",
        "children": [
            
        ]
    },
    {
        "geonameId": 934590,
        "name": "Constance",
        "children": [
            
        ]
    },
    {
        "geonameId": 934588,
        "name": "Coquinbourg",
        "children": [
            
        ]
    },
    {
        "geonameId": 934563,
        "name": "Deep River",
        "children": [
            
        ]
    },
    {
        "geonameId": 1106666,
        "name": "Deux Fr\u00e8res",
        "children": [
            
        ]
    },
    {
        "geonameId": 1106660,
        "name": "Ecroignard",
        "children": [
            
        ]
    },
    {
        "geonameId": 1106663,
        "name": "Ernest Florent",
        "children": [
            
        ]
    },
    {
        "geonameId": 1106673,
        "name": "Grand dans Fond",
        "children": [
            
        ]
    },
    {
        "geonameId": 934478,
        "name": "Grande Retraite",
        "children": [
            
        ]
    },
    {
        "geonameId": 934475,
        "name": "Grande Rivi\u00e8re Sud Est",
        "children": [
            
        ]
    },
    {
        "geonameId": 934448,
        "name": "Haut de Flacq",
        "children": [
            
        ]
    },
    {
        "geonameId": 934437,
        "name": "Hermitage",
        "children": [
            
        ]
    },
    {
        "geonameId": 1106644,
        "name": "Isidore Rose",
        "children": [
            
        ]
    },
    {
        "geonameId": 1106662,
        "name": "La Caroline",
        "children": [
            
        ]
    },
    {
        "geonameId": 1106658,
        "name": "La Commune",
        "children": [
            
        ]
    },
    {
        "geonameId": 934395,
        "name": "La Gai\u00e9t\u00e9",
        "children": [
            
        ]
    },
    {
        "geonameId": 934389,
        "name": "La Lucie",
        "children": [
            
        ]
    },
    {
        "geonameId": 934387,
        "name": "La Marre",
        "children": [
            
        ]
    },
    {
        "geonameId": 934383,
        "name": "La Nourrice",
        "children": [
            
        ]
    },
    {
        "geonameId": 934390,
        "name": "Lalmatie",
        "children": [
            
        ]
    },
    {
        "geonameId": 1106584,
        "name": "Laventure",
        "children": [
            
        ]
    },
    {
        "geonameId": 934340,
        "name": "Lesur",
        "children": [
            
        ]
    },
    {
        "geonameId": 934327,
        "name": "L\u2019Unit\u00e9",
        "children": [
            
        ]
    },
    {
        "geonameId": 934339,
        "name": "L\u2019\u00c9toile",
        "children": [
            
        ]
    },
    {
        "geonameId": 934307,
        "name": "Mare Jacot",
        "children": [
            
        ]
    },
    {
        "geonameId": 1106638,
        "name": "Mare La Chaux",
        "children": [
            
        ]
    },
    {
        "geonameId": 1106632,
        "name": "Mare d\u2019Australia",
        "children": [
            
        ]
    },
    {
        "geonameId": 1106664,
        "name": "Marie Jeanne",
        "children": [
            
        ]
    },
    {
        "geonameId": 934291,
        "name": "M\u00e9dine",
        "children": [
            
        ]
    },
    {
        "geonameId": 934225,
        "name": "Olivia",
        "children": [
            
        ]
    },
    {
        "geonameId": 1106650,
        "name": "Palmar",
        "children": [
            
        ]
    },
    {
        "geonameId": 1106668,
        "name": "Pellegrin",
        "children": [
            
        ]
    },
    {
        "geonameId": 1106661,
        "name": "Petit Bois",
        "children": [
            
        ]
    },
    {
        "geonameId": 1106669,
        "name": "Petite Cabane",
        "children": [
            
        ]
    },
    {
        "geonameId": 1106665,
        "name": "Pointe aux Feuilles",
        "children": [
            
        ]
    },
    {
        "geonameId": 934159,
        "name": "Pont Blanc",
        "children": [
            
        ]
    },
    {
        "geonameId": 934149,
        "name": "Poste de Flacq",
        "children": [
            
        ]
    },
    {
        "geonameId": 1106636,
        "name": "Providence",
        "children": [
            
        ]
    },
    {
        "geonameId": 1106643,
        "name": "Quatre Cocos",
        "children": [
            
        ]
    },
    {
        "geonameId": 934127,
        "name": "Quatre Soeurs",
        "children": [
            
        ]
    },
    {
        "geonameId": 934126,
        "name": "Queen Victoria",
        "children": [
            
        ]
    },
    {
        "geonameId": 934104,
        "name": "Rich Fund",
        "children": [
            
        ]
    },
    {
        "geonameId": 934043,
        "name": "Saint Julien",
        "children": [
            
        ]
    },
    {
        "geonameId": 1106647,
        "name": "Saint Remy",
        "children": [
            
        ]
    },
    {
        "geonameId": 934013,
        "name": "Sebastopol",
        "children": [
            
        ]
    },
    {
        "geonameId": 933956,
        "name": "Trois \u00celots",
        "children": [
            
        ]
    },
    {
        "geonameId": 933951,
        "name": "Trou d\u2019Eau Douce",
        "children": [
            
        ]
    },
    {
        "geonameId": 1106671,
        "name": "Union Flacq",
        "children": [
            
        ]
    }
]