[
    {
        "geonameId": 934812,
        "name": "Albion",
        "children": [
            
        ]
    },
    {
        "geonameId": 1106830,
        "name": "Anna",
        "children": [
            
        ]
    },
    {
        "geonameId": 934778,
        "name": "Bambous",
        "children": [
            
        ]
    },
    {
        "geonameId": 934776,
        "name": "Barachois",
        "children": [
            
        ]
    },
    {
        "geonameId": 1106753,
        "name": "Beaux Songes",
        "children": [
            
        ]
    },
    {
        "geonameId": 934744,
        "name": "Belle Isle",
        "children": [
            
        ]
    },
    {
        "geonameId": 934738,
        "name": "Belle Vue",
        "children": [
            
        ]
    },
    {
        "geonameId": 934672,
        "name": "Cachette",
        "children": [
            
        ]
    },
    {
        "geonameId": 1106762,
        "name": "Camp Cr\u00e9oles",
        "children": [
            
        ]
    },
    {
        "geonameId": 934658,
        "name": "Camp Malgache",
        "children": [
            
        ]
    },
    {
        "geonameId": 1106761,
        "name": "Canot",
        "children": [
            
        ]
    },
    {
        "geonameId": 934644,
        "name": "Cascavelle",
        "children": [
            
        ]
    },
    {
        "geonameId": 934636,
        "name": "Cazela",
        "children": [
            
        ]
    },
    {
        "geonameId": 934626,
        "name": "Chamarel",
        "children": [
            
        ]
    },
    {
        "geonameId": 934600,
        "name": "Clarence",
        "children": [
            
        ]
    },
    {
        "geonameId": 1106817,
        "name": "Coromandel",
        "children": [
            
        ]
    },
    {
        "geonameId": 934581,
        "name": "Coteau Raffin",
        "children": [
            
        ]
    },
    {
        "geonameId": 1106754,
        "name": "Eau Bonne",
        "children": [
            
        ]
    },
    {
        "geonameId": 934517,
        "name": "Flic en Flac",
        "children": [
            
        ]
    },
    {
        "geonameId": 934480,
        "name": "Grande Case Noyale",
        "children": [
            
        ]
    },
    {
        "geonameId": 934089,
        "name": "Grande Rivi\u00e8re Noire",
        "children": [
            
        ]
    },
    {
        "geonameId": 1106763,
        "name": "Gros Cailloux",
        "children": [
            
        ]
    },
    {
        "geonameId": 934402,
        "name": "La Crete",
        "children": [
            
        ]
    },
    {
        "geonameId": 1106719,
        "name": "La Gaulette",
        "children": [
            
        ]
    },
    {
        "geonameId": 934386,
        "name": "La Mecque",
        "children": [
            
        ]
    },
    {
        "geonameId": 1106756,
        "name": "La Mivoie",
        "children": [
            
        ]
    },
    {
        "geonameId": 934411,
        "name": "Labont\u00e9",
        "children": [
            
        ]
    },
    {
        "geonameId": 934366,
        "name": "Lavill\u00e9on",
        "children": [
            
        ]
    },
    {
        "geonameId": 1106716,
        "name": "L\u2019Embrasure",
        "children": [
            
        ]
    },
    {
        "geonameId": 934027,
        "name": "Mare Samson",
        "children": [
            
        ]
    },
    {
        "geonameId": 934276,
        "name": "Moka",
        "children": [
            
        ]
    },
    {
        "geonameId": 934252,
        "name": "Mon Vallon",
        "children": [
            
        ]
    },
    {
        "geonameId": 934290,
        "name": "M\u00e9dine",
        "children": [
            
        ]
    },
    {
        "geonameId": 934214,
        "name": "Palmyre",
        "children": [
            
        ]
    },
    {
        "geonameId": 934188,
        "name": "Petit Verger",
        "children": [
            
        ]
    },
    {
        "geonameId": 934198,
        "name": "Petite Case Noyale",
        "children": [
            
        ]
    },
    {
        "geonameId": 934195,
        "name": "Petite Rivi\u00e8re",
        "children": [
            
        ]
    },
    {
        "geonameId": 1106760,
        "name": "Petite Rivi\u00e8re Noire",
        "children": [
            
        ]
    },
    {
        "geonameId": 1106764,
        "name": "Pointe aux Sables",
        "children": [
            
        ]
    },
    {
        "geonameId": 933991,
        "name": "Suase",
        "children": [
            
        ]
    },
    {
        "geonameId": 933982,
        "name": "Tamarin",
        "children": [
            
        ]
    },
    {
        "geonameId": 933911,
        "name": "Yemen",
        "children": [
            
        ]
    }
]